{"version": 0.6, "generator": "Overpass API 0.7.57 93a4d346", "osm3s": {"timestamp_osm_base": "2022-05-12T16:13:39Z", "copyright": "The data included in this document is from www.openstreetmap.org. The data is made available under ODbL."}, "elements": [{"type": "node", "id": 289124116, "lat": 39.8389125, "lon": 116.4685034, "tags": {"bus": "yes", "highway": "bus_stop", "name": "\u5341\u516b\u91cc\u5e97\u5357\u6865", "public_transport": "stop_position", "wheelchair": "yes"}}, {"type": "node", "id": 331000821, "lat": 39.8022184, "lon": 116.4723156, "tags": {"bus": "yes", "highway": "bus_stop", "name": "\u4ea6\u5e84\u6865\u5357", "public_transport": "stop_position"}}, {"type": "node", "id": 1074413501, "lat": 39.8056619, "lon": 116.4846456, "tags": {"name": "\u4ea6\u5e84\u6587\u5316\u56ed", "name:en": "Yizhuang Culture Park", "name:zh": "\u4ea6\u5e84\u6587\u5316\u56ed", "name:zh_pinyin": "Y\u00eczhu\u0101ng W\u00e9nhu\u00e0yu\u00e1n", "public_transport": "stop_position", "railway": "stop", "subway": "yes"}}, {"type": "node", "id": 1074413516, "lat": 39.7825727, "lon": 116.5565361, "tags": {"name": "\u7ecf\u6d77\u8def", "name:en": "Jinghailu", "name:zh": "\u7ecf\u6d77\u8def", "name:zh_pinyin": "J\u012bngh\u0103il\u00f9", "public_transport": "stop_position", "railway": "stop", "subway": "yes"}}, {"type": "node", "id": 1074413522, "lat": 39.8023782, "lon": 116.5846408, "tags": {"railway": "subway_entrance", "ref": "D", "wheelchair": "yes"}}, {"type": "node", "id": 1074413537, "lat": 39.7816866, "lon": 116.5158378, "tags": {"name": "\u8363\u660c\u4e1c\u8857", "name:en": "Rongchangdongjie", "name:zh": "\u8363\u660c\u4e1c\u8857", "name:zh_pinyin": "R\u00f3ngch\u0101ngd\u014dngji\u0113", "public_transport": "stop_position", "railway": "stop", "subway": "yes", "wikidata": "Q5937661"}}, {"type": "node", "id": 1074413543, "lat": 39.8017621, "lon": 116.474259, "tags": {"name": "\u4ea6\u5e84\u6865", "name:en": "Yizhuangqiao", "name:zh": "\u4ea6\u5e84\u6865", "name:zh_pinyin": "Y\u00eczhu\u0101ngqi\u00e1o", "public_transport": "stop_position", "railway": "stop", "subway": "yes", "wikidata": "Q5936835"}}, {"type": "node", "id": 1074413554, "lat": 39.771785, "lon": 116.5340791, "tags": {"name": "\u540c\u6d4e\u5357\u8def", "name:en": "Tongjinanlu", "name:zh": "\u540c\u6d4e\u5357\u8def", "name:zh_pinyin": "T\u00f3ngj\u00ecn\u00e1nl\u00f9", "public_transport": "stop_position", "railway": "stop", "subway": "yes"}}, {"type": "node", "id": 1074413587, "lat": 39.803203, "lon": 116.5853526, "tags": {"railway": "subway_entrance", "ref": "A", "wheelchair": "yes"}}, {"type": "node", "id": 1074413605, "lat": 39.8025087, "lon": 116.5856816, "tags": {"name": "\u6b21\u6e20", "name:en": "Ciqu", "name:zh": "\u6b21\u6e20", "name:zh_pinyin": "C\u00ecq\u00fa", "public_transport": "stop_position", "railway": "stop", "subway": "yes", "wheelchair": "yes", "wikidata": "Q5121332"}}, {"type": "node", "id": 1074413619, "lat": 39.8115258, "lon": 116.5961466, "tags": {"name": "\u4ea6\u5e84\u706b\u8f66\u7ad9", "name:en": "Yizhuang Railway Station", "name:zh": "\u4ea6\u5e84\u706b\u8f66\u7ad9", "name:zh_pinyin": "Y\u00eczhu\u0101ng Hu\u014fch\u0113zh\u00e0n", "public_transport": "stop_position", "railway": "stop", "subway": "yes"}}, {"type": "node", "id": 1094071212, "lat": 39.7937219, "lon": 116.5753324, "tags": {"name": "\u6b21\u6e20\u5357", "name:en": "Ciqu South", "name:zh": "\u6b21\u6e20\u5357", "name:zh_pinyin": "C\u00ecq\u00fan\u00e1n", "public_transport": "stop_position", "railway": "station", "subway": "yes", "wikidata": "Q5121331"}}, {"type": "node", "id": 1353434209, "lat": 39.8115812, "lon": 116.596036, "tags": {"name": "\u4ea6\u5e84\u706b\u8f66\u7ad9", "name:en": "Yizhuang Railway Station", "name:zh": "\u4ea6\u5e84\u706b\u8f66\u7ad9", "name:zh_pinyin": "Y\u00eczhu\u0101ng Hu\u014fch\u0113zh\u00e0n", "public_transport": "stop_position", "railway": "stop", "subway": "yes"}}, {"type": "node", "id": 1353434213, "lat": 39.77181, "lon": 116.5340587, "tags": {"name": "\u540c\u6d4e\u5357\u8def", "name:en": "Tongjinanlu", "name:zh": "\u540c\u6d4e\u5357\u8def", "name:zh_pinyin": "T\u00f3ngj\u00ecn\u00e1nl\u00f9", "public_transport": "stop_position", "railway": "stop", "subway": "yes"}}, {"type": "node", "id": 1353434228, "lat": 39.7718988, "lon": 116.5339813, "tags": {"name": "\u540c\u6d4e\u5357\u8def", "name:en": "Tongjinanlu", "name:zh": "\u540c\u6d4e\u5357\u8def", "name:zh_pinyin": "T\u00f3ngj\u00ecn\u00e1nl\u00f9", "public_transport": "stop_position", "railway": "stop", "subway": "yes"}}, {"type": "node", "id": 1353434231, "lat": 39.8025918, "lon": 116.585568, "tags": {"name": "\u6b21\u6e20", "name:en": "Ciqu", "name:zh": "\u6b21\u6e20", "name:zh_pinyin": "C\u00ecq\u00fa", "public_transport": "stop_position", "railway": "stop", "subway": "yes"}}, {"type": "node", "id": 1353434234, "lat": 39.793804, "lon": 116.5752161, "tags": {"name": "\u6b21\u6e20\u5357", "name:en": "Ciqu South", "name:zh": "\u6b21\u6e20\u5357", "name:zh_pinyin": "C\u00ecq\u00fan\u00e1n", "public_transport": "stop_position", "railway": "stop", "subway": "yes"}}, {"type": "node", "id": 1353434236, "lat": 39.7826035, "lon": 116.5565073, "tags": {"name": "\u7ecf\u6d77\u8def", "name:en": "Jinghailu", "name:zh": "\u7ecf\u6d77\u8def", "name:zh_pinyin": "J\u012bngh\u0103il\u00f9", "public_transport": "stop_position", "railway": "stop", "subway": "yes"}}, {"type": "node", "id": 1353434368, "lat": 39.77149, "lon": 116.5335119}, {"type": "node", "id": 1353434370, "lat": 39.7715526, "lon": 116.5334635}, {"type": "node", "id": 1353434391, "lat": 39.7716045, "lon": 116.5334234}, {"type": "node", "id": 1353434394, "lat": 39.7720565, "lon": 116.534682}, {"type": "node", "id": 1353434401, "lat": 39.7721167, "lon": 116.5346324}, {"type": "node", "id": 1353434403, "lat": 39.7721679, "lon": 116.5345902}, {"type": "node", "id": 1353434455, "lat": 39.7811692, "lon": 116.5161116}, {"type": "node", "id": 1353434460, "lat": 39.7812172, "lon": 116.5161725}, {"type": "node", "id": 1353434463, "lat": 39.7812685, "lon": 116.5162754}, {"type": "node", "id": 1353434465, "lat": 39.7812886, "lon": 116.5163603}, {"type": "node", "id": 1353434492, "lat": 39.7821057, "lon": 116.5153496}, {"type": "node", "id": 1353434508, "lat": 39.782225, "lon": 116.5155983}, {"type": "node", "id": 1353434511, "lat": 39.7822487, "lon": 116.555933}, {"type": "node", "id": 1353434513, "lat": 39.7823307, "lon": 116.5558689}, {"type": "node", "id": 1353434536, "lat": 39.7828461, "lon": 116.5571697}, {"type": "node", "id": 1353434538, "lat": 39.7829249, "lon": 116.5571024}, {"type": "node", "id": 1353434650, "lat": 39.793323, "lon": 116.5748216}, {"type": "node", "id": 1353434653, "lat": 39.7933852, "lon": 116.5747381}, {"type": "node", "id": 1353434656, "lat": 39.7941404, "lon": 116.5758005}, {"type": "node", "id": 1353434659, "lat": 39.7942059, "lon": 116.5757274}, {"type": "node", "id": 1353434662, "lat": 39.8021086, "lon": 116.5851765}, {"type": "node", "id": 1353434665, "lat": 39.8021673, "lon": 116.5851013}, {"type": "node", "id": 1353434670, "lat": 39.8029432, "lon": 116.5861531}, {"type": "node", "id": 1353434672, "lat": 39.8029976, "lon": 116.5860782}, {"type": "node", "id": 1353434677, "lat": 39.8104517, "lon": 116.5979324}, {"type": "node", "id": 1353434687, "lat": 39.8106554, "lon": 116.5981741}, {"type": "node", "id": 1353434690, "lat": 39.8111081, "lon": 116.595639}, {"type": "node", "id": 1353434692, "lat": 39.8111568, "lon": 116.5955659}, {"type": "node", "id": 1353434694, "lat": 39.8119701, "lon": 116.5965715}, {"type": "node", "id": 1353434696, "lat": 39.8120117, "lon": 116.5965043}, {"type": "node", "id": 1353434701, "lat": 39.8129236, "lon": 116.5941938}, {"type": "node", "id": 1353434702, "lat": 39.8131148, "lon": 116.5944838}, {"type": "node", "id": 1353434788, "lat": 39.7817064, "lon": 116.5158714, "tags": {"name": "\u8363\u660c\u4e1c\u8857", "name:en": "Rongchangdongjie", "name:zh": "\u8363\u660c\u4e1c\u8857", "name:zh_pinyin": "R\u00f3ngch\u0101ngd\u014dngji\u0113", "public_transport": "stop_position", "railway": "stop", "subway": "yes", "wikidata": "Q5937661"}}, {"type": "node", "id": 1359115079, "lat": 39.7931881, "lon": 116.5744324}, {"type": "node", "id": 1359115081, "lat": 39.7944489, "lon": 116.5762401}, {"type": "node", "id": 1359115082, "lat": 39.7945623, "lon": 116.5760794}, {"type": "node", "id": 1359115084, "lat": 39.8017418, "lon": 116.584825}, {"type": "node", "id": 1359115085, "lat": 39.8018726, "lon": 116.5846393}, {"type": "node", "id": 1359115086, "lat": 39.8032376, "lon": 116.5866105}, {"type": "node", "id": 1359115087, "lat": 39.8033684, "lon": 116.5864248}, {"type": "node", "id": 1359115088, "lat": 39.8106948, "lon": 116.595239}, {"type": "node", "id": 1359115092, "lat": 39.8107993, "lon": 116.5950949}, {"type": "node", "id": 1359115095, "lat": 39.8123397, "lon": 116.5970449}, {"type": "node", "id": 1359115097, "lat": 39.8124321, "lon": 116.5968879}, {"type": "node", "id": 1765245232, "lat": 39.838982, "lon": 116.4684251, "tags": {"bench": "no", "highway": "platform", "public_transport": "platform", "shelter": "no"}}, {"type": "node", "id": 1765313185, "lat": 39.8238337, "lon": 116.472743}, {"type": "node", "id": 1765313186, "lat": 39.8238409, "lon": 116.4731274}, {"type": "node", "id": 1765313188, "lat": 39.823887, "lon": 116.4625942, "tags": {"bench": "no", "highway": "platform", "public_transport": "platform", "shelter": "no"}}, {"type": "node", "id": 1765313196, "lat": 39.8240541, "lon": 116.4701527, "tags": {"bench": "no", "highway": "platform", "public_transport": "platform", "shelter": "no"}}, {"type": "node", "id": 1765313200, "lat": 39.8241227, "lon": 116.4729677}, {"type": "node", "id": 1765313201, "lat": 39.824135, "lon": 116.4733786}, {"type": "node", "id": 1765313209, "lat": 39.8280438, "lon": 116.4713847}, {"type": "node", "id": 1765313210, "lat": 39.8281357, "lon": 116.4715775}, {"type": "node", "id": 1765313211, "lat": 39.8282154, "lon": 116.4712397}, {"type": "node", "id": 1765313212, "lat": 39.8283124, "lon": 116.4714299}, {"type": "node", "id": 1765313258, "lat": 39.8237799, "lon": 116.4625942, "tags": {"bus": "yes", "highway": "bus_stop", "name": "\u5c0f\u7ea2\u95e8\u724c\u574a", "public_transport": "stop_position"}}, {"type": "node", "id": 1765313259, "lat": 39.8281687, "lon": 116.4713891, "tags": {"bus": "yes", "highway": "bus_stop", "name": "\u604b\u65e5\u7eff\u5c9b", "public_transport": "stop_position"}}, {"type": "node", "id": 1765313260, "lat": 39.8282022, "lon": 116.471454, "tags": {"bus": "yes", "highway": "bus_stop", "name": "\u604b\u65e5\u7eff\u5c9b", "public_transport": "stop_position"}}, {"type": "node", "id": 1765313261, "lat": 39.8239278, "lon": 116.4730443, "tags": {"FIXME": "estimated", "bus": "yes", "highway": "bus_stop", "name": "\u604b\u65e5\u7eff\u5c9b\u5357\u95e8", "public_transport": "stop_position", "source": "bing"}}, {"type": "node", "id": 1765313262, "lat": 39.8240456, "lon": 116.4730322, "tags": {"bus": "yes", "highway": "bus_stop", "name": "\u604b\u65e5\u7eff\u5c9b\u5357\u95e8", "public_transport": "stop_position"}}, {"type": "node", "id": 1765313263, "lat": 39.8239546, "lon": 116.4701564, "tags": {"bus": "yes", "highway": "bus_stop", "name": "\u724c\u574a\u6751\u4e1c\u53e3", "public_transport": "stop_position"}}, {"type": "node", "id": 1765333364, "lat": 39.8235276, "lon": 116.4599979, "tags": {"bench": "no", "highway": "platform", "public_transport": "platform", "shelter": "no"}}, {"type": "node", "id": 1765333367, "lat": 39.8238135, "lon": 116.4597847}, {"type": "node", "id": 1765333368, "lat": 39.8238247, "lon": 116.460255}, {"type": "node", "id": 1765333384, "lat": 39.8235984, "lon": 116.459995, "tags": {"bus": "yes", "highway": "bus_stop", "name": "\u5c0f\u7ea2\u95e8\u724c\u574a", "public_transport": "stop_position"}}, {"type": "node", "id": 1765333385, "lat": 39.823722, "lon": 116.4600867, "tags": {"bus": "yes", "highway": "bus_stop", "name": "\u5c0f\u7ea2\u95e8\u724c\u574a", "public_transport": "stop_position"}}, {"type": "node", "id": 1768297170, "lat": 39.7928546, "lon": 116.5749072}, {"type": "node", "id": 1768297171, "lat": 39.7929643, "lon": 116.5750437}, {"type": "node", "id": 1768297172, "lat": 39.7931786, "lon": 116.5747296}, {"type": "node", "id": 1768297173, "lat": 39.7934108, "lon": 116.5747031}, {"type": "node", "id": 1768297174, "lat": 39.7935141, "lon": 116.5748266}, {"type": "node", "id": 1768297175, "lat": 39.7937757, "lon": 116.5747819}, {"type": "node", "id": 1768297176, "lat": 39.7938275, "lon": 116.5746423}, {"type": "node", "id": 1768297177, "lat": 39.793857, "lon": 116.5749844}, {"type": "node", "id": 1768297178, "lat": 39.7938676, "lon": 116.5749123}, {"type": "node", "id": 1768297179, "lat": 39.7939752, "lon": 116.5762077}, {"type": "node", "id": 1768297180, "lat": 39.794009, "lon": 116.5752022}, {"type": "node", "id": 1768297181, "lat": 39.7941128, "lon": 116.5750228}, {"type": "node", "id": 1768297182, "lat": 39.7941168, "lon": 116.5763661}, {"type": "node", "id": 1768297183, "lat": 39.7941732, "lon": 116.5759106}, {"type": "node", "id": 1768297184, "lat": 39.7942053, "lon": 116.576121}, {"type": "node", "id": 1768297185, "lat": 39.7942683, "lon": 116.5763472}, {"type": "node", "id": 1768297186, "lat": 39.7942704, "lon": 116.5760267}, {"type": "node", "id": 1768299196, "lat": 39.7914966, "lon": 116.5077264}, {"type": "node", "id": 1768299197, "lat": 39.7915568, "lon": 116.5077621}, {"type": "node", "id": 1768299198, "lat": 39.7916129, "lon": 116.5078812}, {"type": "node", "id": 1768299199, "lat": 39.7916197, "lon": 116.507979}, {"type": "node", "id": 1768299200, "lat": 39.7924422, "lon": 116.5069456}, {"type": "node", "id": 1768299201, "lat": 39.7924432, "lon": 116.5070421}, {"type": "node", "id": 1768299202, "lat": 39.7924976, "lon": 116.5071531}, {"type": "node", "id": 1768299203, "lat": 39.7925653, "lon": 116.5071982}, {"type": "node", "id": 1768299207, "lat": 39.8013142, "lon": 116.499823}, {"type": "node", "id": 1768299209, "lat": 39.8013654, "lon": 116.4999351}, {"type": "node", "id": 1768299216, "lat": 39.8022065, "lon": 116.4990956}, {"type": "node", "id": 1768299218, "lat": 39.8022585, "lon": 116.4991942}, {"type": "node", "id": 1768299223, "lat": 39.8017737, "lon": 116.4995019, "tags": {"name": "\u4e07\u6e90\u8857", "name:en": "Wanyuanjie", "name:zh": "\u4e07\u6e90\u8857", "name:zh_pinyin": "W\u00e0nyu\u00e1nji\u0113", "public_transport": "stop_position", "railway": "stop", "subway": "yes"}}, {"type": "node", "id": 1768299227, "lat": 39.8017927, "lon": 116.4995404, "tags": {"name": "\u4e07\u6e90\u8857", "name:en": "Wanyuanjie", "name:zh": "\u4e07\u6e90\u8857", "name:zh_pinyin": "W\u00e0nyu\u00e1nji\u0113", "public_transport": "stop_position", "railway": "stop", "subway": "yes"}}, {"type": "node", "id": 1768299228, "lat": 39.7920117, "lon": 116.5074445, "tags": {"name": "\u8363\u4eac\u4e1c\u8857", "name:en": "Rongjingdongjie", "name:zh": "\u8363\u4eac\u4e1c\u8857", "name:zh_pinyin": "R\u00f3ngj\u012bngd\u014dngji\u0113", "public_transport": "stop_position", "railway": "stop", "subway": "yes", "wikidata": "Q5937809"}}, {"type": "node", "id": 1768299229, "lat": 39.7920296, "lon": 116.5074801, "tags": {"name": "\u8363\u4eac\u4e1c\u8857", "name:en": "Rongjingdongjie", "name:zh": "\u8363\u4eac\u4e1c\u8857", "name:zh_pinyin": "R\u00f3ngj\u012bngd\u014dngji\u0113", "public_transport": "stop_position", "railway": "stop", "subway": "yes", "wikidata": "Q5937809"}}, {"type": "node", "id": 1768303525, "lat": 39.80148, "lon": 116.4736007}, {"type": "node", "id": 1768303526, "lat": 39.8015281, "lon": 116.4736115}, {"type": "node", "id": 1768303529, "lat": 39.8016315, "lon": 116.4735667}, {"type": "node", "id": 1768303530, "lat": 39.8016673, "lon": 116.4735218}, {"type": "node", "id": 1768303531, "lat": 39.8018279, "lon": 116.4749997}, {"type": "node", "id": 1768303532, "lat": 39.8018588, "lon": 116.4749612}, {"type": "node", "id": 1768303535, "lat": 39.801958, "lon": 116.4749233}, {"type": "node", "id": 1768303538, "lat": 39.8020153, "lon": 116.4749208}, {"type": "node", "id": 1768303582, "lat": 39.8053321, "lon": 116.4840792}, {"type": "node", "id": 1768303587, "lat": 39.8054276, "lon": 116.4840093}, {"type": "node", "id": 1768303594, "lat": 39.8058634, "lon": 116.4853067}, {"type": "node", "id": 1768303599, "lat": 39.8059568, "lon": 116.4852436}, {"type": "node", "id": 1768303651, "lat": 39.8056321, "lon": 116.4846718, "tags": {"name": "\u4ea6\u5e84\u6587\u5316\u56ed", "name:en": "Yizhuang Culture Park", "name:zh": "\u4ea6\u5e84\u6587\u5316\u56ed", "name:zh_pinyin": "Y\u00eczhu\u0101ng W\u00e9nhu\u00e0yu\u00e1n", "public_transport": "stop_position", "railway": "stop", "subway": "yes"}}, {"type": "node", "id": 1768303652, "lat": 39.8017277, "lon": 116.4742727, "tags": {"name": "\u4ea6\u5e84\u6865", "name:en": "Yizhuangqiao", "name:zh": "\u4ea6\u5e84\u6865", "name:zh_pinyin": "Y\u00eczhu\u0101ngqi\u00e1o", "public_transport": "stop_position", "railway": "stop", "subway": "yes", "wikidata": "Q5936835"}}, {"type": "node", "id": 1768319313, "lat": 39.7821149, "lon": 116.515442}, {"type": "node", "id": 1768319314, "lat": 39.7821644, "lon": 116.5155483}, {"type": "node", "id": 1836427104, "lat": 39.8364365, "lon": 116.4647403}, {"type": "node", "id": 1836427116, "lat": 39.8365421, "lon": 116.4649001}, {"type": "node", "id": 1836427121, "lat": 39.837834, "lon": 116.465629, "tags": {"bench": "no", "highway": "platform", "public_transport": "platform", "shelter": "no"}}, {"type": "node", "id": 1836427210, "lat": 39.845285, "lon": 116.4611621, "tags": {"bench": "no", "highway": "platform", "public_transport": "platform", "shelter": "no"}}, {"type": "node", "id": 1836427233, "lat": 39.8456324, "lon": 116.4603946}, {"type": "node", "id": 1836427236, "lat": 39.8456787, "lon": 116.4603404}, {"type": "node", "id": 1836427398, "lat": 39.8363801, "lon": 116.4648324, "tags": {"bus": "yes", "highway": "bus_stop", "name": "\u5341\u516b\u91cc\u5e97\u5357\u6865", "public_transport": "stop_position"}}, {"type": "node", "id": 1836427399, "lat": 39.8377971, "lon": 116.4655777, "tags": {"bus": "yes", "highway": "bus_stop", "name": "\u5415\u5bb6\u8425\u5357\u7ad9", "public_transport": "stop_position"}}, {"type": "node", "id": 1836427400, "lat": 39.8452139, "lon": 116.4610392, "tags": {"bus": "yes", "highway": "bus_stop", "name": "\u5415\u8425\u82b1\u56ed", "public_transport": "stop_position"}}, {"type": "node", "id": 1836427401, "lat": 39.8456994, "lon": 116.4605052, "tags": {"bus": "yes", "highway": "bus_stop", "name": "\u5415\u8425\u82b1\u56ed", "public_transport": "stop_position"}}, {"type": "node", "id": 1985434093, "lat": 39.7812092, "lon": 116.5180487, "tags": {"bench": "no", "highway": "platform", "public_transport": "platform", "shelter": "no"}}, {"type": "node", "id": 1985434111, "lat": 39.7820766, "lon": 116.5187278, "tags": {"bench": "no", "highway": "platform", "public_transport": "platform", "shelter": "no"}}, {"type": "node", "id": 1985434112, "lat": 39.7820946, "lon": 116.515788, "tags": {"bench": "no", "highway": "platform", "public_transport": "platform", "shelter": "no"}}, {"type": "node", "id": 1985434125, "lat": 39.7821009, "lon": 116.5187786, "tags": {"bench": "no", "highway": "platform", "public_transport": "platform", "shelter": "no"}}, {"type": "node", "id": 1985434132, "lat": 39.7821269, "lon": 116.5188331, "tags": {"bench": "no", "highway": "platform", "public_transport": "platform", "shelter": "no"}}, {"type": "node", "id": 1985434139, "lat": 39.7821442, "lon": 116.5157461, "tags": {"bench": "no", "highway": "platform", "public_transport": "platform", "shelter": "no"}}, {"type": "node", "id": 1985434267, "lat": 39.7983214, "lon": 116.4902073}, {"type": "node", "id": 1985434268, "lat": 39.7984293, "lon": 116.4904289}, {"type": "node", "id": 1985434299, "lat": 39.7991613, "lon": 116.485814, "tags": {"bench": "no", "highway": "platform", "public_transport": "platform", "shelter": "no"}}, {"type": "node", "id": 1985434303, "lat": 39.7995167, "lon": 116.4780185}, {"type": "node", "id": 1985434305, "lat": 39.799542, "lon": 116.4782123}, {"type": "node", "id": 1985434328, "lat": 39.8001354, "lon": 116.4939581}, {"type": "node", "id": 1985434330, "lat": 39.800198, "lon": 116.4826119}, {"type": "node", "id": 1985434332, "lat": 39.8002174, "lon": 116.4941161}, {"type": "node", "id": 1985434334, "lat": 39.8002505, "lon": 116.4829739}, {"type": "node", "id": 1985434336, "lat": 39.8003006, "lon": 116.4942765}, {"type": "node", "id": 1985434398, "lat": 39.8020056, "lon": 116.4719647, "tags": {"bench": "no", "highway": "platform", "public_transport": "platform", "shelter": "no"}}, {"type": "node", "id": 1985434405, "lat": 39.8022585, "lon": 116.4983402, "tags": {"bench": "no", "highway": "platform", "public_transport": "platform", "shelter": "no"}}, {"type": "node", "id": 1985434457, "lat": 39.8023179, "lon": 116.4982913, "tags": {"bus": "yes", "highway": "bus_stop", "name": "\u4e07\u6e90\u8857\u897f\u53e3", "public_transport": "stop_position"}}, {"type": "node", "id": 1985434458, "lat": 39.7820624, "lon": 116.5189268, "tags": {"bus": "yes", "highway": "bus_stop", "name": "\u4ea4\u901a\u670d\u52a1\u4e2d\u5fc3", "public_transport": "stop_position"}}, {"type": "node", "id": 1985434459, "lat": 39.8020751, "lon": 116.4720848, "tags": {"bus": "yes", "highway": "bus_stop", "name": "\u4ea6\u5e84\u6865\u5357", "public_transport": "stop_position"}}, {"type": "node", "id": 1985434460, "lat": 39.7996153, "lon": 116.4780287, "tags": {"bus": "yes", "highway": "bus_stop", "name": "\u8d35\u56ed\u4e1c\u91cc", "public_transport": "stop_position"}}, {"type": "node", "id": 1985434461, "lat": 39.8002555, "lon": 116.4940319, "tags": {"alt_name": "\u535a\u8fbe\u56fd\u9645\u4ea4\u6d41\u4e2d\u5fc3", "bus": "yes", "highway": "bus_stop", "name": "\u5929\u534e\u5317\u8857\u4e1c\u53e3", "public_transport": "stop_position"}}, {"type": "node", "id": 1985434462, "lat": 39.8003089, "lon": 116.4941426, "tags": {"alt_name": "\u535a\u8fbe\u56fd\u9645\u4ea4\u6d41\u4e2d\u5fc3", "bus": "yes", "highway": "bus_stop", "name": "\u5929\u534e\u5317\u8857\u4e1c\u53e3", "public_transport": "stop_position"}}, {"type": "node", "id": 1985434463, "lat": 39.7984745, "lon": 116.4903371, "tags": {"bus": "yes", "highway": "bus_stop", "name": "\u5929\u534e\u5317\u8857\u897f\u53e3", "public_transport": "stop_position"}}, {"type": "node", "id": 1985434464, "lat": 39.7991926, "lon": 116.4858837, "tags": {"bus": "yes", "highway": "bus_stop", "name": "\u5929\u534e\u897f\u8def\u5317\u53e3", "public_transport": "stop_position"}}, {"type": "node", "id": 1985434465, "lat": 39.7820137, "lon": 116.5188031, "tags": {"bus": "yes", "highway": "bus_stop", "name": "\u5f00\u53d1\u533a\u4ea4\u901a\u670d\u52a1\u4e2d\u5fc3", "public_transport": "stop_position"}}, {"type": "node", "id": 1985434466, "lat": 39.7821447, "lon": 116.5158884, "tags": {"bus": "yes", "highway": "bus_stop", "name": "\u5f00\u53d1\u533a\u4ea4\u901a\u670d\u52a1\u4e2d\u5fc3", "note": "542 arrival", "public_transport": "stop_position"}}, {"type": "node", "id": 1985434467, "lat": 39.8003209, "lon": 116.4828847, "tags": {"bus": "yes", "highway": "bus_stop", "name": "\u65b0\u5eb7\u5bb6\u56ed", "public_transport": "stop_position"}}, {"type": "node", "id": 1985434468, "lat": 39.781296, "lon": 116.5179759, "tags": {"bus": "yes", "highway": "bus_stop", "name": "\u7b2c\u4e00\u516c\u4ea4\u573a\u7ad9", "note": "departure", "public_transport": "stop_position"}}, {"type": "node", "id": 1985434469, "lat": 39.7820395, "lon": 116.5188631, "tags": {"bus": "yes", "highway": "bus_stop", "name": "\u7b2c\u4e00\u516c\u4ea4\u573a\u7ad9", "note": "arrival", "public_transport": "stop_position"}}, {"type": "node", "id": 1985434470, "lat": 39.7821943, "lon": 116.5158465, "tags": {"bus": "yes", "highway": "bus_stop", "name": "\u7b2c\u4e00\u516c\u4ea4\u573a\u7ad9", "public_transport": "stop_position"}}, {"type": "node", "id": 2460436465, "lat": 39.7806724, "lon": 116.5160432, "tags": {"bus": "yes", "highway": "bus_stop", "name": "\u5f00\u53d1\u533a\u4ea4\u901a\u670d\u52a1\u4e2d\u5fc3", "public_transport": "stop_position"}}, {"type": "node", "id": 2460436468, "lat": 39.7732567, "lon": 116.5154333, "tags": {"bus": "yes", "highway": "bus_stop", "name": "\u540c\u4ec1\u533b\u9662\u4ea6\u5e84\u5206\u9662", "public_transport": "stop_position"}}, {"type": "node", "id": 2460436469, "lat": 39.7634559, "lon": 116.5041262, "tags": {"bus": "yes", "highway": "bus_stop", "name": "\u6cf0\u6cb3\u56ed\u4e94\u91cc", "public_transport": "stop_position"}}, {"type": "node", "id": 2461139485, "lat": 39.7644275, "lon": 116.5033406, "tags": {"bus": "yes", "highway": "bus_stop", "name": "\u4e2d\u82af\u82b1\u56ed", "public_transport": "stop_position"}}, {"type": "node", "id": 2461139486, "lat": 39.766534, "lon": 116.5049593, "tags": {"bus": "yes", "highway": "bus_stop", "name": "\u9752\u5e74\u516c\u5bd3", "public_transport": "stop_position"}}, {"type": "node", "id": 2462384806, "lat": 39.7665543, "lon": 116.5055154, "tags": {"bus": "yes", "highway": "bus_stop", "name": "\u9752\u5e74\u516c\u5bd3", "public_transport": "stop_position"}}, {"type": "node", "id": 2462384807, "lat": 39.7631108, "lon": 116.5027904, "tags": {"bus": "yes", "highway": "bus_stop", "name": "\u4e2d\u82af\u82b1\u56ed", "public_transport": "stop_position"}}, {"type": "node", "id": 2462384820, "lat": 39.7680718, "lon": 116.525514, "tags": {"bus": "yes", "highway": "bus_stop", "name": "\u5eb7\u5b9a\u8857\u897f\u53e3", "public_transport": "stop_position"}}, {"type": "node", "id": 2462384821, "lat": 39.7744758, "lon": 116.5220793, "tags": {"bus": "yes", "highway": "bus_stop", "name": "\u5b8f\u8fbe\u5357\u8def", "public_transport": "stop_position"}}, {"type": "node", "id": 2463556239, "lat": 39.7630935, "lon": 116.4882992, "tags": {"bus": "yes", "highway": "bus_stop", "name": "\u5b9d\u5584\u8def\u53e3", "public_transport": "stop_position"}}, {"type": "node", "id": 2464908092, "lat": 39.7702127, "lon": 116.494929, "tags": {"bus": "yes", "highway": "bus_stop", "name": "\u897f\u4e94\u53f7\u6751", "public_transport": "stop_position"}}, {"type": "node", "id": 2464908093, "lat": 39.7702955, "lon": 116.4948804}, {"type": "node", "id": 2464908094, "lat": 39.77022, "lon": 116.4950547}, {"type": "node", "id": 2465174811, "lat": 39.7628691, "lon": 116.4980256, "tags": {"bus": "yes", "highway": "bus_stop", "name": "\u6cf0\u6cb3\u56ed\u4e09\u91cc", "public_transport": "stop_position"}}, {"type": "node", "id": 2465174855, "lat": 39.7574088, "lon": 116.4958299, "tags": {"bus": "yes", "highway": "bus_stop", "name": "\u9e7f\u6d77\u56ed\u4e09\u91cc", "public_transport": "stop_position"}}, {"type": "node", "id": 2465174856, "lat": 39.7543685, "lon": 116.4946013, "tags": {"bus": "yes", "highway": "bus_stop", "name": "\u9e7f\u6d77\u56ed\u4e94\u91cc\u4e1c\u95e8", "public_transport": "stop_position"}}, {"type": "node", "id": 2465174858, "lat": 39.7583584, "lon": 116.4990878, "tags": {"bus": "yes", "highway": "bus_stop", "name": "\u6cf0\u6cb3\u4e00\u8857\u4e1c\u53e3", "public_transport": "stop_position"}}, {"type": "node", "id": 2465692836, "lat": 39.7134887, "lon": 116.4686499, "tags": {"bench": "no", "highway": "platform", "public_transport": "platform", "shelter": "no"}}, {"type": "node", "id": 2465692840, "lat": 39.7139262, "lon": 116.4684337, "tags": {"bench": "no", "highway": "platform", "public_transport": "platform", "shelter": "no"}}, {"type": "node", "id": 2465692949, "lat": 39.7135116, "lon": 116.4687008, "tags": {"bus": "yes", "highway": "bus_stop", "name": "\u66f9\u6751", "public_transport": "stop_position"}}, {"type": "node", "id": 2465692950, "lat": 39.7139039, "lon": 116.468377, "tags": {"bus": "yes", "highway": "bus_stop", "name": "\u66f9\u6751", "public_transport": "stop_position"}}, {"type": "node", "id": 2467243235, "lat": 39.7644904, "lon": 116.5004055, "tags": {"bus": "yes", "highway": "bus_stop", "name": "\u6cf0\u6cb3\u56ed\u4e8c\u91cc", "public_transport": "stop_position"}}, {"type": "node", "id": 2467243241, "lat": 39.7618408, "lon": 116.5098454, "tags": {"bus": "yes", "highway": "bus_stop", "name": "\u51c9\u6c34\u6cb3\u4e8c\u8857", "public_transport": "stop_position"}}, {"type": "node", "id": 2467243242, "lat": 39.7599878, "lon": 116.516006, "tags": {"bus": "yes", "highway": "bus_stop", "name": "\u51c9\u6c34\u6cb3\u4e8c\u8857\u5357\u53e3", "public_transport": "stop_position"}}, {"type": "node", "id": 2467243253, "lat": 39.7626929, "lon": 116.5176629, "tags": {"bus": "yes", "highway": "bus_stop", "name": "\u535a\u5174\u4e09\u8def\u5317\u53e3", "public_transport": "stop_position"}}, {"type": "node", "id": 2467587172, "lat": 39.7994887, "lon": 116.4766982}, {"type": "node", "id": 2467587191, "lat": 39.7995321, "lon": 116.4770109}, {"type": "node", "id": 2467587201, "lat": 39.8002193, "lon": 116.4815786}, {"type": "node", "id": 2467587204, "lat": 39.8002649, "lon": 116.4818969}, {"type": "node", "id": 2468977051, "lat": 39.6740767, "lon": 116.5111832, "tags": {"bus": "yes", "highway": "bus_stop", "name": "\u9752\u4e91\u5e97\u8f66\u7ad9", "public_transport": "stop_position"}}, {"type": "node", "id": 2468979747, "lat": 39.6736744, "lon": 116.5143659, "tags": {"bench": "no", "highway": "platform", "public_transport": "platform", "shelter": "no"}}, {"type": "node", "id": 2468979751, "lat": 39.6737304, "lon": 116.513232, "tags": {"bench": "no", "highway": "platform", "public_transport": "platform", "shelter": "no"}}, {"type": "node", "id": 2468979755, "lat": 39.674111, "lon": 116.5111897, "tags": {"bench": "no", "highway": "platform", "public_transport": "platform", "shelter": "no"}}, {"type": "node", "id": 2468979758, "lat": 39.6736204, "lon": 116.5143549, "tags": {"bus": "yes", "highway": "bus_stop", "name": "\u9752\u4e91\u5e97\u9547", "public_transport": "stop_position"}}, {"type": "node", "id": 2468979762, "lat": 39.67378, "lon": 116.5132419, "tags": {"bus": "yes", "highway": "bus_stop", "name": "\u9752\u4e91\u5e97\u9547", "public_transport": "stop_position"}}, {"type": "node", "id": 2478911244, "lat": 39.8000842, "lon": 116.4738161, "tags": {"bus": "yes", "highway": "bus_stop", "name": "\u4ea6\u5e84\u6865\u5357", "public_transport": "stop_position"}}, {"type": "node", "id": 2478911245, "lat": 39.7630731, "lon": 116.502677}, {"type": "node", "id": 2478911246, "lat": 39.7632055, "lon": 116.5027335}, {"type": "node", "id": 2478911247, "lat": 39.7664314, "lon": 116.5050428}, {"type": "node", "id": 2478911248, "lat": 39.7664911, "lon": 116.5048183}, {"type": "node", "id": 2478911249, "lat": 39.7665917, "lon": 116.5056505}, {"type": "node", "id": 2478911250, "lat": 39.7666441, "lon": 116.5054452}, {"type": "node", "id": 2478911251, "lat": 39.799943, "lon": 116.4737932}, {"type": "node", "id": 2478911252, "lat": 39.8001869, "lon": 116.4736321}, {"type": "node", "id": 2479719354, "lat": 39.7731837, "lon": 116.5153162}, {"type": "node", "id": 2479719357, "lat": 39.7733493, "lon": 116.5153787}, {"type": "node", "id": 2481180638, "lat": 39.7756609, "lon": 116.5147294, "tags": {"bus": "yes", "highway": "bus_stop", "name": "\u4eac\u5f00\u4f01\u4e1a\u5927\u9053", "public_transport": "stop_position"}}, {"type": "node", "id": 2481311450, "lat": 39.7741092, "lon": 116.5118853, "tags": {"bus": "yes", "highway": "bus_stop", "name": "\u540c\u4ec1\u533b\u9662\u4ea6\u5e84\u5206\u9662", "public_transport": "stop_position"}}, {"type": "node", "id": 2481311451, "lat": 39.7827385, "lon": 116.5154106, "tags": {"bus": "yes", "highway": "bus_stop", "name": "\u5f00\u53d1\u533a\u4ea4\u901a\u670d\u52a1\u4e2d\u5fc3", "public_transport": "stop_position"}}, {"type": "node", "id": 2481311452, "lat": 39.7643434, "lon": 116.5034085}, {"type": "node", "id": 2481311453, "lat": 39.7644896, "lon": 116.5034686}, {"type": "node", "id": 2481311454, "lat": 39.774005, "lon": 116.5119158}, {"type": "node", "id": 2481311455, "lat": 39.7741424, "lon": 116.5119698}, {"type": "node", "id": 2481311456, "lat": 39.7756295, "lon": 116.5147588}, {"type": "node", "id": 2481311457, "lat": 39.7756497, "lon": 116.5146777}, {"type": "node", "id": 2481311463, "lat": 39.7827021, "lon": 116.5154755}, {"type": "node", "id": 2481311464, "lat": 39.7827868, "lon": 116.5154111}, {"type": "node", "id": 2482100614, "lat": 39.7615064, "lon": 116.4984482, "tags": {"bus": "yes", "highway": "bus_stop", "name": "\u9e7f\u6d77\u56ed\u5c0f\u533a", "public_transport": "stop_position"}}, {"type": "node", "id": 2482100625, "lat": 39.7614134, "lon": 116.4983169, "tags": {"bus": "yes", "highway": "bus_stop", "name": "\u9e7f\u6d77\u56ed\u5c0f\u533a", "public_transport": "stop_position"}}, {"type": "node", "id": 2482100626, "lat": 39.7657209, "lon": 116.4959287, "tags": {"bus": "yes", "highway": "bus_stop", "name": "\u6cf0\u6cb3\u56ed\u5c0f\u533a", "public_transport": "stop_position"}}, {"type": "node", "id": 2482100627, "lat": 39.7635994, "lon": 116.4935005, "tags": {"bus": "yes", "highway": "bus_stop", "name": "\u9e7f\u6d77\u56ed\u516c\u4ea4\u573a\u7ad9", "public_transport": "stop_position"}}, {"type": "node", "id": 2482100628, "lat": 39.7651003, "lon": 116.4943259, "tags": {"bus": "yes", "highway": "bus_stop", "name": "\u4ea6\u5e84\u533b\u9662\u5357\u9662", "public_transport": "stop_position"}}, {"type": "node", "id": 2482100629, "lat": 39.7683143, "lon": 116.4956486, "tags": {"bus": "yes", "highway": "bus_stop", "name": "\u535a\u5174\u516b\u8def", "public_transport": "stop_position"}}, {"type": "node", "id": 2482164185, "lat": 39.761359, "lon": 116.498351}, {"type": "node", "id": 2482164186, "lat": 39.7613861, "lon": 116.4982452}, {"type": "node", "id": 2482164187, "lat": 39.7656478, "lon": 116.4959866}, {"type": "node", "id": 2482164188, "lat": 39.7656868, "lon": 116.4958388}, {"type": "node", "id": 2482491959, "lat": 39.7994531, "lon": 116.4768588, "tags": {"bus": "yes", "highway": "bus_stop", "name": "\u8d35\u56ed\u4e1c\u91cc", "public_transport": "stop_position"}}, {"type": "node", "id": 2483307120, "lat": 39.7982491, "lon": 116.4714726, "tags": {"bus": "yes", "highway": "bus_stop", "name": "\u5bcc\u6e90\u91cc", "public_transport": "stop_position"}}, {"type": "node", "id": 2483307161, "lat": 39.7939262, "lon": 116.4741011, "tags": {"bus": "yes", "highway": "bus_stop", "name": "\u8d35\u56ed\u5357\u91cc", "public_transport": "stop_position"}}, {"type": "node", "id": 2483307220, "lat": 39.7919796, "lon": 116.4764245, "tags": {"bus": "yes", "highway": "bus_stop", "name": "\u8d35\u56ed\u5c0f\u533a", "public_transport": "stop_position"}}, {"type": "node", "id": 2483307239, "lat": 39.7937322, "lon": 116.4805484, "tags": {"bus": "yes", "highway": "bus_stop", "name": "\u4ea6\u5e84\u4f53\u80b2\u4e2d\u5fc3", "public_transport": "stop_position"}}, {"type": "node", "id": 2483307243, "lat": 39.7947874, "lon": 116.4854407, "tags": {"bus": "yes", "highway": "bus_stop", "name": "\u4ea6\u5e84\u5b9e\u9a8c\u5b66\u6821", "public_transport": "stop_position"}}, {"type": "node", "id": 2483307371, "lat": 39.7912993, "lon": 116.4864607, "tags": {"bus": "yes", "highway": "bus_stop", "name": "\u5929\u5b9d\u5bb6\u56ed", "public_transport": "stop_position"}}, {"type": "node", "id": 2483307456, "lat": 39.789727, "lon": 116.4907388, "tags": {"bus": "yes", "highway": "bus_stop", "name": "\u5929\u5b9d\u5357\u8857", "public_transport": "stop_position"}}, {"type": "node", "id": 2483307541, "lat": 39.7932403, "lon": 116.4951874, "tags": {"alt_name": "\u5929\u5b9d\u56ed\u516d\u91cc", "bus": "yes", "highway": "bus_stop", "name": "\u5929\u5b9d\u516d\u91cc", "operator": "665/846", "public_transport": "stop_position"}}, {"type": "node", "id": 2483307593, "lat": 39.7934107, "lon": 116.4983639, "tags": {"bus": "yes", "highway": "bus_stop", "name": "\u535a\u5927\u5927\u53a6", "public_transport": "stop_position"}}, {"type": "node", "id": 2483307670, "lat": 39.7909371, "lon": 116.5044237, "tags": {"bus": "yes", "highway": "bus_stop", "name": "\u8363\u4eac\u4e1c\u8857\u4e2d\u8def", "public_transport": "stop_position"}}, {"type": "node", "id": 2483307742, "lat": 39.7756311, "lon": 116.5148475, "tags": {"bus": "yes", "highway": "bus_stop", "name": "\u540c\u4ec1\u533b\u9662\u4ea6\u5e84\u5206\u9662", "public_transport": "stop_position"}}, {"type": "node", "id": 2483490819, "lat": 39.7896405, "lon": 116.4906758}, {"type": "node", "id": 2483490821, "lat": 39.7897618, "lon": 116.4909147}, {"type": "node", "id": 2483490822, "lat": 39.7912293, "lon": 116.4864456}, {"type": "node", "id": 2483490824, "lat": 39.7913404, "lon": 116.4863482}, {"type": "node", "id": 2483490825, "lat": 39.7919165, "lon": 116.4763989}, {"type": "node", "id": 2483490827, "lat": 39.7919461, "lon": 116.476488}, {"type": "node", "id": 2483490828, "lat": 39.7931779, "lon": 116.4952289}, {"type": "node", "id": 2483490831, "lat": 39.7931919, "lon": 116.4951256}, {"type": "node", "id": 2483490833, "lat": 39.7933139, "lon": 116.4982919}, {"type": "node", "id": 2483490834, "lat": 39.7934134, "lon": 116.4985004}, {"type": "node", "id": 2483490835, "lat": 39.7936071, "lon": 116.4804161}, {"type": "node", "id": 2483490837, "lat": 39.7937705, "lon": 116.4807441}, {"type": "node", "id": 2483490838, "lat": 39.793813, "lon": 116.4740379}, {"type": "node", "id": 2483490840, "lat": 39.7939538, "lon": 116.4739578}, {"type": "node", "id": 2483490841, "lat": 39.7947111, "lon": 116.4855008}, {"type": "node", "id": 2483490843, "lat": 39.7947309, "lon": 116.4853791}, {"type": "node", "id": 2483490844, "lat": 39.7981735, "lon": 116.471369}, {"type": "node", "id": 2483490845, "lat": 39.7982637, "lon": 116.4713204}, {"type": "node", "id": 2483551179, "lat": 39.7756028, "lon": 116.514875}, {"type": "node", "id": 2483551180, "lat": 39.7756171, "lon": 116.5148155}, {"type": "node", "id": 2483551181, "lat": 39.7908595, "lon": 116.5043453}, {"type": "node", "id": 2483551182, "lat": 39.7909453, "lon": 116.5042737}, {"type": "node", "id": 2483577212, "lat": 39.7807126, "lon": 116.5159236}, {"type": "node", "id": 2483577213, "lat": 39.7807631, "lon": 116.5160309}, {"type": "node", "id": 2483589382, "lat": 39.7630787, "lon": 116.4883246}, {"type": "node", "id": 2483589385, "lat": 39.7630809, "lon": 116.4882703}, {"type": "node", "id": 2484653115, "lat": 39.8009484, "lon": 116.5005837, "tags": {"bus": "yes", "highway": "bus_stop", "name": "\u5b8f\u8fbe\u5de5\u4e1a\u56ed", "public_transport": "stop_position"}}, {"type": "node", "id": 2484653116, "lat": 39.8012711, "lon": 116.5003168, "tags": {"bus": "yes", "highway": "bus_stop", "name": "\u5b8f\u8fbe\u5de5\u4e1a\u56ed", "public_transport": "stop_position"}}, {"type": "node", "id": 2484653117, "lat": 39.7981593, "lon": 116.5028556, "tags": {"bus": "yes", "highway": "bus_stop", "name": "\u7ecf\u5f00\u521b\u4e1a\u56ed", "public_transport": "stop_position"}}, {"type": "node", "id": 2484653118, "lat": 39.7954399, "lon": 116.5050687, "tags": {"bus": "yes", "highway": "bus_stop", "name": "\u5b8f\u8fbe\u5317\u8def\u5357\u53e3", "public_transport": "platform"}}, {"type": "node", "id": 2484653119, "lat": 39.7913547, "lon": 116.508404, "tags": {"bus": "yes", "highway": "bus_stop", "name": "\u8363\u4eac\u4e1c\u8857\u5730\u94c1\u7ad9", "public_transport": "stop_position"}}, {"type": "node", "id": 2484653121, "lat": 39.7839203, "lon": 116.5099101, "tags": {"bus": "yes", "highway": "bus_stop", "name": "\u4e2d\u94c1\u5341\u4e5d\u5c40", "public_transport": "stop_position"}}, {"type": "node", "id": 2484766998, "lat": 39.7615444, "lon": 116.4985324}, {"type": "node", "id": 2484766999, "lat": 39.7615712, "lon": 116.4984255}, {"type": "node", "id": 2484767000, "lat": 39.7838679, "lon": 116.509851}, {"type": "node", "id": 2484767001, "lat": 39.7839153, "lon": 116.5098124}, {"type": "node", "id": 2484767002, "lat": 39.7912131, "lon": 116.5083408}, {"type": "node", "id": 2484767003, "lat": 39.7913743, "lon": 116.5082112}, {"type": "node", "id": 2484767004, "lat": 39.7953685, "lon": 116.5050087}, {"type": "node", "id": 2484767005, "lat": 39.7954467, "lon": 116.504947}, {"type": "node", "id": 2484767006, "lat": 39.7980915, "lon": 116.5027971}, {"type": "node", "id": 2484767007, "lat": 39.798165, "lon": 116.5027416}, {"type": "node", "id": 2484767008, "lat": 39.8008775, "lon": 116.5004992}, {"type": "node", "id": 2484767009, "lat": 39.8009529, "lon": 116.5004425}, {"type": "node", "id": 2484767010, "lat": 39.8012634, "lon": 116.5004454}, {"type": "node", "id": 2484767011, "lat": 39.8013748, "lon": 116.500359}, {"type": "node", "id": 2485922020, "lat": 39.7649414, "lon": 116.46637, "tags": {"bus": "yes", "highway": "bus_stop", "name": "\u5357\u6d77\u5b50\u516c\u56ed", "public_transport": "stop_position"}}, {"type": "node", "id": 2485996376, "lat": 39.7758579, "lon": 116.4834452, "tags": {"bus": "yes", "highway": "bus_stop", "name": "\u51c9\u6c34\u6cb3\u4e00\u8857\u897f\u53e3", "public_transport": "stop_position"}}, {"type": "node", "id": 2485996421, "lat": 39.7762892, "lon": 116.4830878, "tags": {"bus": "yes", "highway": "bus_stop", "name": "\u51c9\u6c34\u6cb3\u4e00\u8857\u897f\u53e3", "public_transport": "stop_position"}}, {"type": "node", "id": 2486499651, "lat": 39.7649968, "lon": 116.466413}, {"type": "node", "id": 2486499652, "lat": 39.7649988, "lon": 116.4663145}, {"type": "node", "id": 2486499653, "lat": 39.7699987, "lon": 116.4948494}, {"type": "node", "id": 2486499654, "lat": 39.770059, "lon": 116.4947216}, {"type": "node", "id": 2486499655, "lat": 39.7757659, "lon": 116.4834445}, {"type": "node", "id": 2486499656, "lat": 39.7758378, "lon": 116.4833283}, {"type": "node", "id": 2486499657, "lat": 39.7762675, "lon": 116.4832076}, {"type": "node", "id": 2486499658, "lat": 39.7763646, "lon": 116.4830686}, {"type": "node", "id": 2486499659, "lat": 39.770082, "lon": 116.4948249, "tags": {"bus": "yes", "highway": "bus_stop", "name": "\u897f\u4e94\u53f7\u6751", "public_transport": "stop_position"}}, {"type": "node", "id": 2489355261, "lat": 39.8002117, "lon": 116.4740343, "tags": {"bus": "yes", "highway": "bus_stop", "name": "\u4ea6\u5e84\u6865\u5357", "public_transport": "stop_position"}}, {"type": "node", "id": 2489355266, "lat": 39.8000601, "lon": 116.4742356}, {"type": "node", "id": 2489355267, "lat": 39.8003902, "lon": 116.4740242}, {"type": "node", "id": 2489355268, "lat": 39.8022104, "lon": 116.4724514}, {"type": "node", "id": 2489355269, "lat": 39.8022978, "lon": 116.4723492}, {"type": "node", "id": 2490511390, "lat": 39.7740098, "lon": 116.5224463, "tags": {"bus": "yes", "highway": "bus_stop", "name": "\u5b8f\u8fbe\u5357\u8def", "public_transport": "stop_position"}}, {"type": "node", "id": 2490511478, "lat": 39.7765314, "lon": 116.5188275, "tags": {"bus": "yes", "highway": "bus_stop", "name": "\u666f\u56ed\u8857\u897f\u53e3", "public_transport": "stop_position"}}, {"type": "node", "id": 2490555302, "lat": 39.8001588, "lon": 116.4817742, "tags": {"bus": "yes", "highway": "bus_stop", "name": "\u65b0\u5eb7\u5bb6\u56ed", "public_transport": "stop_position"}}, {"type": "node", "id": 2490650193, "lat": 39.7739916, "lon": 116.5224344}, {"type": "node", "id": 2490650194, "lat": 39.7740168, "lon": 116.5224122}, {"type": "node", "id": 2490650195, "lat": 39.7744741, "lon": 116.5221152}, {"type": "node", "id": 2490650196, "lat": 39.7744958, "lon": 116.5220958}, {"type": "node", "id": 2491261825, "lat": 39.7644746, "lon": 116.5004605, "tags": {"bus": "yes", "highway": "bus_stop", "name": "\u6cf0\u6cb3\u56ed\u4e8c\u91cc", "public_transport": "stop_position"}}, {"type": "node", "id": 2491261826, "lat": 39.7643911, "lon": 116.5004285, "tags": {"highway": "platform", "public_transport": "platform"}}, {"type": "node", "id": 2491261827, "lat": 39.7645461, "lon": 116.5004278, "tags": {"highway": "platform", "public_transport": "platform"}}, {"type": "node", "id": 2496303693, "lat": 39.8068373, "lon": 116.4665595, "tags": {"bus": "yes", "highway": "bus_stop", "name": "\u4ea6\u5e84\u6865\u5317", "public_transport": "stop_position"}}, {"type": "node", "id": 2496303780, "lat": 39.7888879, "lon": 116.5104164, "tags": {"bus": "yes", "highway": "bus_stop", "name": "\u5174\u76db\u8857\u897f\u53e3", "public_transport": "stop_position"}}, {"type": "node", "id": 2496303795, "lat": 39.7766193, "lon": 116.5190121, "tags": {"bus": "yes", "highway": "bus_stop", "name": "\u666f\u56ed\u8857\u897f\u53e3", "public_transport": "stop_position"}}, {"type": "node", "id": 2496909071, "lat": 39.7764695, "lon": 116.5188716, "tags": {"public_transport": "platform"}}, {"type": "node", "id": 2496909072, "lat": 39.7766799, "lon": 116.5189723, "tags": {"public_transport": "platform"}}, {"type": "node", "id": 2496909073, "lat": 39.7888634, "lon": 116.510358, "tags": {"public_transport": "platform"}}, {"type": "node", "id": 2497063628, "lat": 39.7995982, "lon": 116.4779054, "tags": {"bus": "yes", "highway": "bus_stop", "name": "\u8d35\u56ed\u4e1c\u91cc", "public_transport": "stop_position"}}, {"type": "node", "id": 2497063632, "lat": 39.7994898, "lon": 116.4778281}, {"type": "node", "id": 2502382278, "lat": 39.7767446, "lon": 116.5102864, "tags": {"bus": "yes", "highway": "bus_stop", "name": "\u4eac\u4e1c\u65b9", "public_transport": "stop_position"}}, {"type": "node", "id": 2502382294, "lat": 39.7813091, "lon": 116.5004624, "tags": {"bus": "yes", "highway": "bus_stop", "name": "\u4e2d\u82af\u56fd\u9645", "public_transport": "platform"}}, {"type": "node", "id": 2502382295, "lat": 39.7857506, "lon": 116.4971163, "tags": {"bus": "yes", "highway": "bus_stop", "name": "\u5730\u76db\u4e2d\u8def", "public_transport": "stop_position"}}, {"type": "node", "id": 2502382296, "lat": 39.7893255, "lon": 116.4899076, "tags": {"bus": "yes", "highway": "bus_stop", "name": "\u5929\u5b9d\u5357\u8857", "public_transport": "stop_position"}}, {"type": "node", "id": 2502382298, "lat": 39.7893945, "lon": 116.4900487, "tags": {"bus": "yes", "highway": "bus_stop", "name": "\u4e0a\u6d77\u6c99\u9f99", "public_transport": "stop_position"}}, {"type": "node", "id": 2502382299, "lat": 39.7910374, "lon": 116.4866864, "tags": {"bus": "yes", "highway": "bus_stop", "name": "\u5929\u5b9d\u5bb6\u56ed", "public_transport": "stop_position"}}, {"type": "node", "id": 2502382304, "lat": 39.7949274, "lon": 116.4845432, "tags": {"bus": "yes", "highway": "bus_stop", "name": "\u4ea6\u5e84\u5b9e\u9a8c\u5b66\u6821", "public_transport": "stop_position"}}, {"type": "node", "id": 2502382305, "lat": 39.7934376, "lon": 116.4799385, "tags": {"bus": "yes", "highway": "bus_stop", "name": "\u4ea6\u5e84\u4f53\u80b2\u4e2d\u5fc3", "public_transport": "stop_position"}}, {"type": "node", "id": 2502382306, "lat": 39.792095, "lon": 116.4767392, "tags": {"bus": "yes", "highway": "bus_stop", "name": "\u8d35\u56ed\u5c0f\u533a", "public_transport": "stop_position"}}, {"type": "node", "id": 2502382307, "lat": 39.793864, "lon": 116.4741399, "tags": {"bus": "yes", "highway": "bus_stop", "name": "\u8d35\u56ed\u5357\u91cc", "public_transport": "stop_position"}}, {"type": "node", "id": 2502382329, "lat": 39.7975164, "lon": 116.471916, "tags": {"bus": "yes", "highway": "bus_stop", "name": "\u5bcc\u6e90\u91cc", "public_transport": "stop_position"}}, {"type": "node", "id": 2502403896, "lat": 39.776799, "lon": 116.5103038, "tags": {"public_transport": "platform"}}, {"type": "node", "id": 2502403897, "lat": 39.7813235, "lon": 116.500541, "tags": {"public_transport": "platform"}}, {"type": "node", "id": 2502403898, "lat": 39.7857848, "lon": 116.4971951, "tags": {"public_transport": "platform"}}, {"type": "node", "id": 2502403899, "lat": 39.789315, "lon": 116.4897398}, {"type": "node", "id": 2502403900, "lat": 39.7894153, "lon": 116.4899387}, {"type": "node", "id": 2502403901, "lat": 39.7894776, "lon": 116.4900616}, {"type": "node", "id": 2502403902, "lat": 39.7910476, "lon": 116.4868138}, {"type": "node", "id": 2502403904, "lat": 39.7911119, "lon": 116.4867619}, {"type": "node", "id": 2502403906, "lat": 39.7921313, "lon": 116.4766684}, {"type": "node", "id": 2502403907, "lat": 39.7921586, "lon": 116.4767432}, {"type": "node", "id": 2502403909, "lat": 39.7934278, "lon": 116.4798038}, {"type": "node", "id": 2502403911, "lat": 39.7935174, "lon": 116.4799863}, {"type": "node", "id": 2502403913, "lat": 39.7938983, "lon": 116.4742392, "tags": {"public_transport": "platform"}}, {"type": "node", "id": 2502403915, "lat": 39.7949726, "lon": 116.484742}, {"type": "node", "id": 2502403917, "lat": 39.7950263, "lon": 116.4844033}, {"type": "node", "id": 2502403919, "lat": 39.7975219, "lon": 116.4720159}, {"type": "node", "id": 2502403921, "lat": 39.7975618, "lon": 116.4719908}, {"type": "node", "id": 2502552861, "lat": 39.7633861, "lon": 116.4982353, "tags": {"bus": "yes", "highway": "bus_stop", "name": "\u6cf0\u6cb3\u56ed\u4e09\u91cc", "public_transport": "stop_position"}}, {"type": "node", "id": 2502552895, "lat": 39.7563871, "lon": 116.4848614, "tags": {"bus": "yes", "highway": "bus_stop", "name": "\u7b2c\u4e94\u5e7c\u513f\u56ed", "public_transport": "stop_position"}}, {"type": "node", "id": 2502552928, "lat": 39.7572758, "lon": 116.4877983, "tags": {"bus": "yes", "highway": "bus_stop", "name": "\u535a\u6d77\u56ed\u4e8c\u91cc", "public_transport": "stop_position"}}, {"type": "node", "id": 2502552958, "lat": 39.7589556, "lon": 116.4920435, "tags": {"bus": "yes", "highway": "bus_stop", "name": "\u4ea6\u5e84\u7b2c\u4e8c\u4e2d\u5fc3\u5c0f\u5b66", "public_transport": "stop_position"}}, {"type": "node", "id": 2502735220, "lat": 39.7572865, "lon": 116.487887, "tags": {"public_transport": "platform"}}, {"type": "node", "id": 2502735226, "lat": 39.7589478, "lon": 116.4920978, "tags": {"public_transport": "platform"}}, {"type": "node", "id": 2502735228, "lat": 39.7628893, "lon": 116.4979266, "tags": {"public_transport": "platform"}}, {"type": "node", "id": 2502735231, "lat": 39.7633687, "lon": 116.4983292, "tags": {"public_transport": "platform"}}, {"type": "node", "id": 2511333654, "lat": 39.799851, "lon": 116.4931929, "tags": {"alt_name": "\u535a\u8fbe\u56fd\u9645\u4ea4\u6d41\u4e2d\u5fc3", "bus": "yes", "highway": "bus_stop", "name": "\u5929\u534e\u5317\u8857\u4e1c\u53e3", "public_transport": "stop_position"}}, {"type": "node", "id": 2511333655, "lat": 39.7998944, "lon": 116.4932829, "tags": {"alt_name": "\u535a\u8fbe\u56fd\u9645\u4ea4\u6d41\u4e2d\u5fc3", "bus": "yes", "highway": "bus_stop", "name": "\u5929\u534e\u5317\u8857\u4e1c\u53e3", "public_transport": "stop_position"}}, {"type": "node", "id": 2511333660, "lat": 39.7999198, "lon": 116.4931171}, {"type": "node", "id": 2511333661, "lat": 39.7999709, "lon": 116.4932226}, {"type": "node", "id": 2511333662, "lat": 39.800026, "lon": 116.4933413}, {"type": "node", "id": 2515011144, "lat": 39.7864573, "lon": 116.4904622, "tags": {"bus": "yes", "highway": "bus_stop", "name": "\u5929\u5b9d\u897f\u8857\u5357\u53e3", "public_transport": "stop_position"}}, {"type": "node", "id": 2515921194, "lat": 39.8066381, "lon": 116.4664829}, {"type": "node", "id": 2515921195, "lat": 39.8068883, "lon": 116.4662752}, {"type": "node", "id": 2518362315, "lat": 39.7839501, "lon": 116.5105549, "tags": {"bus": "yes", "highway": "bus_stop", "name": "\u4e2d\u94c1\u5341\u4e5d\u5c40", "public_transport": "stop_position"}}, {"type": "node", "id": 2518362316, "lat": 39.7917364, "lon": 116.5080955, "tags": {"bus": "yes", "highway": "bus_stop", "name": "\u8363\u4eac\u4e1c\u8857\u5730\u94c1\u7ad9", "public_transport": "stop_position"}}, {"type": "node", "id": 2518362353, "lat": 39.79563, "lon": 116.5049221, "tags": {"bus": "yes", "highway": "bus_stop", "name": "\u5b8f\u8fbe\u5317\u8def\u5357\u53e3", "public_transport": "platform"}}, {"type": "node", "id": 2518362389, "lat": 39.7983813, "lon": 116.5026885, "tags": {"bus": "yes", "highway": "bus_stop", "name": "\u7ecf\u5f00\u521b\u4e1a\u56ed", "public_transport": "stop_position"}}, {"type": "node", "id": 2518362427, "lat": 39.802198, "lon": 116.4980443, "tags": {"bus": "yes", "highway": "bus_stop", "name": "\u4e07\u6e90\u8857\u897f\u53e3", "public_transport": "stop_position"}}, {"type": "node", "id": 2518598083, "lat": 39.7979491, "lon": 116.4892486, "tags": {"bus": "yes", "highway": "bus_stop", "name": "\u5929\u534e\u5317\u8857\u897f\u53e3", "public_transport": "stop_position"}}, {"type": "node", "id": 2518598087, "lat": 39.7839535, "lon": 116.5106366}, {"type": "node", "id": 2518598089, "lat": 39.7839928, "lon": 116.5106029}, {"type": "node", "id": 2518598106, "lat": 39.7916837, "lon": 116.5082143}, {"type": "node", "id": 2518598108, "lat": 39.7918527, "lon": 116.5080729}, {"type": "node", "id": 2518598110, "lat": 39.7956473, "lon": 116.5050083}, {"type": "node", "id": 2518598116, "lat": 39.7957149, "lon": 116.5049518}, {"type": "node", "id": 2518598118, "lat": 39.7979677, "lon": 116.4891437}, {"type": "node", "id": 2518598120, "lat": 39.7980797, "lon": 116.4893622}, {"type": "node", "id": 2518598122, "lat": 39.7983893, "lon": 116.5027935}, {"type": "node", "id": 2518598124, "lat": 39.7984436, "lon": 116.502748}, {"type": "node", "id": 2518598126, "lat": 39.8022263, "lon": 116.4979709}, {"type": "node", "id": 2518598128, "lat": 39.8022726, "lon": 116.4980698}, {"type": "node", "id": 2518641030, "lat": 39.7996302, "lon": 116.4855293, "tags": {"bus": "yes", "highway": "bus_stop", "name": "\u5929\u534e\u897f\u8def\u5317\u53e3", "public_transport": "stop_position"}}, {"type": "node", "id": 2518641072, "lat": 39.7863829, "lon": 116.4904156}, {"type": "node", "id": 2518641074, "lat": 39.7864603, "lon": 116.4903516}, {"type": "node", "id": 2518641126, "lat": 39.7996067, "lon": 116.4856401}, {"type": "node", "id": 2518641128, "lat": 39.7997018, "lon": 116.4855597}, {"type": "node", "id": 2529212471, "lat": 39.7679427, "lon": 116.5252177, "tags": {"bus": "yes", "highway": "bus_stop", "name": "\u5eb7\u5b9a\u8857\u897f\u53e3", "public_transport": "stop_position"}}, {"type": "node", "id": 2529212501, "lat": 39.7626966, "lon": 116.5173483, "tags": {"bus": "yes", "highway": "bus_stop", "name": "\u535a\u5174\u4e09\u8def\u5317\u53e3", "public_transport": "stop_position"}}, {"type": "node", "id": 2529212503, "lat": 39.7600703, "lon": 116.5158045, "tags": {"bus": "yes", "highway": "bus_stop", "name": "\u51c9\u6c34\u6cb3\u4e8c\u8857\u5357\u53e3", "public_transport": "stop_position"}}, {"type": "node", "id": 2529212531, "lat": 39.7618491, "lon": 116.5098948, "tags": {"bus": "yes", "highway": "bus_stop", "name": "\u51c9\u6c34\u6cb3\u4e8c\u8857", "public_transport": "stop_position"}}, {"type": "node", "id": 2529212571, "lat": 39.7634685, "lon": 116.504076, "tags": {"bus": "yes", "highway": "bus_stop", "name": "\u6cf0\u6cb3\u56ed\u4e94\u91cc", "public_transport": "stop_position"}}, {"type": "node", "id": 2529364663, "lat": 39.760097, "lon": 116.5158854}, {"type": "node", "id": 2529364664, "lat": 39.760132, "lon": 116.5157768}, {"type": "node", "id": 2529364665, "lat": 39.7619025, "lon": 116.509974}, {"type": "node", "id": 2529364666, "lat": 39.7619273, "lon": 116.509893}, {"type": "node", "id": 2529364667, "lat": 39.763505, "lon": 116.5041299}, {"type": "node", "id": 2529364668, "lat": 39.7635236, "lon": 116.504069}, {"type": "node", "id": 2529364669, "lat": 39.7679966, "lon": 116.5250935}, {"type": "node", "id": 2529364670, "lat": 39.7680676, "lon": 116.5252409}, {"type": "node", "id": 2612129511, "lat": 39.7938582, "lon": 116.4991151}, {"type": "node", "id": 2612129513, "lat": 39.7939577, "lon": 116.4993236}, {"type": "node", "id": 2636697962, "lat": 39.7552229, "lon": 116.5245405}, {"type": "node", "id": 2636697967, "lat": 39.7552456, "lon": 116.5242798}, {"type": "node", "id": 2636697970, "lat": 39.7552787, "lon": 116.524558}, {"type": "node", "id": 2636697972, "lat": 39.755288, "lon": 116.5243188}, {"type": "node", "id": 2639385119, "lat": 39.8349045, "lon": 116.7379608}, {"type": "node", "id": 2639385120, "lat": 39.834934, "lon": 116.7372187}, {"type": "node", "id": 2639385125, "lat": 39.8353991, "lon": 116.737246}, {"type": "node", "id": 2639385127, "lat": 39.8355412, "lon": 116.7380043}, {"type": "node", "id": 2639385128, "lat": 39.8355544, "lon": 116.737975}, {"type": "node", "id": 2958509279, "lat": 39.7930433, "lon": 116.5122123, "tags": {"bus": "yes", "highway": "bus_stop", "name": "\u5174\u76db\u8857", "public_transport": "platform"}}, {"type": "node", "id": 3196933475, "lat": 39.8171997, "lon": 116.5466649}, {"type": "node", "id": 3640224442, "lat": 39.8179545, "lon": 116.5468934}, {"type": "node", "id": 5430391237, "lat": 39.7718151, "lon": 116.533948, "tags": {"name": "\u540c\u6d4e\u5357\u8def", "name:en": "Tongjinanlu", "public_transport": "station", "railway": "station", "station": "subway", "subway": "yes", "wikidata": "Q5937020"}}, {"type": "node", "id": 5444691512, "lat": 39.8056285, "lon": 116.4846211, "tags": {"name": "\u4ea6\u5e84\u6587\u5316\u56ed", "name:en": "Yizhuang Culture Park", "public_transport": "station", "railway": "station", "station": "subway", "subway": "yes", "wikidata": "Q5938025"}}, {"type": "node", "id": 5444694219, "lat": 39.8017615, "lon": 116.4995335, "tags": {"name": "\u4e07\u6e90\u8857", "name:en": "Wanyuanjie", "public_transport": "station", "railway": "station", "station": "subway", "subway": "yes", "wikidata": "Q5936047"}}, {"type": "node", "id": 5444695596, "lat": 39.7825504, "lon": 116.5564358, "tags": {"name": "\u7ecf\u6d77\u8def", "name:en": "Jinghailu", "public_transport": "station", "railway": "station", "station": "subway", "subway": "yes", "wikidata": "Q6119390"}}, {"type": "node", "id": 6205717314, "lat": 39.7398863, "lon": 116.4959502, "tags": {"name": "\u592a\u548c\u6865\u5317", "name:en": "Taihe Qiao Bei (N)", "public_transport": "stop_position", "railway": "tram_stop", "tram": "yes"}}, {"type": "node", "id": 6550987783, "lat": 39.8173315, "lon": 116.5469706}, {"type": "node", "id": 6781649746, "lat": 39.7938517, "lon": 116.57476, "tags": {"railway": "subway_entrance", "ref": "A"}}, {"type": "node", "id": 6781649747, "lat": 39.7943094, "lon": 116.5763967, "tags": {"railway": "subway_entrance", "ref": "C"}}, {"type": "node", "id": 6781649749, "lat": 39.7934521, "lon": 116.5754043, "tags": {"railway": "subway_entrance", "ref": "D"}}, {"type": "node", "id": 6781649751, "lat": 39.8028574, "lon": 116.5866588, "tags": {"railway": "subway_entrance", "ref": "B", "wheelchair": "yes"}}, {"type": "node", "id": 6781649753, "lat": 39.7946187, "lon": 116.5753452, "tags": {"railway": "subway_entrance", "ref": "B"}}, {"type": "node", "id": 6781686642, "lat": 39.8123787, "lon": 116.596243, "tags": {"railway": "subway_entrance", "ref": "B"}}, {"type": "node", "id": 6781686654, "lat": 39.8113383, "lon": 116.5950843, "tags": {"railway": "subway_entrance", "ref": "A"}}, {"type": "node", "id": 6781686662, "lat": 39.8110127, "lon": 116.5958836, "tags": {"railway": "subway_entrance", "ref": "D"}}, {"type": "node", "id": 6781686663, "lat": 39.811816, "lon": 116.5971281, "tags": {"railway": "subway_entrance", "ref": "C"}}, {"type": "node", "id": 7644895479, "lat": 39.8193935, "lon": 116.9223358, "tags": {"amenity": "ferry_terminal", "ferry": "yes", "name": "\u5c39\u5bb6\u6cb3\u6e21\u53e3", "public_transport": "station"}}, {"type": "node", "id": 7644895480, "lat": 39.8196898, "lon": 116.9230571, "tags": {"amenity": "ferry_terminal", "ferry": "yes", "name": "\u738b\u5e97\u5b50\u6e21\u53e3", "public_transport": "station"}}, {"type": "node", "id": 7644895484, "lat": 39.8277304, "lon": 116.9214237, "tags": {"amenity": "ferry_terminal", "ferry": "yes", "name": "\u8d75\u5e84\u6e21\u53e3", "public_transport": "station"}}, {"type": "node", "id": 7644901985, "lat": 39.8278115, "lon": 116.9221564, "tags": {"amenity": "ferry_terminal", "ferry": "yes", "public_transport": "station"}}, {"type": "node", "id": 8073260826, "lat": 39.801744, "lon": 116.4742673, "tags": {"name": "\u4ea6\u5e84\u6865", "name:en": "Yizhuangqiao", "name:zh": "\u4ea6\u5e84\u6865", "name:zh_pinyin": "Y\u00eczhu\u0101ngqi\u00e1o", "public_transport": "station", "railway": "station", "station": "subway", "subway": "yes", "wikidata": "Q5936835"}}, {"type": "node", "id": 8073260827, "lat": 39.7920207, "lon": 116.507463, "tags": {"name": "\u8363\u4eac\u4e1c\u8857", "name:en": "Rongjingdongjie", "name:zh": "\u8363\u4eac\u4e1c\u8857", "name:zh_pinyin": "R\u00f3ngj\u012bngd\u014dngji\u0113", "public_transport": "station", "railway": "station", "station": "subway", "subway": "yes", "wikidata": "Q5937809"}}, {"type": "node", "id": 8073260828, "lat": 39.7816956, "lon": 116.515857, "tags": {"name": "\u8363\u660c\u4e1c\u8857", "name:en": "Rongchangdongjie", "name:zh": "\u8363\u660c\u4e1c\u8857", "name:zh_pinyin": "R\u00f3ngch\u0101ngd\u014dngji\u0113", "public_transport": "station", "railway": "station", "station": "subway", "subway": "yes", "wikidata": "Q5937661"}}, {"type": "node", "id": 8073260829, "lat": 39.8115669, "lon": 116.5960819, "tags": {"name": "\u4ea6\u5e84\u706b\u8f66\u7ad9", "name:en": "Yizhuang Railway Station", "name:zh": "\u4ea6\u5e84\u706b\u8f66\u7ad9", "name:zh_pinyin": "Y\u00eczhu\u0101ng Hu\u014fch\u0113zh\u00e0n", "public_transport": "station", "railway": "station", "station": "subway", "subway": "yes"}}, {"type": "node", "id": 8073260830, "lat": 39.8025523, "lon": 116.5856212, "tags": {"name": "\u6b21\u6e20", "name:en": "Ciqu", "name:zh": "\u6b21\u6e20", "name:zh_pinyin": "C\u00ecq\u00fa", "public_transport": "station", "railway": "station", "station": "subway", "subway": "yes", "wikidata": "Q5121332"}}, {"type": "node", "id": 8252163798, "lat": 39.7143819, "lon": 116.501123, "tags": {"name": "\u5c48\u5e84", "name:en": "Qu Zhuang", "public_transport": "station", "tram": "yes"}}, {"type": "node", "id": 8252163799, "lat": 39.7213717, "lon": 116.4992384, "tags": {"name": "\u878d\u5174\u8857", "name:en": "Rongxing Jie", "public_transport": "station", "tram": "yes"}}, {"type": "node", "id": 8252163800, "lat": 39.728403, "lon": 116.4974523, "tags": {"name": "\u745e\u5408\u5e84", "name:en": "Ruihe Zhuang", "public_transport": "station", "tram": "yes"}}, {"type": "node", "id": 8252163801, "lat": 39.7398741, "lon": 116.4958887, "tags": {"name": "\u592a\u548c\u6865\u5317", "name:en": "Taihe Qiao Bei (N)", "public_transport": "station", "tram": "yes"}}, {"type": "node", "id": 8252163802, "lat": 39.7454472, "lon": 116.4986475, "tags": {"name": "\u56db\u6d77\u5e84", "name:en": "Sihai Zhuang", "public_transport": "station", "tram": "yes"}}, {"type": "node", "id": 8252163803, "lat": 39.753762, "lon": 116.5028072, "tags": {"name": "\u4e5d\u53f7\u6751", "name:en": "Jiuhao Cun", "public_transport": "station", "tram": "yes"}}, {"type": "node", "id": 8252163804, "lat": 39.7588815, "lon": 116.5053676, "tags": {"name": "\u6cf0\u6cb3\u8def", "name:en": "Taihe Lu", "public_transport": "station", "tram": "yes"}}, {"type": "node", "id": 8252163805, "lat": 39.7652045, "lon": 116.5080365, "tags": {"name": "\u9e7f\u5708\u4e1c", "name:en": "Lujuan Dong (E)", "public_transport": "station", "tram": "yes"}}, {"type": "node", "id": 8252163806, "lat": 39.7757461, "lon": 116.5123535, "tags": {"name": "\u4ea6\u5e84\u540c\u4ec1", "name:en": "Yizhuang Tongren", "public_transport": "station", "tram": "yes"}}, {"type": "node", "id": 8252163807, "lat": 39.7803267, "lon": 116.5156811, "tags": {"name": "\u8363\u660c\u4e1c\u8857", "name:en": "Rongchang Dongjie", "public_transport": "station", "tram": "yes"}}, {"type": "node", "id": 8252163808, "lat": 39.7831579, "lon": 116.5214979, "tags": {"name": "\u4ea6\u521b\u4f1a\u5c55\u4e2d\u5fc3", "name:en": "Beijing Etrang Intrenational Exhibition & Convention Center", "public_transport": "platform", "tram": "yes"}}, {"type": "node", "id": 8252163809, "lat": 39.7897297, "lon": 116.5349577, "tags": {"name": "\u7ecf\u6d77\u4e00\u8def", "name:en": "Jinghai Yilu", "public_transport": "station", "tram": "yes"}}, {"type": "node", "id": 8252163810, "lat": 39.795319, "lon": 116.5466893, "tags": {"name": "\u5b9a\u6d77\u56ed\u897f", "name:en": "Dinghai Yuan Xi (W)", "public_transport": "station", "tram": "yes"}}, {"type": "node", "id": 8252163811, "lat": 39.8000995, "lon": 116.5564189, "tags": {"name": "\u5b9a\u6d77\u56ed", "name:en": "Dinghai Yuan", "public_transport": "stop_position", "railway": "tram_stop", "tram": "yes"}}, {"type": "node", "id": 8252163812, "lat": 39.8000587, "lon": 116.5564393, "tags": {"name": "\u5b9a\u6d77\u56ed", "name:en": "Dinghai Yuan", "public_transport": "station", "tram": "yes"}}, {"type": "node", "id": 8285438113, "lat": 39.8000431, "lon": 116.5564623, "tags": {"name": "\u5b9a\u6d77\u56ed", "name:en": "Dinghai Yuan", "public_transport": "stop_position", "railway": "tram_stop", "tram": "yes"}}, {"type": "node", "id": 8285438114, "lat": 39.7957025, "lon": 116.5474491, "tags": {"name": "\u5b9a\u6d77\u56ed\u897f", "name:en": "Dinghai Yuan Xi (W)", "public_transport": "stop_position", "railway": "tram_stop", "tram": "yes"}}, {"type": "node", "id": 8285438115, "lat": 39.7950119, "lon": 116.5459337, "tags": {"name": "\u5b9a\u6d77\u56ed\u897f", "name:en": "Dinghai Yuan Xi (W)", "public_transport": "stop_position", "railway": "tram_stop", "tram": "yes"}}, {"type": "node", "id": 8285460825, "lat": 39.7897003, "lon": 116.5349759, "tags": {"name": "\u7ecf\u6d77\u4e00\u8def", "name:en": "Jinghai Yilu", "public_transport": "stop_position", "railway": "tram_stop", "tram": "yes"}}, {"type": "node", "id": 8285460826, "lat": 39.7896812, "lon": 116.5349983, "tags": {"name": "\u7ecf\u6d77\u4e00\u8def", "name:en": "Jinghai Yilu", "public_transport": "stop_position", "railway": "tram_stop", "tram": "yes"}}, {"type": "node", "id": 8285460835, "lat": 39.7832088, "lon": 116.5214868, "tags": {"name": "\u4ea6\u521b\u4f1a\u5c55\u4e2d\u5fc3", "name:en": "Beijing Etrang Intrenational Exhibition & Convention Center", "public_transport": "stop_position", "railway": "tram_stop", "tram": "yes"}}, {"type": "node", "id": 8285460836, "lat": 39.7831374, "lon": 116.5215351, "tags": {"name": "\u4ea6\u521b\u4f1a\u5c55\u4e2d\u5fc3", "name:en": "Beijing Etrang Intrenational Exhibition & Convention Center", "public_transport": "stop_position", "railway": "tram_stop", "tram": "yes"}}, {"type": "node", "id": 8285460841, "lat": 39.7803831, "lon": 116.5156355, "tags": {"name": "\u8363\u660c\u4e1c\u8857", "name:en": "Rongchang Dongjie", "public_transport": "stop_position", "railway": "tram_stop", "tram": "yes"}}, {"type": "node", "id": 8285460842, "lat": 39.7803136, "lon": 116.5157034, "tags": {"name": "\u8363\u660c\u4e1c\u8857", "name:en": "Rongchang Dongjie", "public_transport": "stop_position", "railway": "tram_stop", "tram": "yes"}}, {"type": "node", "id": 8285460843, "lat": 39.7757526, "lon": 116.512406, "tags": {"name": "\u4ea6\u5e84\u540c\u4ec1", "name:en": "Yizhuang Tongren", "public_transport": "stop_position", "railway": "tram_stop", "tram": "yes"}}, {"type": "node", "id": 8285460844, "lat": 39.7757569, "lon": 116.5123208, "tags": {"name": "\u4ea6\u5e84\u540c\u4ec1", "name:en": "Yizhuang Tongren", "public_transport": "stop_position", "railway": "tram_stop", "tram": "yes"}}, {"type": "node", "id": 8285460848, "lat": 39.7651938, "lon": 116.5080941, "tags": {"name": "\u9e7f\u5708\u4e1c", "name:en": "Lujuan Dong (E)", "public_transport": "stop_position", "railway": "tram_stop", "tram": "yes"}}, {"type": "node", "id": 8285460849, "lat": 39.7652143, "lon": 116.5079814, "tags": {"name": "\u9e7f\u5708\u4e1c", "name:en": "Lujuan Dong (E)", "public_transport": "stop_position", "railway": "tram_stop", "tram": "yes"}}, {"type": "node", "id": 8285460858, "lat": 39.7588817, "lon": 116.5054245, "tags": {"name": "\u6cf0\u6cb3\u8def", "name:en": "Taihe Lu", "public_transport": "stop_position", "railway": "tram_stop", "tram": "yes"}}, {"type": "node", "id": 8285460859, "lat": 39.758893, "lon": 116.5053101, "tags": {"name": "\u6cf0\u6cb3\u8def", "name:en": "Taihe Lu", "public_transport": "stop_position", "railway": "tram_stop", "tram": "yes"}}, {"type": "node", "id": 8285460867, "lat": 39.753785, "lon": 116.5028654, "tags": {"name": "\u4e5d\u53f7\u6751", "name:en": "Jiuhao Cun", "public_transport": "stop_position", "railway": "tram_stop", "tram": "yes"}}, {"type": "node", "id": 8285460868, "lat": 39.7537972, "lon": 116.502756, "tags": {"name": "\u4e5d\u53f7\u6751", "name:en": "Jiuhao Cun", "public_transport": "stop_position", "railway": "tram_stop", "tram": "yes"}}, {"type": "node", "id": 8285460876, "lat": 39.7454638, "lon": 116.4987142, "tags": {"name": "\u56db\u6d77\u5e84", "name:en": "Sihai Zhuang", "public_transport": "stop_position", "railway": "tram_stop", "tram": "yes"}}, {"type": "node", "id": 8285460877, "lat": 39.7454726, "lon": 116.4986068, "tags": {"name": "\u56db\u6d77\u5e84", "name:en": "Sihai Zhuang", "public_transport": "stop_position", "railway": "tram_stop", "tram": "yes"}}, {"type": "node", "id": 8285460882, "lat": 39.7399012, "lon": 116.4958268, "tags": {"name": "\u592a\u548c\u6865\u5317", "name:en": "Taihe Qiao Bei (N)", "public_transport": "stop_position", "railway": "tram_stop", "tram": "yes"}}, {"type": "node", "id": 8285460888, "lat": 39.729123, "lon": 116.4973466, "tags": {"name": "\u745e\u5408\u5e84", "name:en": "Ruihe Zhuang", "public_transport": "stop_position", "railway": "tram_stop", "tram": "yes"}}, {"type": "node", "id": 8285460889, "lat": 39.727859, "lon": 116.4976321, "tags": {"name": "\u745e\u5408\u5e84", "name:en": "Ruihe Zhuang", "public_transport": "stop_position", "railway": "tram_stop", "tram": "yes"}}, {"type": "node", "id": 8285460893, "lat": 39.7221014, "lon": 116.4991479, "tags": {"name": "\u878d\u5174\u8857", "name:en": "Rongxing Jie", "public_transport": "stop_position", "railway": "tram_stop", "tram": "yes"}}, {"type": "node", "id": 8285460894, "lat": 39.7207523, "lon": 116.4994363, "tags": {"name": "\u878d\u5174\u8857", "name:en": "Rongxing Jie", "public_transport": "stop_position", "railway": "tram_stop", "tram": "yes"}}, {"type": "node", "id": 8285460897, "lat": 39.7151391, "lon": 116.5008876, "tags": {"name": "\u5c48\u5e84", "name:en": "Qu Zhuang", "public_transport": "stop_position", "railway": "tram_stop", "tram": "yes"}}, {"type": "node", "id": 8285460898, "lat": 39.7136814, "lon": 116.5011535, "tags": {"name": "\u5c48\u5e84", "name:en": "Qu Zhuang", "public_transport": "stop_position", "railway": "tram_stop", "tram": "yes"}}, {"type": "node", "id": 8291244181, "lat": 39.7649973, "lon": 116.4663862}, {"type": "node", "id": 8455171488, "lat": 39.617375, "lon": 116.4816523, "tags": {"name": "\u5b89\u5b9a", "name:en": "Anding", "name:zh": "\u5b89\u5b9a", "public_transport": "no", "railway": "station", "railway:position": "52.838", "railway:ref": "10067", "railway:station_category": "\u56db\u7b49\u7ad9", "train": "no"}}, {"type": "node", "id": 8455171489, "lat": 39.5726056, "lon": 116.5892606, "tags": {"name": "\u4e07\u5e84", "postal_code": "102802", "public_transport": "no", "railway": "station", "railway:position": "63.325", "railway:ref": "10070", "railway:station_category": "\u56db\u7b49\u7ad9", "start_date": "1907", "train": "no"}}, {"type": "node", "id": 8498012498, "lat": 39.8451065, "lon": 116.6705173}, {"type": "node", "id": 8498012499, "lat": 39.8467471, "lon": 116.6709589}, {"type": "node", "id": 8797441492, "lat": 39.8182399, "lon": 116.5447102}, {"type": "node", "id": 8797441493, "lat": 39.8179812, "lon": 116.5466904}, {"type": "node", "id": 8917364822, "lat": 39.822845, "lon": 116.6974245, "tags": {"name": "\u4e09\u95f4\u623f", "public_transport": "station", "railway": "station", "train": "yes"}}, {"type": "node", "id": 9039317474, "lat": 39.8464789, "lon": 116.670515, "tags": {"bus": "yes", "highway": "bus_stop", "name": "\u73af\u7403\u5ea6\u5047\u533a", "public_transport": "platform", "shelter": "yes"}}, {"type": "node", "id": 9065844661, "lat": 39.5772998, "lon": 116.6668893, "tags": {"name": "\u5eca\u574a\u4e1c\uff08\u5728\u5efa\uff09", "public_transport": "station", "railway": "station", "train": "yes"}}, {"type": "node", "id": 9083323655, "lat": 39.8007685, "lon": 116.5878897}, {"type": "node", "id": 9083323656, "lat": 39.800796, "lon": 116.5880095}, {"type": "node", "id": 9083323657, "lat": 39.8008348, "lon": 116.5880979}, {"type": "node", "id": 9083323658, "lat": 39.8009, "lon": 116.5882079}, {"type": "node", "id": 9083323659, "lat": 39.8009901, "lon": 116.5883216}, {"type": "node", "id": 9083323660, "lat": 39.8010788, "lon": 116.5883902}, {"type": "node", "id": 9083323661, "lat": 39.8011745, "lon": 116.5884551}, {"type": "node", "id": 9083323662, "lat": 39.8012216, "lon": 116.588466}, {"type": "node", "id": 9083323663, "lat": 39.8015931, "lon": 116.588431}, {"type": "node", "id": 9083323664, "lat": 39.8018849, "lon": 116.5884331}, {"type": "node", "id": 9083323665, "lat": 39.8018767, "lon": 116.5873109}, {"type": "node", "id": 9083323666, "lat": 39.8023101, "lon": 116.5873127}, {"type": "node", "id": 9083323667, "lat": 39.802308, "lon": 116.5864877}, {"type": "node", "id": 9083323668, "lat": 39.8039959, "lon": 116.5841142}, {"type": "node", "id": 9083323669, "lat": 39.8036623, "lon": 116.583706}, {"type": "node", "id": 9083323670, "lat": 39.8027359, "lon": 116.5851576}, {"type": "node", "id": 9083323671, "lat": 39.8025661, "lon": 116.5851555}, {"type": "node", "id": 9083323672, "lat": 39.8022067, "lon": 116.5856447}, {"type": "node", "id": 9083323673, "lat": 39.8022116, "lon": 116.5858464}, {"type": "node", "id": 9083323674, "lat": 39.8021407, "lon": 116.585943}, {"type": "node", "id": 9083323675, "lat": 39.8016899, "lon": 116.5859472}, {"type": "node", "id": 9083323676, "lat": 39.8009918, "lon": 116.586962}, {"type": "node", "id": 9083323677, "lat": 39.8007973, "lon": 116.5875736}, {"type": "node", "id": 9083323678, "lat": 39.8007742, "lon": 116.5877474}, {"type": "node", "id": 9083333245, "lat": 39.8177155, "lon": 116.5449743}, {"type": "node", "id": 9083333246, "lat": 39.8171289, "lon": 116.5497903}, {"type": "node", "id": 9083333247, "lat": 39.8178978, "lon": 116.5450112}, {"type": "node", "id": 9083333248, "lat": 39.8173114, "lon": 116.5498191}, {"type": "node", "id": 9083333249, "lat": 39.8174273, "lon": 116.5498374}, {"type": "node", "id": 9083333250, "lat": 39.8175097, "lon": 116.549155}, {"type": "node", "id": 9083333251, "lat": 39.8176531, "lon": 116.5491872}, {"type": "node", "id": 9083333252, "lat": 39.8182431, "lon": 116.5445753}, {"type": "node", "id": 9083333253, "lat": 39.818135, "lon": 116.5445627}, {"type": "node", "id": 9083333254, "lat": 39.8180712, "lon": 116.5450463}, {"type": "node", "id": 9083333255, "lat": 39.8174207, "lon": 116.5449147}, {"type": "node", "id": 9083333256, "lat": 39.8171608, "lon": 116.5469807}, {"type": "node", "id": 9083333257, "lat": 39.8170706, "lon": 116.5490521}, {"type": "node", "id": 9083333258, "lat": 39.817146, "lon": 116.5490728}, {"type": "node", "id": 9083333259, "lat": 39.8170422, "lon": 116.5497766}, {"type": "node", "id": 9091226363, "lat": 39.8422019, "lon": 116.4916256}, {"type": "node", "id": 9091226364, "lat": 39.8427422, "lon": 116.491622}, {"type": "node", "id": 9091226365, "lat": 39.8427561, "lon": 116.4910663}, {"type": "node", "id": 9091226366, "lat": 39.8430664, "lon": 116.4908028}, {"type": "node", "id": 9091226367, "lat": 39.8430696, "lon": 116.4905915}, {"type": "node", "id": 9091226368, "lat": 39.8440105, "lon": 116.4905997}, {"type": "node", "id": 9091226369, "lat": 39.844031, "lon": 116.4896393}, {"type": "node", "id": 9091226370, "lat": 39.8442271, "lon": 116.4894441}, {"type": "node", "id": 9091226371, "lat": 39.8440705, "lon": 116.4892123}, {"type": "node", "id": 9091226372, "lat": 39.8446806, "lon": 116.4884549}, {"type": "node", "id": 9091226373, "lat": 39.8446993, "lon": 116.4882516}, {"type": "node", "id": 9091226374, "lat": 39.8444865, "lon": 116.4880155}, {"type": "node", "id": 9091226375, "lat": 39.8444574, "lon": 116.4879181}, {"type": "node", "id": 9091226376, "lat": 39.8442607, "lon": 116.4879073}, {"type": "node", "id": 9091226377, "lat": 39.8440383, "lon": 116.4881847}, {"type": "node", "id": 9091226378, "lat": 39.8440651, "lon": 116.4882272}, {"type": "node", "id": 9091226379, "lat": 39.8433899, "lon": 116.4890164}, {"type": "node", "id": 9091226380, "lat": 39.8432642, "lon": 116.4888388}, {"type": "node", "id": 9091226381, "lat": 39.8430695, "lon": 116.4890661}, {"type": "node", "id": 9091226382, "lat": 39.8428833, "lon": 116.4887979}, {"type": "node", "id": 9091226383, "lat": 39.8426947, "lon": 116.4890123}, {"type": "node", "id": 9091226384, "lat": 39.8428825, "lon": 116.4893041}, {"type": "node", "id": 9091226385, "lat": 39.8426799, "lon": 116.4895401}, {"type": "node", "id": 9091226386, "lat": 39.8428248, "lon": 116.4897246}, {"type": "node", "id": 9091226387, "lat": 39.8425595, "lon": 116.4900353}, {"type": "node", "id": 9091226388, "lat": 39.8424129, "lon": 116.4898444}, {"type": "node", "id": 9091226389, "lat": 39.8423783, "lon": 116.4898916}, {"type": "node", "id": 9091226390, "lat": 39.8423322, "lon": 116.4898014}, {"type": "node", "id": 9091226391, "lat": 39.8421659, "lon": 116.4897574}, {"type": "node", "id": 9091226392, "lat": 39.8421632, "lon": 116.4896582}, {"type": "node", "id": 9091226393, "lat": 39.8417427, "lon": 116.4896446}, {"type": "node", "id": 9091226394, "lat": 39.8417806, "lon": 116.4910887}, {"type": "node", "id": 9268913684, "lat": 39.7804649, "lon": 116.5158511}, {"type": "node", "id": 9268913685, "lat": 39.7804205, "lon": 116.5158881}, {"type": "node", "id": 9268913686, "lat": 39.7801529, "lon": 116.5153422}, {"type": "node", "id": 9268913687, "lat": 39.7801972, "lon": 116.515308}, {"type": "node", "id": 9268913688, "lat": 39.7759423, "lon": 116.5124054}, {"type": "node", "id": 9268913689, "lat": 39.7759263, "lon": 116.5124707}, {"type": "node", "id": 9268913690, "lat": 39.7754525, "lon": 116.5122731}, {"type": "node", "id": 9268913691, "lat": 39.7754698, "lon": 116.5122098}, {"type": "node", "id": 9274358867, "lat": 39.8117636, "lon": 116.5962891, "tags": {"alt_name": "\u4ea6\u5e84\u7ad9;\u4ea6\u5e84\u706b\u8f66\u7ad9;Yizhuang Railway Station", "name": "\u4ea6\u5e84", "name:en": "Yizhuang", "name:zh": "\u4ea6\u5e84", "name:zh_pinyin": "Y\u00eczhu\u0101ng", "public_transport": "station", "railway": "station", "railway:position": "22.426", "ref": "10004", "train": "yes"}}, {"type": "node", "id": 9380291879, "lat": 39.8430584, "lon": 116.4898314, "tags": {"name": "\u5341\u516b\u91cc\u5e97", "name:zh": "\u5341\u516b\u91cc\u5e97", "public_transport": "station", "railway": "station", "station": "subway", "subway": "yes"}}, {"type": "node", "id": 9380291880, "lat": 39.8175347, "lon": 116.547173, "tags": {"name": "\u5317\u795e\u6811", "name:zh": "\u5317\u795e\u6811", "public_transport": "station", "railway": "station", "station": "subway", "subway": "yes"}}, {"type": "node", "id": 9380291881, "lat": 39.7918725, "lon": 116.6052556, "tags": {"name": "\u5609\u4f1a\u6e56", "name:zh": "\u5609\u4f1a\u6e56", "public_transport": "station", "railway": "station", "station": "subway", "subway": "yes"}}, {"type": "node", "id": 9380291883, "lat": 39.8026901, "lon": 116.5859503}, {"type": "node", "id": 9380291884, "lat": 39.8028198, "lon": 116.585768}, {"type": "node", "id": 9380291885, "lat": 39.802441, "lon": 116.5853258}, {"type": "node", "id": 9380291886, "lat": 39.8023119, "lon": 116.5855015}, {"type": "node", "id": 9384986212, "lat": 39.8429945, "lon": 116.4897859, "tags": {"name": "\u5341\u516b\u91cc\u5e97", "name:zh": "\u5341\u516b\u91cc\u5e97", "public_transport": "stop_position", "railway": "stop", "subway": "yes"}}, {"type": "node", "id": 9384986213, "lat": 39.8431057, "lon": 116.4898825, "tags": {"name": "\u5341\u516b\u91cc\u5e97", "name:zh": "\u5341\u516b\u91cc\u5e97", "public_transport": "stop_position", "railway": "stop", "subway": "yes"}}, {"type": "node", "id": 9384986214, "lat": 39.7919516, "lon": 116.605255, "tags": {"name": "\u5609\u4f1a\u6e56", "name:zh": "\u5609\u4f1a\u6e56", "public_transport": "stop_position", "railway": "stop", "subway": "yes"}}, {"type": "node", "id": 9385012491, "lat": 39.8010303, "lon": 116.5580075, "tags": {"bus": "yes", "highway": "bus_stop", "name": "\u5b9a\u6d77\u56ed\u5317", "public_transport": "platform"}}, {"type": "node", "id": 9385012493, "lat": 39.8006133, "lon": 116.5579258, "tags": {"bus": "yes", "highway": "bus_stop", "name": "\u5b9a\u6d77\u56ed\u5317", "public_transport": "platform"}}, {"type": "node", "id": 9385028988, "lat": 39.8025618, "lon": 116.5859395, "tags": {"name": "\u6b21\u6e20", "name:en": "Ciqu", "name:zh": "\u6b21\u6e20", "name:zh_pinyin": "C\u00ecq\u00fa", "public_transport": "stop_position", "railway": "stop", "subway": "yes", "wheelchair": "yes", "wikidata": "Q5121332"}}, {"type": "node", "id": 9385028989, "lat": 39.8024944, "lon": 116.585836, "tags": {"name": "\u6b21\u6e20", "name:en": "Ciqu", "name:zh": "\u6b21\u6e20", "name:zh_pinyin": "C\u00ecq\u00fa", "public_transport": "stop_position", "railway": "stop", "subway": "yes", "wheelchair": "yes", "wikidata": "Q5121332"}}, {"type": "node", "id": 9385028990, "lat": 39.8025378, "lon": 116.5858895, "tags": {"name": "\u6b21\u6e20", "name:en": "Ciqu", "name:zh": "\u6b21\u6e20", "name:zh_pinyin": "C\u00ecq\u00fa", "public_transport": "station", "railway": "station", "station": "subway", "subway": "yes", "wikidata": "Q5121332"}}, {"type": "node", "id": 9385028991, "lat": 39.8085973, "lon": 116.5706243, "tags": {"name": "\u6b21\u6e20\u5317", "name:zh": "\u6b21\u6e20\u5317", "public_transport": "station", "railway": "station", "station": "subway", "subway": "yes"}}, {"type": "node", "id": 9385028992, "lat": 39.8085463, "lon": 116.5705767, "tags": {"name": "\u6b21\u6e20\u5317", "name:zh": "\u6b21\u6e20\u5317", "public_transport": "stop_position", "railway": "stop", "subway": "yes"}}, {"type": "node", "id": 9385028993, "lat": 39.8086391, "lon": 116.5706518, "tags": {"name": "\u6b21\u6e20\u5317", "name:zh": "\u6b21\u6e20\u5317", "public_transport": "stop_position", "railway": "stop", "subway": "yes"}}, {"type": "node", "id": 9385028996, "lat": 39.8174737, "lon": 116.5471503, "tags": {"name": "\u5317\u795e\u6811", "name:zh": "\u5317\u795e\u6811", "public_transport": "stop_position", "railway": "stop", "subway": "yes"}}, {"type": "node", "id": 9385028997, "lat": 39.8175684, "lon": 116.5471718, "tags": {"name": "\u5317\u795e\u6811", "name:zh": "\u5317\u795e\u6811", "public_transport": "stop_position", "railway": "stop", "subway": "yes"}}, {"type": "node", "id": 9385042165, "lat": 39.7918012, "lon": 116.6052496, "tags": {"name": "\u5609\u4f1a\u6e56", "name:zh": "\u5609\u4f1a\u6e56", "public_transport": "stop_position", "railway": "stop", "subway": "yes"}}, {"type": "node", "id": 9592040113, "lat": 39.6164765, "lon": 116.4822924}, {"type": "node", "id": 9592040114, "lat": 39.6152926, "lon": 116.4841332}, {"type": "node", "id": 9592040115, "lat": 39.6178409, "lon": 116.4806311}, {"type": "node", "id": 9592040116, "lat": 39.6167195, "lon": 116.4823503}, {"type": "node", "id": 9592040870, "lat": 39.5721504, "lon": 116.5896687}, {"type": "node", "id": 9592040871, "lat": 39.5711401, "lon": 116.5920193}, {"type": "node", "id": 9592040872, "lat": 39.5736984, "lon": 116.5866367}, {"type": "node", "id": 9592040873, "lat": 39.5723338, "lon": 116.589835}, {"type": "node", "id": 9592053717, "lat": 39.6179279, "lon": 116.4807121}, {"type": "node", "id": 9592053718, "lat": 39.615734, "lon": 116.4840984}, {"type": "node", "id": 9729696580, "lat": 39.8467959, "lon": 116.67061}, {"type": "node", "id": 9729696582, "lat": 39.8452407, "lon": 116.6701437}, {"type": "node", "id": 9729696592, "lat": 39.8464144, "lon": 116.6705788, "tags": {"bus": "yes", "highway": "bus_stop", "name": "\u73af\u7403\u5ea6\u5047\u533a", "public_transport": "platform", "shelter": "yes"}}, {"type": "way", "id": 120772581, "nodes": [1353434690, 1353434694], "tags": {"layer": "-4", "public_transport": "platform", "railway": "platform"}}, {"type": "way", "id": 120772582, "nodes": [1353434368, 1353434394], "tags": {"public_transport": "platform", "railway": "platform"}}, {"type": "way", "id": 120772583, "nodes": [1353434391, 1353434403], "tags": {"public_transport": "platform", "railway": "platform"}}, {"type": "way", "id": 120772586, "nodes": [1353434370, 1353434401], "tags": {"public_transport": "platform", "railway": "platform"}}, {"type": "way", "id": 120772587, "nodes": [1353434701, 1353434677], "tags": {"public_transport": "platform", "railway": "platform"}}, {"type": "way", "id": 120772588, "nodes": [1353434511, 1353434536], "tags": {"public_transport": "platform", "railway": "platform"}}, {"type": "way", "id": 120772589, "nodes": [1353434662, 1353434670, 1353434672], "tags": {"layer": "-4", "public_transport": "platform", "railway": "platform"}}, {"type": "way", "id": 120772590, "nodes": [1353434650, 1353434656], "tags": {"layer": "-4", "public_transport": "platform", "railway": "platform"}}, {"type": "way", "id": 120772593, "nodes": [1353434662, 1353434665, 1353434672], "tags": {"layer": "-4", "public_transport": "platform", "railway": "platform"}}, {"type": "way", "id": 120772595, "nodes": [1353434692, 1353434696], "tags": {"layer": "-4", "public_transport": "platform", "railway": "platform"}}, {"type": "way", "id": 120772596, "nodes": [1353434513, 1353434538], "tags": {"public_transport": "platform", "railway": "platform"}}, {"type": "way", "id": 120772597, "nodes": [1353434653, 1353434659], "tags": {"layer": "-4", "public_transport": "platform", "railway": "platform"}}, {"type": "way", "id": 120772599, "nodes": [1353434702, 1353434687], "tags": {"public_transport": "platform", "railway": "platform"}}, {"type": "way", "id": 120772606, "nodes": [1353434508, 1353434465, 1353434455, 1353434492, 1353434508], "tags": {"building": "train_station", "name": "\u8363\u660c\u4e1c\u8857", "name:en": "Rongchangdongjie", "name:zh": "\u8363\u660c\u4e1c\u8857", "name:zh_pinyin": "R\u00f3ngch\u0101ngd\u014dngji\u0113", "public_transport": "station"}}, {"type": "way", "id": 121370739, "nodes": [9380291884, 1359115087, 1359115086, 9380291883, 9380291886]}, {"type": "way", "id": 121370741, "nodes": [1359115097, 1359115095, 1359115088, 1359115092, 1359115097], "tags": {"building": "train_station", "covered": "yes", "layer": "-4", "name": "\u4ea6\u5e84\u706b\u8f66\u7ad9", "name:en": "Yizhuang Railway Station", "name:zh": "\u4ea6\u5e84\u706b\u8f66\u7ad9", "name:zh_pinyin": "Y\u00eczhu\u0101ng Hu\u014fch\u0113zh\u00e0n", "public_transport": "station"}}, {"type": "way", "id": 121370743, "nodes": [1359115079, 1768297173, 1768297176, 1768297181, 1768297180, 1768297177, 1768297178, 1768297175, 1768297174, 1359115082, 1359115081, 1768297186, 1768297184, 1768297185, 1768297182, 1768297179, 1768297183, 1768297172, 1768297171, 1768297170, 1359115079], "tags": {"building": "train_station", "covered": "yes", "layer": "-4", "public_transport": "station"}}, {"type": "way", "id": 164939788, "nodes": [1765313185, 1765313186], "tags": {"FIXME": "estimated", "bench": "no", "highway": "platform", "public_transport": "platform", "shelter": "no", "source": "bing"}}, {"type": "way", "id": 164939789, "nodes": [1765313210, 1765313212], "tags": {"bench": "no", "highway": "platform", "public_transport": "platform", "shelter": "no"}}, {"type": "way", "id": 164939795, "nodes": [1765313201, 1765313200], "tags": {"bench": "no", "highway": "platform", "public_transport": "platform", "shelter": "no"}}, {"type": "way", "id": 164939796, "nodes": [1765313211, 1765313209], "tags": {"bench": "no", "highway": "platform", "public_transport": "platform", "shelter": "no"}}, {"type": "way", "id": 164941781, "nodes": [1765333368, 1765333367], "tags": {"bench": "no", "highway": "platform", "public_transport": "platform", "shelter": "no"}}, {"type": "way", "id": 165274259, "nodes": [1768299196, 1768299200, 1768299203, 1768299199, 1768299196], "tags": {"building": "train_station", "name": "\u8363\u4eac\u4e1c\u8857", "name:en": "Rongjingdongjie", "name:zh": "\u8363\u4eac\u4e1c\u8857", "name:zh_pinyin": "R\u00f3ngj\u012bngd\u014dngji\u0113", "public_transport": "station", "wikidata": "Q5937809"}}, {"type": "way", "id": 165274260, "nodes": [1768299201, 1768299197], "tags": {"public_transport": "platform", "railway": "platform"}}, {"type": "way", "id": 165274261, "nodes": [1768299198, 1768299202], "tags": {"public_transport": "platform", "railway": "platform"}}, {"type": "way", "id": 165274262, "nodes": [1768299209, 1768299218], "tags": {"public_transport": "platform", "railway": "platform"}}, {"type": "way", "id": 165274263, "nodes": [1768299216, 1768299207], "tags": {"public_transport": "platform", "railway": "platform"}}, {"type": "way", "id": 165274744, "nodes": [1768303525, 1768303530, 1768303538, 1768303531, 1768303525], "tags": {"building": "train_station", "public_transport": "station"}}, {"type": "way", "id": 165274746, "nodes": [1768303599, 1768303587], "tags": {"public_transport": "platform", "railway": "platform"}}, {"type": "way", "id": 165274747, "nodes": [1768303582, 1768303594], "tags": {"public_transport": "platform", "railway": "platform"}}, {"type": "way", "id": 165274748, "nodes": [1768303529, 1768303535], "tags": {"public_transport": "platform", "railway": "platform"}}, {"type": "way", "id": 165274749, "nodes": [1768303526, 1768303532], "tags": {"public_transport": "platform", "railway": "platform"}}, {"type": "way", "id": 165276090, "nodes": [1768319314, 1353434463], "tags": {"public_transport": "platform", "railway": "platform"}}, {"type": "way", "id": 165276091, "nodes": [1768319313, 1353434460], "tags": {"public_transport": "platform", "railway": "platform"}}, {"type": "way", "id": 172788741, "nodes": [1836427104, 1836427116], "tags": {"bench": "no", "highway": "platform", "public_transport": "platform", "shelter": "yes"}}, {"type": "way", "id": 172788748, "nodes": [1836427233, 1836427236], "tags": {"bench": "yes", "highway": "platform", "public_transport": "platform", "shelter": "yes"}}, {"type": "way", "id": 187903178, "nodes": [1985434332, 1985434336], "tags": {"bench": "no", "highway": "platform", "public_transport": "platform", "shelter": "no"}}, {"type": "way", "id": 187903183, "nodes": [1985434328, 1985434332], "tags": {"bench": "no", "highway": "platform", "public_transport": "platform", "shelter": "no"}}, {"type": "way", "id": 187903202, "nodes": [1985434303, 1985434305], "tags": {"bench": "no", "highway": "platform", "public_transport": "platform", "shelter": "no"}}, {"type": "way", "id": 187903205, "nodes": [1985434330, 1985434334], "tags": {"bench": "no", "highway": "platform", "public_transport": "platform", "shelter": "yes"}}, {"type": "way", "id": 187903212, "nodes": [1985434268, 1985434267], "tags": {"bench": "no", "highway": "platform", "public_transport": "platform", "shelter": "no"}}, {"type": "way", "id": 238689593, "nodes": [2464908093, 2464908094], "tags": {"highway": "platform", "public_transport": "platform"}}, {"type": "way", "id": 238948490, "nodes": [2467587204, 2467587201], "tags": {"bench": "no", "highway": "platform", "public_transport": "platform"}}, {"type": "way", "id": 238948492, "nodes": [2467587191, 2467587172], "tags": {"bench": "no", "highway": "platform", "public_transport": "platform"}}, {"type": "way", "id": 240127362, "nodes": [2478911249, 2478911250], "tags": {"highway": "platform", "public_transport": "platform"}}, {"type": "way", "id": 240127363, "nodes": [2478911252, 2478911251], "tags": {"highway": "platform", "public_transport": "platform"}}, {"type": "way", "id": 240127364, "nodes": [2478911246, 2478911245], "tags": {"highway": "platform", "public_transport": "platform"}}, {"type": "way", "id": 240127365, "nodes": [2478911248, 2478911247], "tags": {"highway": "platform", "public_transport": "platform"}}, {"type": "way", "id": 240224336, "nodes": [2479719357, 2479719354], "tags": {"highway": "platform", "public_transport": "platform"}}, {"type": "way", "id": 240390879, "nodes": [2481311457, 2481311456], "tags": {"highway": "platform", "public_transport": "platform"}}, {"type": "way", "id": 240390880, "nodes": [2481311463, 2481311464], "tags": {"highway": "platform", "public_transport": "platform"}}, {"type": "way", "id": 240390881, "nodes": [2481311454, 2481311455], "tags": {"highway": "platform", "public_transport": "platform"}}, {"type": "way", "id": 240390882, "nodes": [2481311452, 2481311453], "tags": {"highway": "platform", "public_transport": "platform"}}, {"type": "way", "id": 240486064, "nodes": [2482164186, 2482164185], "tags": {"highway": "platform", "public_transport": "platform"}}, {"type": "way", "id": 240486065, "nodes": [2482164188, 2482164187], "tags": {"highway": "platform", "public_transport": "platform"}}, {"type": "way", "id": 240628650, "nodes": [2483490831, 2483490828], "tags": {"highway": "platform", "public_transport": "platform"}}, {"type": "way", "id": 240628651, "nodes": [2483490845, 2483490844], "tags": {"highway": "platform", "public_transport": "platform"}}, {"type": "way", "id": 240628652, "nodes": [2483490819, 2483490821], "tags": {"highway": "platform", "public_transport": "platform"}}, {"type": "way", "id": 240628653, "nodes": [2483490840, 2483490838], "tags": {"highway": "platform", "public_transport": "platform"}}, {"type": "way", "id": 240628654, "nodes": [2483490824, 2483490822], "tags": {"highway": "platform", "public_transport": "platform"}}, {"type": "way", "id": 240628655, "nodes": [2483490825, 2483490827], "tags": {"highway": "platform", "public_transport": "platform"}}, {"type": "way", "id": 240628656, "nodes": [2483490833, 2483490834], "tags": {"highway": "platform", "public_transport": "platform"}}, {"type": "way", "id": 240628657, "nodes": [2483490843, 2483490841], "tags": {"highway": "platform", "public_transport": "platform"}}, {"type": "way", "id": 240628658, "nodes": [2483490835, 2483490837], "tags": {"highway": "platform", "public_transport": "platform"}}, {"type": "way", "id": 240635775, "nodes": [2483551180, 2483551179], "tags": {"highway": "platform", "public_transport": "platform"}}, {"type": "way", "id": 240635776, "nodes": [2483551182, 2483551181], "tags": {"highway": "platform", "public_transport": "platform"}}, {"type": "way", "id": 240637700, "nodes": [2483577213, 2483577212], "tags": {"highway": "platform", "public_transport": "platform"}}, {"type": "way", "id": 240638681, "nodes": [2483589385, 2483589382], "tags": {"highway": "platform", "public_transport": "platform"}}, {"type": "way", "id": 240773717, "nodes": [2484767009, 2484767008], "tags": {"highway": "platform", "public_transport": "platform"}}, {"type": "way", "id": 240773718, "nodes": [2484767005, 2484767004], "tags": {"highway": "platform", "public_transport": "platform"}}, {"type": "way", "id": 240773719, "nodes": [2484767010, 2484767011], "tags": {"highway": "platform", "public_transport": "platform"}}, {"type": "way", "id": 240773720, "nodes": [2484766998, 2484766999], "tags": {"highway": "platform", "public_transport": "platform"}}, {"type": "way", "id": 240773721, "nodes": [2484767007, 2484767006], "tags": {"highway": "platform", "public_transport": "platform"}}, {"type": "way", "id": 240773722, "nodes": [2484767001, 2484767000], "tags": {"highway": "platform", "public_transport": "platform"}}, {"type": "way", "id": 240773723, "nodes": [2484767003, 2484767002], "tags": {"highway": "platform", "public_transport": "platform"}}, {"type": "way", "id": 240969759, "nodes": [2486499657, 2486499658], "tags": {"highway": "platform", "public_transport": "platform"}}, {"type": "way", "id": 240969760, "nodes": [2486499654, 2486499653], "tags": {"highway": "platform", "public_transport": "platform"}}, {"type": "way", "id": 240969761, "nodes": [2486499651, 8291244181, 2486499652], "tags": {"highway": "platform", "public_transport": "platform"}}, {"type": "way", "id": 240969764, "nodes": [2486499656, 2486499655], "tags": {"highway": "platform", "public_transport": "platform"}}, {"type": "way", "id": 241243356, "nodes": [2489355268, 2489355269], "tags": {"highway": "platform", "public_transport": "platform"}}, {"type": "way", "id": 241243358, "nodes": [2489355266, 2489355267], "tags": {"highway": "platform", "public_transport": "platform"}}, {"type": "way", "id": 241418253, "nodes": [2490650195, 2490650196], "tags": {"highway": "platform", "public_transport": "platform"}}, {"type": "way", "id": 241418254, "nodes": [2490650194, 2490650193], "tags": {"highway": "platform", "public_transport": "platform"}}, {"type": "way", "id": 242189229, "nodes": [2497063632, 1985434303], "tags": {"highway": "platform", "public_transport": "platform"}}, {"type": "way", "id": 242783345, "nodes": [2502403900, 2502403899], "tags": {"highway": "platform", "public_transport": "platform"}}, {"type": "way", "id": 242783346, "nodes": [2502403911, 2502403909], "tags": {"highway": "platform", "public_transport": "platform"}}, {"type": "way", "id": 242783347, "nodes": [2502403901, 2502403900], "tags": {"highway": "platform", "public_transport": "platform"}}, {"type": "way", "id": 242783348, "nodes": [2502403902, 2502403904], "tags": {"highway": "platform", "public_transport": "platform"}}, {"type": "way", "id": 242783349, "nodes": [2502403915, 2502403917], "tags": {"highway": "platform", "public_transport": "platform"}}, {"type": "way", "id": 242783350, "nodes": [2502403919, 2502403921], "tags": {"highway": "platform", "public_transport": "platform"}}, {"type": "way", "id": 242783351, "nodes": [2502403907, 2502403906], "tags": {"highway": "platform", "public_transport": "platform"}}, {"type": "way", "id": 243765375, "nodes": [2511333661, 2511333660], "tags": {"highway": "platform", "public_transport": "platform"}}, {"type": "way", "id": 243765376, "nodes": [2511333662, 2511333661], "tags": {"highway": "platform", "public_transport": "platform"}}, {"type": "way", "id": 244251948, "nodes": [2515921195, 2515921194], "tags": {"highway": "platform", "public_transport": "platform"}}, {"type": "way", "id": 244552106, "nodes": [2518598087, 2518598089], "tags": {"highway": "platform", "public_transport": "platform"}}, {"type": "way", "id": 244552107, "nodes": [2518598128, 2518598126], "tags": {"highway": "platform", "public_transport": "platform"}}, {"type": "way", "id": 244552108, "nodes": [2518598106, 2518598108], "tags": {"highway": "platform", "public_transport": "platform"}}, {"type": "way", "id": 244552109, "nodes": [2518598120, 2518598118], "tags": {"highway": "platform", "public_transport": "platform"}}, {"type": "way", "id": 244552110, "nodes": [2518598110, 2518598116], "tags": {"highway": "platform", "public_transport": "platform"}}, {"type": "way", "id": 244552111, "nodes": [2518598122, 2518598124], "tags": {"highway": "platform", "public_transport": "platform"}}, {"type": "way", "id": 244558950, "nodes": [2518641126, 2518641128], "tags": {"highway": "platform", "public_transport": "platform"}}, {"type": "way", "id": 244558951, "nodes": [2518641074, 2518641072], "tags": {"highway": "platform", "public_transport": "platform"}}, {"type": "way", "id": 245822425, "nodes": [2529364667, 2529364668], "tags": {"highway": "platform", "public_transport": "platform"}}, {"type": "way", "id": 245822426, "nodes": [2529364663, 2529364664], "tags": {"highway": "platform", "public_transport": "platform"}}, {"type": "way", "id": 245822427, "nodes": [2529364665, 2529364666], "tags": {"highway": "platform", "public_transport": "platform"}}, {"type": "way", "id": 245822428, "nodes": [2529364670, 2529364669], "tags": {"highway": "platform", "public_transport": "platform"}}, {"type": "way", "id": 255530671, "nodes": [2612129513, 2612129511], "tags": {"highway": "platform", "public_transport": "platform"}}, {"type": "way", "id": 258285685, "nodes": [2636697962, 2636697970], "tags": {"highway": "platform", "public_transport": "platform"}}, {"type": "way", "id": 258285686, "nodes": [2636697972, 2636697967], "tags": {"highway": "platform", "public_transport": "platform"}}, {"type": "way", "id": 258604880, "nodes": [2639385128, 2639385125, 2639385120, 2639385119, 2639385127, 2639385128], "tags": {"area": "yes", "barrier": "wall", "name": "\u897f\u5b9a\u798f\u5e84\u5ba2\u8fd0\u7ad9", "public_transport": "station"}}, {"type": "way", "id": 914819905, "nodes": [8498012499, 8498012498], "tags": {"bus": "yes", "public_transport": "platform"}}, {"type": "way", "id": 982144737, "nodes": [9380291886, 9083323672, 9083323673, 9083323674, 9083323675, 9083323676, 9083323677, 9083323678, 9083323655, 9083323656, 9083323657, 9083323658, 9083323659, 9083323660, 9083323661, 9083323662, 9083323663, 9083323664, 9083323665, 9083323666, 9083323667, 9380291883]}, {"type": "way", "id": 982144746, "nodes": [9083333249, 9083333250, 9083333251, 3640224442, 8797441493, 8797441492, 9083333252, 9083333253, 9083333254, 9083333247, 9083333245, 9083333255, 3196933475, 9083333256, 6550987783, 9083333257, 9083333258, 9083333259, 9083333246, 9083333248, 9083333249], "tags": {"building": "train_station", "covered": "yes", "layer": "-4", "public_transport": "station"}}, {"type": "way", "id": 983216917, "nodes": [9091226363, 9091226364, 9091226365, 9091226366, 9091226367, 9091226368, 9091226369, 9091226370, 9091226371, 9091226372, 9091226373, 9091226374, 9091226375, 9091226376, 9091226377, 9091226378, 9091226379, 9091226380, 9091226381, 9091226382, 9091226383, 9091226384, 9091226385, 9091226386, 9091226387, 9091226388, 9091226389, 9091226390, 9091226391, 9091226392, 9091226393, 9091226394, 9091226363], "tags": {"building": "train_station", "covered": "yes", "layer": "-4", "public_transport": "station"}}, {"type": "way", "id": 1004613222, "nodes": [9268913684, 9268913685, 9268913686, 9268913687, 9268913684], "tags": {"building": "roof", "public_transport": "station"}}, {"type": "way", "id": 1004613223, "nodes": [9268913688, 9268913689, 9268913690, 9268913691, 9268913688], "tags": {"building": "roof", "public_transport": "station"}}, {"type": "way", "id": 1016985298, "nodes": [9380291886, 1359115084, 1359115085, 9380291885, 9380291884]}, {"type": "way", "id": 1016985299, "nodes": [9380291884, 9083323668, 9083323669, 9083323670, 9083323671, 9380291885]}, {"type": "way", "id": 1016985300, "nodes": [9380291883, 9380291884]}, {"type": "way", "id": 1016985301, "nodes": [9380291885, 9380291886]}, {"type": "way", "id": 1041948506, "nodes": [9592040113, 9592040114], "tags": {"public_transport": "no", "railway": "platform", "train": "no"}}, {"type": "way", "id": 1041948507, "nodes": [9592040115, 9592040116], "tags": {"public_transport": "platform", "railway": "platform", "train": "yes"}}, {"type": "way", "id": 1041948508, "nodes": [9592053717, 9592053718], "tags": {"public_transport": "no", "railway": "platform", "train": "no"}}, {"type": "way", "id": 1041956003, "nodes": [9592040870, 9592040871], "tags": {"public_transport": "no", "railway": "platform", "train": "no"}}, {"type": "way", "id": 1041956004, "nodes": [9592040872, 9592040873], "tags": {"public_transport": "no", "railway": "platform", "train": "no"}}, {"type": "way", "id": 1058883455, "nodes": [9729696580, 9039317474, 9729696582], "tags": {"bus": "yes", "public_transport": "platform"}}, {"type": "relation", "id": 1655451, "members": [{"type": "way", "ref": 120772595, "role": "platform"}, {"type": "way", "ref": 120772581, "role": "platform"}, {"type": "node", "ref": 1074413619, "role": "stop"}, {"type": "node", "ref": 1353434209, "role": "stop"}, {"type": "way", "ref": 121370741, "role": ""}, {"type": "node", "ref": 6781686654, "role": ""}, {"type": "node", "ref": 6781686642, "role": ""}, {"type": "node", "ref": 6781686663, "role": ""}, {"type": "node", "ref": 6781686662, "role": ""}, {"type": "node", "ref": 8073260829, "role": ""}], "tags": {"name": "\u4ea6\u5e84\u706b\u8f66\u7ad9", "name:en": "Yizhuang Railway Station", "name:zh": "\u4ea6\u5e84\u706b\u8f66\u7ad9", "name:zh_pinyin": "Y\u00eczhu\u0101ng Hu\u014fch\u0113zh\u00e0n", "public_transport": "stop_area", "type": "public_transport"}}, {"type": "relation", "id": 1655452, "members": [{"type": "node", "ref": 1353434213, "role": "stop"}, {"type": "node", "ref": 1353434228, "role": "stop"}, {"type": "node", "ref": 1074413554, "role": "stop"}, {"type": "way", "ref": 120772586, "role": "platform"}, {"type": "way", "ref": 120772583, "role": "platform"}, {"type": "way", "ref": 120772582, "role": "platform"}, {"type": "node", "ref": 5430391237, "role": ""}], "tags": {"name": "\u540c\u6d4e\u5357\u8def", "name:en": "Tongjinanlu", "name:zh": "\u540c\u6d4e\u5357\u8def", "name:zh_pinyin": "T\u00f3ngj\u00ecn\u00e1nl\u00f9", "public_transport": "stop_area", "type": "public_transport"}}, {"type": "relation", "id": 1655453, "members": [{"type": "node", "ref": 1353434231, "role": "stop"}, {"type": "node", "ref": 1074413605, "role": "stop"}, {"type": "way", "ref": 120772589, "role": "platform"}, {"type": "way", "ref": 120772593, "role": "platform"}, {"type": "way", "ref": 121370739, "role": ""}, {"type": "way", "ref": 1016985298, "role": ""}, {"type": "node", "ref": 1074413587, "role": ""}, {"type": "node", "ref": 1074413522, "role": ""}, {"type": "node", "ref": 6781649751, "role": ""}, {"type": "node", "ref": 8073260830, "role": ""}], "tags": {"name": "\u6b21\u6e20", "name:en": "Ciqu", "name:zh": "\u6b21\u6e20", "name:zh_pinyin": "C\u00ecq\u00fa", "public_transport": "stop_area", "type": "public_transport"}}, {"type": "relation", "id": 1655454, "members": [{"type": "way", "ref": 121370743, "role": ""}, {"type": "node", "ref": 1353434234, "role": "stop"}, {"type": "way", "ref": 120772597, "role": "platform"}, {"type": "way", "ref": 120772590, "role": "platform"}, {"type": "node", "ref": 1094071212, "role": "stop"}, {"type": "node", "ref": 6781649746, "role": ""}, {"type": "node", "ref": 6781649753, "role": ""}, {"type": "node", "ref": 6781649747, "role": ""}, {"type": "node", "ref": 6781649749, "role": ""}], "tags": {"name": "\u6b21\u6e20\u5357", "name:en": "Ciqu South", "name:zh": "\u6b21\u6e20\u5357", "name:zh_pinyin": "C\u00ecq\u00fan\u00e1n", "public_transport": "stop_area", "type": "public_transport"}}, {"type": "relation", "id": 1655455, "members": [{"type": "node", "ref": 1353434236, "role": "stop"}, {"type": "node", "ref": 1074413516, "role": "stop"}, {"type": "way", "ref": 120772588, "role": "platform"}, {"type": "way", "ref": 120772596, "role": "platform"}, {"type": "node", "ref": 5444695596, "role": ""}], "tags": {"name": "\u7ecf\u6d77\u8def", "name:en": "Jinghailu", "name:zh": "\u7ecf\u6d77\u8def", "name:zh_pinyin": "J\u012bngh\u0103il\u00f9", "public_transport": "stop_area", "type": "public_transport"}}, {"type": "relation", "id": 1655456, "members": [{"type": "node", "ref": 1074413537, "role": "stop"}, {"type": "node", "ref": 1353434788, "role": "stop"}, {"type": "way", "ref": 165276090, "role": "platform"}, {"type": "way", "ref": 165276091, "role": "platform"}, {"type": "node", "ref": 8073260828, "role": ""}], "tags": {"name": "\u8363\u660c\u4e1c\u8857", "name:en": "Rongchangdongjie", "name:zh": "\u8363\u660c\u4e1c\u8857", "name:zh_pinyin": "R\u00f3ngch\u0101ngd\u014dngji\u0113", "public_transport": "stop_area", "type": "public_transport"}}, {"type": "relation", "id": 2197629, "members": [{"type": "node", "ref": 289124116, "role": "stop"}, {"type": "node", "ref": 1765245232, "role": "platform"}], "tags": {"name": "\u5341\u516b\u91cc\u5e97\u5357\u6865", "public_transport": "stop_area", "type": "public_transport"}}, {"type": "relation", "id": 2197742, "members": [{"type": "node", "ref": 1765313258, "role": "stop"}, {"type": "node", "ref": 1765313188, "role": "platform"}, {"type": "node", "ref": 1765333385, "role": "stop"}, {"type": "way", "ref": 164941781, "role": "platform"}, {"type": "node", "ref": 1765333384, "role": "stop"}, {"type": "node", "ref": 1765333364, "role": "platform"}], "tags": {"name": "\u5c0f\u7ea2\u95e8\u724c\u574a", "public_transport": "stop_area", "type": "public_transport"}}, {"type": "relation", "id": 2197743, "members": [{"type": "way", "ref": 164939796, "role": "platform"}, {"type": "way", "ref": 164939789, "role": "platform"}, {"type": "node", "ref": 1765313259, "role": "stop"}, {"type": "node", "ref": 1765313260, "role": "stop"}], "tags": {"name": "\u604b\u65e5\u7eff\u5c9b", "public_transport": "stop_area", "type": "public_transport"}}, {"type": "relation", "id": 2197744, "members": [{"type": "node", "ref": 1765313261, "role": "stop"}, {"type": "node", "ref": 1765313262, "role": "stop"}, {"type": "way", "ref": 164939795, "role": "platform"}, {"type": "way", "ref": 164939788, "role": "platform"}], "tags": {"name": "\u604b\u65e5\u7eff\u5c9b\u5357\u95e8", "public_transport": "stop_area", "type": "public_transport"}}, {"type": "relation", "id": 2197745, "members": [{"type": "node", "ref": 1765313263, "role": "stop"}, {"type": "node", "ref": 1765313196, "role": "platform"}], "tags": {"name": "\u724c\u574a\u6751\u4e1c\u53e3", "public_transport": "stop_area", "type": "public_transport"}}, {"type": "relation", "id": 2201439, "members": [{"type": "node", "ref": 1768299223, "role": "stop"}, {"type": "node", "ref": 1768299227, "role": "stop"}, {"type": "way", "ref": 165274262, "role": "platform"}, {"type": "way", "ref": 165274263, "role": "platform"}, {"type": "node", "ref": 5444694219, "role": ""}], "tags": {"name": "\u4e07\u6e90\u8857", "name:en": "Wanyuanjie", "name:zh": "\u4e07\u6e90\u8857", "name:zh_pinyin": "W\u00e0nyu\u00e1nji\u0113", "public_transport": "stop_area", "type": "public_transport"}}, {"type": "relation", "id": 2201440, "members": [{"type": "node", "ref": 1768299228, "role": "stop"}, {"type": "node", "ref": 1768299229, "role": "stop"}, {"type": "way", "ref": 165274261, "role": "platform"}, {"type": "way", "ref": 165274260, "role": "platform"}, {"type": "way", "ref": 165274259, "role": ""}, {"type": "node", "ref": 8073260827, "role": ""}], "tags": {"name": "\u8363\u4eac\u4e1c\u8857", "name:en": "Rongjingdongjie", "name:zh": "\u8363\u4eac\u4e1c\u8857", "name:zh_pinyin": "R\u00f3ngj\u012bngd\u014dngji\u0113", "public_transport": "stop_area", "type": "public_transport"}}, {"type": "relation", "id": 2201449, "members": [{"type": "node", "ref": 1074413501, "role": "stop"}, {"type": "node", "ref": 1768303651, "role": "stop"}, {"type": "way", "ref": 165274747, "role": "platform"}, {"type": "way", "ref": 165274746, "role": "platform"}, {"type": "node", "ref": 5444691512, "role": ""}], "tags": {"name": "\u4ea6\u5e84\u6587\u5316\u56ed", "name:en": "Yizhuang Culture Park", "name:zh": "\u4ea6\u5e84\u6587\u5316\u56ed", "name:zh_pinyin": "Y\u00eczhu\u0101ng W\u00e9nhu\u00e0yu\u00e1n", "public_transport": "stop_area", "type": "public_transport"}}, {"type": "relation", "id": 2201450, "members": [{"type": "node", "ref": 1074413543, "role": "stop"}, {"type": "node", "ref": 1768303652, "role": "stop"}, {"type": "way", "ref": 165274749, "role": "platform"}, {"type": "way", "ref": 165274748, "role": "platform"}, {"type": "way", "ref": 165274744, "role": ""}, {"type": "node", "ref": 8073260826, "role": ""}], "tags": {"name": "\u4ea6\u5e84\u6865", "name:en": "Yizhuangqiao", "name:zh": "\u4ea6\u5e84\u6865", "name:zh_pinyin": "Y\u00eczhu\u0101ngqi\u00e1o", "public_transport": "stop_area", "type": "public_transport"}}, {"type": "relation", "id": 2307015, "members": [{"type": "node", "ref": 1836427398, "role": "stop"}, {"type": "way", "ref": 172788741, "role": "platform"}], "tags": {"name": "\u5341\u516b\u91cc\u5e97\u5357\u6865", "public_transport": "stop_area", "type": "public_transport"}}, {"type": "relation", "id": 2307016, "members": [{"type": "node", "ref": 1836427399, "role": "stop"}, {"type": "node", "ref": 1836427121, "role": "platform"}], "tags": {"name": "\u5415\u5bb6\u8425\u5357\u7ad9", "public_transport": "stop_area", "type": "public_transport"}}, {"type": "relation", "id": 2307017, "members": [{"type": "node", "ref": 1836427400, "role": "stop"}, {"type": "node", "ref": 1836427210, "role": "platform"}, {"type": "node", "ref": 1836427401, "role": "stop"}, {"type": "way", "ref": 172788748, "role": "platform"}], "tags": {"name": "\u5415\u8425\u82b1\u56ed", "public_transport": "stop_area", "type": "public_transport"}}, {"type": "relation", "id": 2531037, "members": [{"type": "node", "ref": 1985434457, "role": "stop"}, {"type": "node", "ref": 1985434405, "role": "platform"}], "tags": {"name": "\u4e07\u6e90\u8857\u897f\u53e3", "public_transport": "stop_area", "type": "public_transport"}}, {"type": "relation", "id": 2531038, "members": [{"type": "node", "ref": 1985434459, "role": "stop"}, {"type": "node", "ref": 1985434398, "role": "platform"}], "tags": {"name": "\u4ea6\u5e84\u6865\u5357", "public_transport": "stop_area", "type": "public_transport"}}, {"type": "relation", "id": 2531039, "members": [{"type": "node", "ref": 1985434460, "role": "stop"}, {"type": "way", "ref": 187903202, "role": "platform"}], "tags": {"name": "\u8d35\u56ed\u4e1c\u91cc", "public_transport": "stop_area", "type": "public_transport"}}, {"type": "relation", "id": 2531040, "members": [{"type": "node", "ref": 1985434462, "role": "stop"}, {"type": "node", "ref": 1985434461, "role": "stop"}, {"type": "way", "ref": 187903183, "role": "platform"}, {"type": "way", "ref": 187903178, "role": "platform"}], "tags": {"alt_name": "\u535a\u8fbe\u56fd\u9645\u4ea4\u6d41\u4e2d\u5fc3", "name": "\u5929\u534e\u5317\u8857\u4e1c\u53e3", "public_transport": "stop_area", "type": "public_transport"}}, {"type": "relation", "id": 2531041, "members": [{"type": "node", "ref": 1985434463, "role": "stop"}, {"type": "way", "ref": 187903212, "role": "platform"}], "tags": {"name": "\u5929\u534e\u5317\u8857\u897f\u53e3", "public_transport": "stop_area", "type": "public_transport"}}, {"type": "relation", "id": 2531042, "members": [{"type": "node", "ref": 1985434464, "role": "stop"}, {"type": "node", "ref": 1985434299, "role": "platform"}], "tags": {"name": "\u5929\u534e\u897f\u8def\u5317\u53e3", "public_transport": "stop_area", "type": "public_transport"}}, {"type": "relation", "id": 2531043, "members": [{"type": "node", "ref": 1985434465, "role": "stop"}, {"type": "node", "ref": 1985434111, "role": "platform"}, {"type": "node", "ref": 1985434469, "role": "stop"}, {"type": "node", "ref": 1985434125, "role": "platform"}, {"type": "node", "ref": 1985434458, "role": "stop"}, {"type": "node", "ref": 1985434132, "role": "platform"}, {"type": "node", "ref": 1985434468, "role": "stop"}, {"type": "node", "ref": 1985434093, "role": "platform"}, {"type": "node", "ref": 1985434466, "role": "stop"}, {"type": "node", "ref": 1985434112, "role": "platform"}, {"type": "node", "ref": 1985434470, "role": "stop"}, {"type": "node", "ref": 1985434139, "role": "platform"}], "tags": {"name": "\u5f00\u53d1\u533a\u4ea4\u901a\u670d\u52a1\u4e2d\u5fc3", "public_transport": "stop_area", "type": "public_transport"}}, {"type": "relation", "id": 2531044, "members": [{"type": "node", "ref": 1985434467, "role": "stop"}, {"type": "way", "ref": 187903205, "role": "platform"}], "tags": {"name": "\u65b0\u5eb7\u5bb6\u56ed", "public_transport": "stop_area", "type": "public_transport"}}, {"type": "relation", "id": 3218869, "members": [{"type": "node", "ref": 2465692949, "role": "stop"}, {"type": "node", "ref": 2465692950, "role": "stop"}, {"type": "node", "ref": 2465692840, "role": "platform"}, {"type": "node", "ref": 2465692836, "role": "platform"}], "tags": {"name": "\u66f9\u6751", "public_transport": "stop_area", "type": "public_transport"}}, {"type": "relation", "id": 3224650, "members": [{"type": "node", "ref": 2468979755, "role": "platform"}, {"type": "node", "ref": 2468977051, "role": "stop"}], "tags": {"name": "\u9752\u4e91\u5e97\u8f66\u7ad9", "public_transport": "stop_area", "type": "public_transport"}}, {"type": "relation", "id": 3224651, "members": [{"type": "node", "ref": 2468979751, "role": "platform"}, {"type": "node", "ref": 2468979747, "role": "platform"}, {"type": "node", "ref": 2468979758, "role": "stop"}, {"type": "node", "ref": 2468979762, "role": "stop"}], "tags": {"name": "\u9752\u4e91\u5e97\u9547", "public_transport": "stop_area", "type": "public_transport"}}, {"type": "relation", "id": 12154787, "members": [{"type": "node", "ref": 8252163807, "role": ""}, {"type": "node", "ref": 8285460841, "role": ""}, {"type": "node", "ref": 8285460842, "role": ""}], "tags": {"name": "\u8363\u660c\u4e1c\u8857", "public_transport": "stop_area", "type": "public_transport"}}, {"type": "relation", "id": 12154788, "members": [{"type": "node", "ref": 8252163808, "role": ""}, {"type": "node", "ref": 8285460836, "role": ""}, {"type": "node", "ref": 8285460835, "role": "stop"}], "tags": {"name": "\u4ea6\u521b\u4f1a\u5c55\u4e2d\u5fc3", "public_transport": "stop_area", "type": "public_transport"}}, {"type": "relation", "id": 13617907, "members": [{"type": "way", "ref": 121370739, "role": "outer"}, {"type": "way", "ref": 1016985298, "role": "outer"}], "tags": {"building": "train_station", "covered": "yes", "layer": "-4", "public_transport": "station", "type": "multipolygon"}}, {"type": "relation", "id": 13617908, "members": [{"type": "way", "ref": 982144737, "role": "outer"}, {"type": "way", "ref": 1016985301, "role": "outer"}, {"type": "way", "ref": 1016985299, "role": "outer"}, {"type": "way", "ref": 1016985300, "role": "outer"}], "tags": {"building": "train_station", "covered": "yes", "layer": "-4", "public_transport": "station", "type": "multipolygon"}}, {"type": "relation", "id": 13625141, "members": [{"type": "node", "ref": 9384986212, "role": "stop"}, {"type": "node", "ref": 9384986213, "role": "stop"}, {"type": "node", "ref": 9380291879, "role": ""}], "tags": {"name": "\u5341\u516b\u91cc\u5e97", "name:zh": "\u5341\u516b\u91cc\u5e97", "public_transport": "stop_area", "type": "public_transport"}}, {"type": "relation", "id": 13625143, "members": [{"type": "node", "ref": 9380291881, "role": ""}, {"type": "node", "ref": 9385042165, "role": "stop"}, {"type": "node", "ref": 9384986214, "role": "stop"}], "tags": {"name": "\u5609\u4f1a\u6e56", "name:zh": "\u5609\u4f1a\u6e56", "public_transport": "stop_area", "type": "public_transport"}}, {"type": "relation", "id": 13625196, "members": [{"type": "node", "ref": 9385028988, "role": "stop"}, {"type": "node", "ref": 9385028989, "role": "stop"}, {"type": "node", "ref": 9385028990, "role": ""}], "tags": {"name": "\u6b21\u6e20", "name:zh": "\u6b21\u6e20", "public_transport": "stop_area", "type": "public_transport"}}, {"type": "relation", "id": 13625198, "members": [{"type": "node", "ref": 9385028991, "role": ""}, {"type": "node", "ref": 9385028993, "role": "stop"}, {"type": "node", "ref": 9385028992, "role": "stop"}], "tags": {"name": "\u6b21\u6e20\u5317", "name:zh": "\u6b21\u6e20\u5317", "public_transport": "stop_area", "type": "public_transport"}}, {"type": "relation", "id": 13625200, "members": [{"type": "node", "ref": 9385028996, "role": "stop"}, {"type": "node", "ref": 9385028997, "role": "stop"}, {"type": "node", "ref": 9380291880, "role": ""}], "tags": {"name": "\u5317\u795e\u6811", "name:zh": "\u5317\u795e\u6811", "public_transport": "stop_area", "type": "public_transport"}}]}