{"version": 0.6, "generator": "Overpass API 0.7.57 93a4d346", "osm3s": {"timestamp_osm_base": "2022-05-12T16:11:35Z", "copyright": "The data included in this document is from www.openstreetmap.org. The data is made available under ODbL."}, "elements": [{"type": "node", "id": 1949306354, "lat": 40.7310043, "lon": 116.6319317}, {"type": "node", "id": 2350798039, "lat": 40.731228, "lon": 116.6320592, "tags": {"bus": "yes", "highway": "bus_stop", "name": "\u6c64\u6cb3\u53e3", "public_transport": "platform"}}, {"type": "node", "id": 2350798045, "lat": 40.7318325, "lon": 116.6318641, "tags": {"bus": "yes", "highway": "bus_stop", "name": "\u6c64\u6cb3\u53e3", "public_transport": "platform"}}, {"type": "node", "id": 2350798047, "lat": 40.7319389, "lon": 116.6320899, "tags": {"bus": "yes", "highway": "bus_stop", "name": "\u6c64\u6cb3\u53e3", "public_transport": "stop_position"}}, {"type": "node", "id": 2453015508, "lat": 40.6552362, "lon": 116.6567824, "tags": {"bus": "yes", "highway": "bus_stop", "name": "\u524d\u5b89\u5cad", "public_transport": "platform"}}, {"type": "node", "id": 2453143495, "lat": 40.6902101, "lon": 116.6547396, "tags": {"bus": "yes", "highway": "bus_stop", "public_transport": "platform"}}, {"type": "node", "id": 2453143518, "lat": 40.7003375, "lon": 116.6524097, "tags": {"bus": "yes", "highway": "bus_stop", "name": "\u5c0f\u9ec4\u5858", "public_transport": "platform"}}, {"type": "node", "id": 2453143550, "lat": 40.7131926, "lon": 116.6394766, "tags": {"bus": "yes", "highway": "bus_stop", "name": "\u5927\u9ec4\u5858\u5357", "public_transport": "platform"}}, {"type": "node", "id": 2453258540, "lat": 40.7313143, "lon": 116.6320718, "tags": {"bench": "no", "highway": "platform", "public_transport": "platform", "shelter": "no"}}, {"type": "node", "id": 2453258544, "lat": 40.7319115, "lon": 116.6321857, "tags": {"bench": "no", "highway": "platform", "public_transport": "platform", "shelter": "no"}}, {"type": "node", "id": 2453258581, "lat": 40.735714, "lon": 116.6399821}, {"type": "node", "id": 2453258583, "lat": 40.7355677, "lon": 116.6398472, "tags": {"bus": "yes", "highway": "bus_stop", "name": "\u6c64\u6cb3\u53e3\u9547\u653f\u5e9c", "public_transport": "platform"}}, {"type": "node", "id": 2453305649, "lat": 40.7305727, "lon": 116.6320757}, {"type": "node", "id": 2453305650, "lat": 40.7306272, "lon": 116.632165}, {"type": "node", "id": 2453305652, "lat": 40.730748, "lon": 116.6318897}, {"type": "node", "id": 2453305653, "lat": 40.7308025, "lon": 116.631979}, {"type": "node", "id": 2453305668, "lat": 40.7310689, "lon": 116.6347491, "tags": {"bus": "yes", "highway": "bus_stop", "public_transport": "platform"}}, {"type": "node", "id": 2453328633, "lat": 40.7309241, "lon": 116.6314747, "tags": {"bus": "yes", "highway": "bus_stop", "name": "\u6c64\u6cb3\u53e3", "public_transport": "platform"}}, {"type": "node", "id": 5961102334, "lat": 40.9615043, "lon": 116.478436, "tags": {"amenity": "bus_station", "bus": "yes", "name": "\u89c2\u5149\u8f66\u4e0a\u884c\u7ad9", "public_transport": "station"}}, {"type": "node", "id": 8614295574, "lat": 40.8242171, "lon": 116.4585588, "tags": {"bus": "yes", "highway": "bus_stop", "name": "\u6000\u67d4\u5927\u77f3\u7a91", "public_transport": "platform"}}, {"type": "node", "id": 8614295575, "lat": 40.8243064, "lon": 116.4585867, "tags": {"bus": "yes", "highway": "bus_stop", "name": "\u6000\u67d4\u5927\u77f3\u7a91", "public_transport": "platform"}}, {"type": "node", "id": 8614295591, "lat": 40.8308062, "lon": 116.4689379, "tags": {"bus": "yes", "highway": "bus_stop", "name": "\u56db\u7a9d\u94fa", "public_transport": "platform"}}, {"type": "node", "id": 8614295592, "lat": 40.8308305, "lon": 116.4690602, "tags": {"bus": "yes", "highway": "bus_stop", "name": "\u56db\u7a9d\u94fa", "public_transport": "platform"}}, {"type": "node", "id": 8614295620, "lat": 40.8262738, "lon": 116.4720514, "tags": {"bus": "yes", "highway": "bus_stop", "name": "\u5b9d\u5c71\u9547\u5357\u6e7e\u5b50", "public_transport": "platform"}}, {"type": "node", "id": 8614295621, "lat": 40.8263243, "lon": 116.4721488, "tags": {"bus": "yes", "highway": "bus_stop", "name": "\u5b9d\u5c71\u9547\u5357\u6e7e\u5b50", "public_transport": "platform"}}, {"type": "node", "id": 8614295711, "lat": 40.8153642, "lon": 116.4825801, "tags": {"bus": "yes", "highway": "bus_stop", "name": "\u77f3\u7247", "public_transport": "platform"}}, {"type": "node", "id": 8614295712, "lat": 40.8155006, "lon": 116.4828805, "tags": {"bus": "yes", "highway": "bus_stop", "name": "\u77f3\u7247", "public_transport": "platform"}}, {"type": "node", "id": 8614295765, "lat": 40.8023433, "lon": 116.4842656, "tags": {"bus": "yes", "highway": "bus_stop", "name": "\u78be\u5b50", "public_transport": "platform"}}, {"type": "node", "id": 8614295778, "lat": 40.7952364, "lon": 116.4812458, "tags": {"bus": "yes", "highway": "bus_stop", "name": "\u6000\u67d4\u6cb3\u897f", "public_transport": "platform"}}, {"type": "node", "id": 8614295779, "lat": 40.7952992, "lon": 116.4814226, "tags": {"bus": "yes", "highway": "bus_stop", "name": "\u6000\u67d4\u6cb3\u897f", "public_transport": "platform"}}, {"type": "node", "id": 8614296362, "lat": 40.7849664, "lon": 116.4858589, "tags": {"bus": "yes", "highway": "bus_stop", "name": "\u83dc\u6811\u7538", "public_transport": "platform"}}, {"type": "node", "id": 8614296363, "lat": 40.7850333, "lon": 116.486068, "tags": {"bus": "yes", "highway": "bus_stop", "name": "\u83dc\u6811\u7538", "public_transport": "platform"}}, {"type": "node", "id": 8614296364, "lat": 40.7829389, "lon": 116.4954406, "tags": {"bus": "yes", "highway": "bus_stop", "name": "\u4e09\u5757\u77f3", "public_transport": "platform"}}, {"type": "node", "id": 8614296365, "lat": 40.7828597, "lon": 116.4952926, "tags": {"bus": "yes", "highway": "bus_stop", "name": "\u4e09\u5757\u77f3", "public_transport": "platform"}}, {"type": "node", "id": 8614296373, "lat": 40.7786706, "lon": 116.5009403, "tags": {"bus": "yes", "highway": "bus_stop", "name": "\u5c0f\u4e09\u5757\u77f3", "public_transport": "platform"}}, {"type": "node", "id": 8614296374, "lat": 40.7788401, "lon": 116.5006733, "tags": {"bus": "yes", "highway": "bus_stop", "name": "\u5c0f\u4e09\u5757\u77f3", "public_transport": "platform"}}, {"type": "node", "id": 8614296386, "lat": 40.7753964, "lon": 116.5061329, "tags": {"bus": "yes", "highway": "bus_stop", "name": "\u59dc\u6751", "public_transport": "platform"}}, {"type": "node", "id": 8614296387, "lat": 40.7752469, "lon": 116.5059141, "tags": {"bus": "yes", "highway": "bus_stop", "name": "\u59dc\u6751", "public_transport": "platform"}}, {"type": "node", "id": 8614296398, "lat": 40.7721562, "lon": 116.514407, "tags": {"bus": "yes", "highway": "bus_stop", "name": "\u5b9d\u5c71\u9547\u4e0b\u6e7e\u5b50", "public_transport": "platform"}}, {"type": "node", "id": 8614296399, "lat": 40.7723447, "lon": 116.5146559, "tags": {"bus": "yes", "highway": "bus_stop", "name": "\u5b9d\u5c71\u9547\u4e0b\u6e7e\u5b50", "public_transport": "platform"}}, {"type": "node", "id": 8614296409, "lat": 40.7699063, "lon": 116.518907, "tags": {"bus": "yes", "highway": "bus_stop", "name": "\u4ea4\u754c\u724c", "public_transport": "platform"}}, {"type": "node", "id": 8614296410, "lat": 40.7698023, "lon": 116.5189757, "tags": {"bus": "yes", "highway": "bus_stop", "name": "\u4ea4\u754c\u724c", "public_transport": "platform"}}, {"type": "node", "id": 8614296413, "lat": 40.7638149, "lon": 116.527263, "tags": {"bus": "yes", "highway": "bus_stop", "name": "\u897f\u94f6\u6c9f", "public_transport": "platform"}}, {"type": "node", "id": 8614296414, "lat": 40.7635759, "lon": 116.5271052, "tags": {"bus": "yes", "highway": "bus_stop", "name": "\u897f\u94f6\u6c9f", "public_transport": "platform"}}, {"type": "node", "id": 8614296415, "lat": 40.7570778, "lon": 116.5367098, "tags": {"bus": "yes", "highway": "bus_stop", "name": "\u897f\u9ec4\u6881", "public_transport": "platform"}}, {"type": "node", "id": 8614296416, "lat": 40.7569411, "lon": 116.5367856, "tags": {"bus": "yes", "highway": "bus_stop", "name": "\u897f\u9ec4\u6881", "public_transport": "platform"}}, {"type": "node", "id": 8614296417, "lat": 40.7500148, "lon": 116.5317343, "tags": {"bus": "yes", "highway": "bus_stop", "name": "\u5b9d\u5c71\u9547\u5c71\u5634", "public_transport": "platform"}}, {"type": "node", "id": 8614296418, "lat": 40.749932, "lon": 116.5318253, "tags": {"bus": "yes", "highway": "bus_stop", "name": "\u5b9d\u5c71\u9547\u5c71\u5634", "public_transport": "platform"}}, {"type": "node", "id": 8614296429, "lat": 40.7421784, "lon": 116.5467125, "tags": {"bus": "yes", "highway": "bus_stop", "name": "\u5bf9\u77f3\u897f(\u62db\u547c\u7ad9)", "public_transport": "platform"}}, {"type": "node", "id": 8614296431, "lat": 40.7424354, "lon": 116.5484733, "tags": {"bus": "yes", "highway": "bus_stop", "name": "\u5bf9\u77f3", "public_transport": "platform"}}, {"type": "node", "id": 8614296432, "lat": 40.7424009, "lon": 116.54827, "tags": {"bus": "yes", "highway": "bus_stop", "name": "\u5bf9\u77f3", "public_transport": "platform"}}, {"type": "node", "id": 8614296437, "lat": 40.7279898, "lon": 116.5422571, "tags": {"bus": "yes", "highway": "bus_stop", "name": "\u5b9d\u5c71\u9547\u5317\u53f0", "public_transport": "platform"}}, {"type": "node", "id": 8614296438, "lat": 40.727769, "lon": 116.5428792, "tags": {"bus": "yes", "highway": "bus_stop", "name": "\u5b9d\u5c71\u9547\u5317\u53f0", "public_transport": "platform"}}, {"type": "node", "id": 8614296441, "lat": 40.7227007, "lon": 116.5464537, "tags": {"bus": "yes", "highway": "bus_stop", "name": "\u8d85\u6881\u5b50", "public_transport": "platform"}}, {"type": "node", "id": 8614296442, "lat": 40.7226712, "lon": 116.5467033, "tags": {"bus": "yes", "highway": "bus_stop", "name": "\u8d85\u6881\u5b50", "public_transport": "platform"}}, {"type": "node", "id": 8614296448, "lat": 40.7204468, "lon": 116.5541694, "tags": {"bus": "yes", "highway": "bus_stop", "name": "\u5c71\u5634\u6c9f\u95e8", "public_transport": "platform"}}, {"type": "node", "id": 8614296449, "lat": 40.7205273, "lon": 116.5541845, "tags": {"bus": "yes", "highway": "bus_stop", "name": "\u5c71\u5634\u6c9f\u95e8", "public_transport": "platform"}}, {"type": "node", "id": 8614296451, "lat": 40.7151383, "lon": 116.5577687, "tags": {"bus": "yes", "highway": "bus_stop", "name": "\u8001\u9053\u6c9f\u95e8", "public_transport": "platform"}}, {"type": "node", "id": 8614296452, "lat": 40.7152098, "lon": 116.5578974, "tags": {"bus": "yes", "highway": "bus_stop", "name": "\u8001\u9053\u6c9f\u95e8", "public_transport": "platform"}}, {"type": "node", "id": 8614296455, "lat": 40.7116603, "lon": 116.5611922, "tags": {"bus": "yes", "highway": "bus_stop", "name": "\u517b\u9c7c\u6c60", "public_transport": "platform"}}, {"type": "node", "id": 8614296456, "lat": 40.711605, "lon": 116.5613296, "tags": {"bus": "yes", "highway": "bus_stop", "name": "\u517b\u9c7c\u6c60", "public_transport": "platform"}}, {"type": "node", "id": 8614296475, "lat": 40.6960278, "lon": 116.5626557, "tags": {"bus": "yes", "highway": "bus_stop", "name": "\u5b9d\u5c71\u5bfa\u5317(\u62db\u547c\u7ad9)", "public_transport": "platform"}}, {"type": "node", "id": 8614296497, "lat": 40.6936607, "lon": 116.5627457, "tags": {"bus": "yes", "highway": "bus_stop", "name": "\u5b9d\u5c71\u5bfa", "public_transport": "platform"}}, {"type": "node", "id": 8614296510, "lat": 40.6929807, "lon": 116.5648657, "tags": {"bus": "yes", "highway": "bus_stop", "name": "\u5b9d\u5c71\u5bfa\u4e1c", "public_transport": "platform"}}, {"type": "node", "id": 8614296512, "lat": 40.6938466, "lon": 116.562755, "tags": {"bus": "yes", "highway": "bus_stop", "name": "\u5b9d\u5c71\u5bfa", "public_transport": "platform"}}, {"type": "node", "id": 8614296513, "lat": 40.6931242, "lon": 116.5648021, "tags": {"bus": "yes", "highway": "bus_stop", "name": "\u5b9d\u5c71\u5bfa\u4e1c", "public_transport": "platform"}}, {"type": "node", "id": 8614296522, "lat": 40.6916306, "lon": 116.5690207, "tags": {"bus": "yes", "highway": "bus_stop", "name": "\u6000\u67d4\u4e0b\u8425", "public_transport": "platform"}}, {"type": "node", "id": 8614296523, "lat": 40.6917673, "lon": 116.568819, "tags": {"bus": "yes", "highway": "bus_stop", "name": "\u6000\u67d4\u4e0b\u8425", "public_transport": "platform"}}, {"type": "node", "id": 8614296524, "lat": 40.6910254, "lon": 116.5725226, "tags": {"bus": "yes", "highway": "bus_stop", "name": "\u6000\u67d4\u4e0b\u8425\u4e1c", "public_transport": "platform"}}, {"type": "node", "id": 8614296526, "lat": 40.6910905, "lon": 116.5729732, "tags": {"bus": "yes", "highway": "bus_stop", "name": "\u6000\u67d4\u4e0b\u8425\u4e1c", "public_transport": "platform"}}, {"type": "node", "id": 8614296527, "lat": 40.6905019, "lon": 116.5745637, "tags": {"bus": "yes", "highway": "bus_stop", "name": "\u6000\u67d4\u4e0b\u8425\u65b0\u6751", "public_transport": "platform"}}, {"type": "node", "id": 8614296528, "lat": 40.6905922, "lon": 116.5747766, "tags": {"bus": "yes", "highway": "bus_stop", "name": "\u6000\u67d4\u4e0b\u8425\u65b0\u6751", "public_transport": "platform"}}, {"type": "node", "id": 8614627609, "lat": 40.686873, "lon": 116.5873701, "tags": {"bus": "yes", "highway": "bus_stop", "name": "\u6768\u6811\u4e0b", "public_transport": "platform"}}, {"type": "node", "id": 8614627610, "lat": 40.6866973, "lon": 116.5867843, "tags": {"bus": "yes", "highway": "bus_stop", "name": "\u6768\u6811\u4e0b", "public_transport": "platform"}}, {"type": "node", "id": 8614715740, "lat": 40.6982988, "lon": 116.6073241, "tags": {"bus": "yes", "highway": "bus_stop", "name": "\u8f6c\u5e74\u540e\u6c9f", "public_transport": "platform", "shelter": "yes"}}, {"type": "node", "id": 8614715741, "lat": 40.6880648, "lon": 116.5895176, "tags": {"bus": "yes", "highway": "bus_stop", "name": "\u5c0f\u6cb3\u4e1c", "public_transport": "platform"}}, {"type": "node", "id": 8614715742, "lat": 40.6879786, "lon": 116.5895555, "tags": {"bus": "yes", "highway": "bus_stop", "name": "\u5c0f\u6cb3\u4e1c", "public_transport": "platform"}}, {"type": "node", "id": 8614715748, "lat": 40.6935581, "lon": 116.6061477, "tags": {"bus": "yes", "highway": "bus_stop", "name": "\u8f6c\u5e74", "public_transport": "platform"}}, {"type": "node", "id": 8614715749, "lat": 40.6936248, "lon": 116.6060749, "tags": {"bus": "yes", "highway": "bus_stop", "name": "\u8f6c\u5e74", "public_transport": "platform"}}, {"type": "node", "id": 8614715751, "lat": 40.698415, "lon": 116.6071886, "tags": {"bus": "yes", "highway": "bus_stop", "name": "\u8f6c\u5e74\u540e\u6c9f", "public_transport": "platform", "shelter": "yes"}}, {"type": "node", "id": 8614715758, "lat": 40.702018, "lon": 116.6151264, "tags": {"bus": "yes", "highway": "bus_stop", "name": "\u5927\u6cb3\u4e1c", "public_transport": "platform", "shelter": "yes"}}, {"type": "node", "id": 8614715759, "lat": 40.7021198, "lon": 116.6151642, "tags": {"bus": "yes", "highway": "bus_stop", "name": "\u5927\u6cb3\u4e1c", "public_transport": "platform"}}, {"type": "node", "id": 8614715824, "lat": 40.707531, "lon": 116.6200367, "tags": {"bus": "yes", "highway": "bus_stop", "name": "\u9e3d\u5b50\u5802", "public_transport": "platform"}}, {"type": "node", "id": 8614715825, "lat": 40.7073098, "lon": 116.6199209, "tags": {"bus": "yes", "highway": "bus_stop", "name": "\u9e3d\u5b50\u5802", "public_transport": "platform"}}, {"type": "node", "id": 8614715858, "lat": 40.7188033, "lon": 116.6028496, "tags": {"bus": "yes", "highway": "bus_stop", "name": "\u5c0f\u9ed1\u67f3\u6c9f\u95e8", "public_transport": "platform"}}, {"type": "node", "id": 8614715859, "lat": 40.7189373, "lon": 116.6026781, "tags": {"bus": "yes", "highway": "bus_stop", "name": "\u5c0f\u9ed1\u67f3\u6c9f\u95e8", "public_transport": "platform"}}, {"type": "node", "id": 8614715861, "lat": 40.7221995, "lon": 116.6027747, "tags": {"bus": "yes", "highway": "bus_stop", "name": "\u5927\u6986\u6811\u6c9f\u95e8", "public_transport": "platform"}}, {"type": "node", "id": 8614715862, "lat": 40.722154, "lon": 116.6029034, "tags": {"bus": "yes", "highway": "bus_stop", "name": "\u5927\u6986\u6811\u6c9f\u95e8", "public_transport": "platform"}}, {"type": "node", "id": 8614715872, "lat": 40.7244355, "lon": 116.603766, "tags": {"bus": "yes", "highway": "bus_stop", "name": "\u897f\u5e3d\u6e7e", "public_transport": "platform"}}, {"type": "node", "id": 8614715873, "lat": 40.724538, "lon": 116.6039497, "tags": {"bus": "yes", "highway": "bus_stop", "name": "\u897f\u5e3d\u6e7e", "public_transport": "platform"}}, {"type": "node", "id": 8614715883, "lat": 40.7295419, "lon": 116.6183395, "tags": {"bus": "yes", "highway": "bus_stop", "name": "\u4e1c\u5e3d\u6e7e", "public_transport": "platform"}}, {"type": "node", "id": 8614715884, "lat": 40.729625, "lon": 116.6184084, "tags": {"bus": "yes", "highway": "bus_stop", "name": "\u4e1c\u5e3d\u6e7e", "public_transport": "platform"}}, {"type": "node", "id": 8614715892, "lat": 40.7312353, "lon": 116.623644, "tags": {"bus": "yes", "highway": "bus_stop", "name": "\u5e84\u6237\u6c9f\u95e8", "public_transport": "platform"}}, {"type": "node", "id": 8614715893, "lat": 40.7311345, "lon": 116.623674, "tags": {"bus": "yes", "highway": "bus_stop", "name": "\u5e84\u6237\u6c9f\u95e8", "public_transport": "platform"}}, {"type": "node", "id": 8614715899, "lat": 40.731306, "lon": 116.6319605}, {"type": "node", "id": 8614715900, "lat": 40.7306925, "lon": 116.6319486}, {"type": "node", "id": 8614715901, "lat": 40.7311404, "lon": 116.6347148}, {"type": "node", "id": 8614715906, "lat": 40.731852, "lon": 116.6319413}, {"type": "node", "id": 8614715925, "lat": 40.7076633, "lon": 116.5340383, "tags": {"bus": "yes", "highway": "bus_stop", "name": "\u6000\u67d4\u7264\u725b\u6c9f", "public_transport": "platform"}}, {"type": "node", "id": 8614715926, "lat": 40.7075758, "lon": 116.5340131, "tags": {"bus": "yes", "highway": "bus_stop", "name": "\u6000\u67d4\u7264\u725b\u6c9f", "public_transport": "platform"}}, {"type": "node", "id": 8614715990, "lat": 40.7088244, "lon": 116.5206628, "tags": {"bus": "yes", "highway": "bus_stop", "name": "\u76d8\u9053\u6c9f", "public_transport": "platform"}}, {"type": "node", "id": 8614715991, "lat": 40.7086487, "lon": 116.5206414, "tags": {"bus": "yes", "highway": "bus_stop", "name": "\u76d8\u9053\u6c9f", "public_transport": "platform"}}, {"type": "node", "id": 8614715992, "lat": 40.69895, "lon": 116.5301038, "tags": {"bus": "yes", "highway": "bus_stop", "name": "\u4e0b\u5e3d\u5c71", "public_transport": "platform"}}, {"type": "node", "id": 8614715993, "lat": 40.6987843, "lon": 116.5300947, "tags": {"bus": "yes", "highway": "bus_stop", "name": "\u4e0b\u5e3d\u5c71", "public_transport": "platform"}}, {"type": "node", "id": 8614716007, "lat": 40.6895684, "lon": 116.5158374, "tags": {"bus": "yes", "highway": "bus_stop", "name": "\u5e3d\u5c71\u78be\u5b50", "public_transport": "platform"}}, {"type": "node", "id": 8614716008, "lat": 40.6895801, "lon": 116.5159956, "tags": {"bus": "yes", "highway": "bus_stop", "name": "\u5e3d\u5c71\u78be\u5b50", "public_transport": "platform"}}, {"type": "node", "id": 8614716018, "lat": 40.6843235, "lon": 116.508411, "tags": {"bus": "yes", "highway": "bus_stop", "name": "\u897f\u5e3d\u5c71", "public_transport": "platform", "shelter": "yes"}}, {"type": "node", "id": 8614716019, "lat": 40.6843076, "lon": 116.5083307, "tags": {"bus": "yes", "highway": "bus_stop", "name": "\u897f\u5e3d\u5c71", "public_transport": "platform"}}, {"type": "node", "id": 8614716044, "lat": 40.6894115, "lon": 116.4929799, "tags": {"bus": "yes", "highway": "bus_stop", "name": "\u5c0f\u5317\u6c9f\u95e8", "public_transport": "platform"}}, {"type": "node", "id": 8614716052, "lat": 40.7306089, "lon": 116.632214, "tags": {"bus": "yes", "highway": "bus_stop", "name": "\u6c64\u6cb3\u53e3", "public_transport": "platform"}}, {"type": "node", "id": 8614716053, "lat": 40.7341369, "lon": 116.6359696, "tags": {"bus": "yes", "highway": "bus_stop", "name": "\u6c64\u6cb3\u53e3\u5341\u5b57\u8857", "public_transport": "platform"}}, {"type": "node", "id": 8614716054, "lat": 40.7342719, "lon": 116.6358494, "tags": {"bus": "yes", "highway": "bus_stop", "name": "\u6c64\u6cb3\u53e3\u5341\u5b57\u8857", "public_transport": "platform"}}, {"type": "node", "id": 8614716055, "lat": 40.733385, "lon": 116.6408303, "tags": {"bus": "yes", "highway": "bus_stop", "name": "\u6c64\u6cb3\u53e3\u9547\u653f\u5e9c\u5357", "public_transport": "platform"}}, {"type": "node", "id": 8614716056, "lat": 40.7320109, "lon": 116.6367939, "tags": {"bus": "yes", "highway": "bus_stop", "name": "\u6c64\u6cb3\u53e3\u4e1c", "public_transport": "platform"}}, {"type": "node", "id": 8614716076, "lat": 40.7199715, "lon": 116.6322574, "tags": {"bus": "yes", "highway": "bus_stop", "name": "\u5927\u9ec4\u5858\u5317", "public_transport": "platform"}}, {"type": "node", "id": 8614716077, "lat": 40.7200007, "lon": 116.6324162, "tags": {"bus": "yes", "highway": "bus_stop", "name": "\u5927\u9ec4\u5858\u5317", "public_transport": "platform"}}, {"type": "node", "id": 8614716078, "lat": 40.7159902, "lon": 116.634356, "tags": {"bus": "yes", "highway": "bus_stop", "name": "\u5927\u9ec4\u5858", "public_transport": "platform"}}, {"type": "node", "id": 8614716079, "lat": 40.7158698, "lon": 116.634592, "tags": {"bus": "yes", "highway": "bus_stop", "name": "\u5927\u9ec4\u5858", "public_transport": "platform"}}, {"type": "node", "id": 8614716080, "lat": 40.7131406, "lon": 116.6407684}, {"type": "node", "id": 8614716082, "lat": 40.7130821, "lon": 116.639493, "tags": {"bus": "yes", "highway": "bus_stop", "name": "\u5927\u9ec4\u5858\u5357", "public_transport": "platform"}}, {"type": "node", "id": 8614716083, "lat": 40.7005099, "lon": 116.6524011}, {"type": "node", "id": 8614716084, "lat": 40.7003295, "lon": 116.6525736, "tags": {"bus": "yes", "highway": "bus_stop", "name": "\u5c0f\u9ec4\u5858", "public_transport": "platform"}}, {"type": "node", "id": 8614716090, "lat": 40.6954834, "lon": 116.6541299, "tags": {"bus": "yes", "highway": "bus_stop", "name": "\u540e\u5b89\u5cad\u8def\u53e3", "public_transport": "platform"}}, {"type": "node", "id": 8614716091, "lat": 40.6952242, "lon": 116.6541707, "tags": {"bus": "yes", "highway": "bus_stop", "name": "\u540e\u5b89\u5cad\u8def\u53e3", "public_transport": "platform"}}, {"type": "node", "id": 8614716092, "lat": 40.6902604, "lon": 116.6546784}, {"type": "node", "id": 8614716093, "lat": 40.6859795, "lon": 116.6554057, "tags": {"bus": "yes", "highway": "bus_stop", "name": "\u6000\u67d4\u9a6c\u5708", "public_transport": "platform"}}, {"type": "node", "id": 8614716094, "lat": 40.6569087, "lon": 116.6564961, "tags": {"bus": "yes", "highway": "bus_stop", "name": "\u524d\u5b89\u5cad", "public_transport": "platform"}}, {"type": "node", "id": 8614716095, "lat": 40.6549657, "lon": 116.6565834}, {"type": "node", "id": 8614716096, "lat": 40.6552992, "lon": 116.6567319}, {"type": "node", "id": 8911423003, "lat": 40.7551248, "lon": 116.5332695, "tags": {"bus": "yes", "highway": "bus_stop", "name": "\u897f\u9ec4\u6881\u65b0\u6751(\u62db\u547c\u7ad9)", "public_transport": "platform"}}, {"type": "node", "id": 8911423004, "lat": 40.7552029, "lon": 116.5331279, "tags": {"bus": "yes", "highway": "bus_stop", "name": "\u897f\u9ec4\u6881\u65b0\u6751(\u62db\u547c\u7ad9)", "public_transport": "platform"}}, {"type": "node", "id": 8911423005, "lat": 40.8036231, "lon": 116.4877585, "tags": {"bus": "yes", "highway": "bus_stop", "network": "\u78be\u5b50\u4e1c(\u62db\u547c\u7ad9)", "public_transport": "platform"}}, {"type": "node", "id": 8911423006, "lat": 40.8036979, "lon": 116.4876941, "tags": {"bus": "yes", "highway": "bus_stop", "name": "\u78be\u5b50\u4e1c(\u62db\u547c\u7ad9)", "public_transport": "platform"}}, {"type": "node", "id": 8911423007, "lat": 40.8316935, "lon": 116.4707107, "tags": {"bus": "yes", "highway": "bus_stop", "name": "\u6696\u6c34\u6cc9(\u62db\u547c\u7ad9)", "public_transport": "platform"}}, {"type": "node", "id": 8911423008, "lat": 40.8317891, "lon": 116.4706565, "tags": {"bus": "yes", "highway": "bus_stop", "name": "\u6696\u6c34\u6cc9(\u62db\u547c\u7ad9)", "public_transport": "platform"}}, {"type": "way", "id": 237429691, "nodes": [2453305652, 2453305653, 2453305650, 2453305649, 8614715900, 2453305652], "tags": {"amenity": "bus_station", "building": "yes", "bus": "yes", "name": "\u6c64\u6cb3\u53e3\u516c\u4ea4\u5019\u8f66\u5ba4", "old_name": "\u6c64\u6cb3\u53e3\u68c0\u67e5\u7ad9", "operator": "\u5317\u4eac\u516c\u4ea4\u96c6\u56e2", "public_transport": "station"}}, {"type": "relation", "id": 3199012, "members": [{"type": "node", "ref": 8614716096, "role": "stop"}, {"type": "node", "ref": 8614716095, "role": "stop"}, {"type": "node", "ref": 8614716094, "role": ""}], "tags": {"name": "\u524d\u5b89\u5cad", "public_transport": "stop_area", "type": "public_transport"}}, {"type": "relation", "id": 3199177, "members": [{"type": "node", "ref": 8614716083, "role": "stop"}], "tags": {"public_transport": "stop_area", "type": "public_transport"}}, {"type": "relation", "id": 3199178, "members": [{"type": "node", "ref": 8614716092, "role": "stop"}], "tags": {"public_transport": "stop_area", "type": "public_transport"}}, {"type": "relation", "id": 3199179, "members": [{"type": "node", "ref": 8614716080, "role": "stop"}], "tags": {"public_transport": "stop_area", "type": "public_transport"}}, {"type": "relation", "id": 3199300, "members": [{"type": "node", "ref": 8614715899, "role": "stop"}, {"type": "node", "ref": 2453258540, "role": "platform"}, {"type": "node", "ref": 2350798047, "role": "stop"}, {"type": "node", "ref": 2453258544, "role": "platform"}, {"type": "node", "ref": 8614715906, "role": "stop"}, {"type": "node", "ref": 1949306354, "role": "stop"}], "tags": {"name": "\u6c64\u6cb3\u53e3", "public_transport": "stop_area", "type": "public_transport"}}, {"type": "relation", "id": 3199301, "members": [{"type": "node", "ref": 2453258581, "role": "stop"}], "tags": {"name": "\u6c64\u6cb3\u53e3\u4e1c", "public_transport": "stop_area", "type": "public_transport"}}, {"type": "relation", "id": 3199389, "members": [{"type": "node", "ref": 8614715901, "role": "stop"}], "tags": {"public_transport": "stop_area", "type": "public_transport"}}]}