{"version": 0.6, "generator": "Overpass API 0.7.57 93a4d346", "osm3s": {"timestamp_osm_base": "2022-05-12T16:14:41Z", "copyright": "The data included in this document is from www.openstreetmap.org. The data is made available under ODbL."}, "elements": [{"type": "node", "id": 530715510, "lat": 40.1089274, "lon": 117.0093291, "tags": {"bus": "yes", "highway": "bus_stop", "public_transport": "platform"}}, {"type": "node", "id": 2487983199, "lat": 40.0730175, "lon": 117.0040709, "tags": {"bench": "no", "highway": "platform", "public_transport": "platform", "shelter": "no"}}, {"type": "node", "id": 2487983206, "lat": 40.0979066, "lon": 117.0078038}, {"type": "node", "id": 2487983207, "lat": 40.0979698, "lon": 117.0077044, "tags": {"bus": "yes", "highway": "bus_stop", "public_transport": "platform"}}, {"type": "node", "id": 2487983208, "lat": 40.0980249, "lon": 117.0078203}, {"type": "node", "id": 2487983209, "lat": 40.108923, "lon": 117.0094336, "tags": {"bench": "no", "highway": "platform", "public_transport": "platform", "shelter": "no"}}, {"type": "node", "id": 2487983222, "lat": 40.0730272, "lon": 117.0039531, "tags": {"bus": "yes", "highway": "bus_stop", "name": "\u6253\u94c1\u5e84", "public_transport": "platform"}}, {"type": "node", "id": 2488040009, "lat": 40.1439331, "lon": 117.0662814, "tags": {"bus": "yes", "highway": "bus_stop", "public_transport": "stop_position"}}, {"type": "node", "id": 2488040084, "lat": 40.1454795, "lon": 117.0492497, "tags": {"bus": "yes", "highway": "bus_stop", "public_transport": "stop_position"}}, {"type": "node", "id": 2488040099, "lat": 40.1482791, "lon": 117.1264751, "tags": {"bench": "no", "highway": "platform", "public_transport": "platform", "shelter": "no"}}, {"type": "node", "id": 2488040103, "lat": 40.1482884, "lon": 117.1265541, "tags": {"bus": "yes", "highway": "bus_stop", "public_transport": "stop_position"}}, {"type": "node", "id": 2488077657, "lat": 40.1439841, "lon": 117.1225685}, {"type": "node", "id": 2488077663, "lat": 40.1441169, "lon": 117.122565}, {"type": "node", "id": 2488077681, "lat": 40.1453774, "lon": 117.1247827, "tags": {"bench": "no", "highway": "platform", "public_transport": "platform", "shelter": "no"}}, {"type": "node", "id": 2488077684, "lat": 40.1454178, "lon": 117.1246985, "tags": {"bus": "yes", "highway": "bus_stop", "public_transport": "stop_position"}}, {"type": "node", "id": 2488077686, "lat": 40.1474063, "lon": 117.12642, "tags": {"bench": "no", "highway": "platform", "public_transport": "platform", "shelter": "no"}}, {"type": "node", "id": 2488077689, "lat": 40.1473545, "lon": 117.1264927, "tags": {"bus": "yes", "highway": "bus_stop", "name": "\u4e0b\u7eb8\u5be8", "public_transport": "stop_position"}}, {"type": "node", "id": 2488077691, "lat": 40.1440301, "lon": 117.1224969, "tags": {"bus": "yes", "highway": "bus_stop", "name": "\u5e73\u8c37\u6c7d\u8f66\u7ad9", "public_transport": "stop_position"}}, {"type": "node", "id": 2488244146, "lat": 40.1440217, "lon": 117.0663934}, {"type": "node", "id": 2488244147, "lat": 40.1440234, "lon": 117.066208}, {"type": "node", "id": 2488244148, "lat": 40.1455346, "lon": 117.0491741}, {"type": "node", "id": 2488244149, "lat": 40.1455388, "lon": 117.0493439}, {"type": "node", "id": 5342988928, "lat": 40.0730366, "lon": 117.0038645, "tags": {"bus": "yes", "highway": "bus_stop", "name": "\u6253\u94c1\u5e84", "public_transport": "platform"}}, {"type": "node", "id": 5342988936, "lat": 40.0979775, "lon": 117.0076155, "tags": {"bus": "yes", "highway": "bus_stop", "public_transport": "platform"}}, {"type": "node", "id": 5342988937, "lat": 40.1089373, "lon": 117.0092405, "tags": {"bus": "yes", "highway": "bus_stop", "public_transport": "platform"}}, {"type": "node", "id": 5809669188, "lat": 40.219176, "lon": 117.2721666, "tags": {"bench": "no", "bus": "yes", "highway": "bus_stop", "lit": "yes", "name": "\u5927\u4e1c\u6c9f\u6751", "name:en": "Dadonggou", "passenger_information_display": "no", "public_transport": "platform", "shelter": "no"}}, {"type": "node", "id": 6898636145, "lat": 40.1486656, "lon": 117.0908094, "tags": {"description": "\u9884\u8ba12024\u5e74\u901a\u8f66", "name": "\u5e73\u8c37\u7ad9\uff08\u5728\u5efa\uff09", "public_transport": "stop_position", "railway": "stop", "subway": "yes"}}, {"type": "node", "id": 7959535874, "lat": 39.9992582, "lon": 117.1821953, "tags": {"bus": "yes", "highway": "bus_stop", "name": "\u6bb5\u7532\u5cad\u516c\u5b89\u68c0\u67e5\u7ad9", "public_transport": "platform"}}, {"type": "node", "id": 7959581284, "lat": 39.9988428, "lon": 117.1833969, "tags": {"bus": "yes", "highway": "bus_stop", "name": "\u6bb5\u7532\u5cad\u516c\u5b89\u68c0\u67e5\u7ad9", "public_transport": "platform"}}, {"type": "node", "id": 7972125124, "lat": 40.1537578, "lon": 117.1044328, "tags": {"amenity": "bus_station", "bus": "yes", "name": "\u5c0f\u6e14\u9633", "public_transport": "station"}}, {"type": "node", "id": 7972125125, "lat": 40.1503833, "lon": 117.1045589, "tags": {"amenity": "bus_station", "bus": "yes", "name": "\u52b3\u52a1\u5e02\u573a", "public_transport": "station"}}, {"type": "node", "id": 7972125126, "lat": 40.1461865, "lon": 117.1046957, "tags": {"amenity": "bus_station", "bus": "yes", "name": "\u7545\u89c2\u697c", "public_transport": "station"}}, {"type": "node", "id": 7972125127, "lat": 40.1440699, "lon": 117.1093058, "tags": {"amenity": "bus_station", "bus": "yes", "name": "\u5e73\u8c37\u5927\u5e02\u573a", "public_transport": "station"}}, {"type": "node", "id": 7972125131, "lat": 40.1442159, "lon": 117.1184613, "tags": {"amenity": "bus_station", "bus": "yes", "name": "\u5e73\u8c37\u6d88\u9632\u961f\u4e1c", "public_transport": "station"}}, {"type": "node", "id": 7972125136, "lat": 40.1441911, "lon": 117.1211811, "tags": {"amenity": "bus_station", "bus": "yes", "name": "\u5e73\u8c37\u6c7d\u8f66\u7ad9", "public_transport": "station"}}, {"type": "node", "id": 7972173371, "lat": 40.1495362, "lon": 117.1284623, "tags": {"amenity": "bus_station", "bus": "yes", "name": "\u4e0b\u7eb8\u5be8\u5317", "public_transport": "station"}}, {"type": "node", "id": 7972173374, "lat": 40.1541739, "lon": 117.1325633, "tags": {"amenity": "bus_station", "bus": "yes", "name": "\u4e0a\u7eb8\u5be8", "public_transport": "station"}}, {"type": "node", "id": 7972209780, "lat": 40.1654446, "lon": 117.1599993, "tags": {"amenity": "bus_station", "bus": "yes", "name": "\u5317\u5bfa\u4e1c\u6d3c\u8def\u53e3", "public_transport": "station"}}, {"type": "node", "id": 7972211191, "lat": 40.1597647, "lon": 117.1410964, "tags": {"amenity": "bus_station", "bus": "yes", "name": "\u6865\u5934\u8425", "public_transport": "station"}}, {"type": "node", "id": 7972211264, "lat": 40.1626047, "lon": 117.1492826, "tags": {"amenity": "bus_station", "bus": "yes", "name": "\u897f\u6ca5\u6d25", "public_transport": "station"}}, {"type": "node", "id": 7972212320, "lat": 40.1669159, "lon": 117.1798506, "tags": {"amenity": "bus_station", "bus": "yes", "name": "\u5f20\u8f9b\u5e84", "public_transport": "station"}}, {"type": "node", "id": 7972222595, "lat": 40.167327, "lon": 117.194018, "tags": {"amenity": "bus_station", "bus": "yes", "name": "\u4e30\u53f0\u8def\u53e3", "public_transport": "station"}}, {"type": "node", "id": 7972222604, "lat": 40.1686332, "lon": 117.2142976, "tags": {"amenity": "bus_station", "bus": "yes", "name": "\u5357\u72ec\u4e50\u6cb3", "public_transport": "station"}}, {"type": "node", "id": 7972222627, "lat": 40.1707292, "lon": 117.2204452, "tags": {"amenity": "bus_station", "bus": "yes", "name": "\u5357\u72ec\u4e50\u6cb3\u9547\u653f\u5e9c", "public_transport": "station"}}, {"type": "node", "id": 7972222628, "lat": 40.1731712, "lon": 117.2320609, "tags": {"amenity": "bus_station", "bus": "yes", "name": "\u5e73\u8c37\u65b0\u7acb\u6751", "public_transport": "station"}}, {"type": "node", "id": 7972223471, "lat": 40.1757402, "lon": 117.2492649, "tags": {"amenity": "bus_station", "bus": "yes", "name": "\u80e1\u5e84\u897f", "public_transport": "station"}}, {"type": "node", "id": 7972223472, "lat": 40.1784362, "lon": 117.2532571, "tags": {"amenity": "bus_station", "bus": "yes", "name": "\u80e1\u5e84", "public_transport": "station"}}, {"type": "node", "id": 7972232669, "lat": 40.1785308, "lon": 117.3610745, "tags": {"amenity": "bus_station", "bus": "yes", "name": "\u4e0a\u5821\u5b50", "public_transport": "station"}}, {"type": "node", "id": 7972232670, "lat": 40.1764363, "lon": 117.3625876, "tags": {"amenity": "bus_station", "bus": "yes", "name": "\u4e0a\u5821\u5b50\u68c0\u67e5\u7ad9", "public_transport": "station"}}, {"type": "node", "id": 7972232674, "lat": 40.1621158, "lon": 117.3618637, "tags": {"amenity": "bus_station", "bus": "yes", "name": "\u6ce5\u6cb3", "public_transport": "station"}}, {"type": "node", "id": 7972255255, "lat": 40.1846379, "lon": 117.2944053, "tags": {"amenity": "bus_station", "bus": "yes", "name": "\u91d1\u6d77\u6e56", "public_transport": "station"}}, {"type": "node", "id": 7972255431, "lat": 40.1834139, "lon": 117.3325521, "tags": {"amenity": "bus_station", "bus": "yes", "name": "\u897f\u9a6c\u5bb6\u575f", "public_transport": "station"}}, {"type": "node", "id": 7972255440, "lat": 40.181749, "lon": 117.3433797, "tags": {"amenity": "bus_station", "bus": "yes", "name": "\u7ea2\u77f3\u574e", "public_transport": "station"}}, {"type": "node", "id": 7972263254, "lat": 40.185138, "lon": 117.3216445, "tags": {"amenity": "bus_station", "bus": "yes", "name": "\u8d75\u5bb6\u575f", "public_transport": "station"}}, {"type": "node", "id": 7972263378, "lat": 40.187548, "lon": 117.3292029, "tags": {"amenity": "bus_station", "bus": "yes", "name": "\u9ec4\u8349\u6d3c", "public_transport": "station"}}, {"type": "node", "id": 7972297386, "lat": 40.1809594, "lon": 117.3477967, "tags": {"amenity": "bus_station", "bus": "yes", "name": "\u9a6c\u5bb6\u575f", "public_transport": "station"}}, {"type": "node", "id": 7972396313, "lat": 40.1639932, "lon": 117.3736012, "tags": {"amenity": "bus_station", "bus": "yes", "name": "\u6851\u56ed\u897f", "public_transport": "station"}}, {"type": "node", "id": 7972396314, "lat": 40.1633787, "lon": 117.37572, "tags": {"amenity": "bus_station", "bus": "yes", "name": "\u6851\u56ed", "public_transport": "station"}}, {"type": "node", "id": 7972419562, "lat": 40.1787472, "lon": 117.2713258, "tags": {"amenity": "bus_station", "bus": "yes", "name": "\u97e9\u5e84", "public_transport": "station"}}, {"type": "node", "id": 7972435978, "lat": 40.1818526, "lon": 117.3434321, "tags": {"amenity": "bus_station", "bus": "yes", "name": "\u7ea2\u77f3\u574e", "public_transport": "station"}}, {"type": "node", "id": 7972471136, "lat": 40.1810522, "lon": 117.3479198, "tags": {"amenity": "bus_station", "bus": "yes", "name": "\u9a6c\u5bb6\u575f", "public_transport": "station"}}, {"type": "node", "id": 7972534236, "lat": 40.1633927, "lon": 117.3759675, "tags": {"amenity": "bus_station", "bus": "yes", "name": "\u6851\u56ed", "public_transport": "station"}}, {"type": "node", "id": 7972534245, "lat": 40.1640421, "lon": 117.3736837, "tags": {"amenity": "bus_station", "bus": "yes", "name": "\u6851\u56ed\u897f", "public_transport": "station"}}, {"type": "node", "id": 7972534246, "lat": 40.1620815, "lon": 117.3620741, "tags": {"amenity": "bus_station", "bus": "yes", "name": "\u6ce5\u6cb3", "public_transport": "station"}}, {"type": "node", "id": 7972538396, "lat": 40.1761701, "lon": 117.3627185, "tags": {"amenity": "bus_station", "bus": "yes", "name": "\u4e0a\u5821\u5b50\u68c0\u67e5\u7ad9", "public_transport": "station"}}, {"type": "node", "id": 7972538397, "lat": 40.1786321, "lon": 117.3612054, "tags": {"amenity": "bus_station", "bus": "yes", "name": "\u4e0a\u5821\u5b50", "public_transport": "station"}}, {"type": "node", "id": 7976304428, "lat": 40.183463, "lon": 117.3326022, "tags": {"amenity": "bus_station", "bus": "yes", "name": "\u897f\u9a6c\u5bb6\u575f", "public_transport": "station"}}, {"type": "node", "id": 7976304429, "lat": 40.1874894, "lon": 117.3288069, "tags": {"amenity": "bus_station", "bus": "yes", "name": "\u9ec4\u8349\u6d3c", "public_transport": "station"}}, {"type": "node", "id": 7976304430, "lat": 40.1852252, "lon": 117.321632, "tags": {"amenity": "bus_station", "bus": "yes", "name": "\u8d75\u5bb6\u575f", "public_transport": "station"}}, {"type": "node", "id": 7976310625, "lat": 40.167451, "lon": 117.1938864, "tags": {"amenity": "bus_station", "bus": "yes", "name": "\u4e30\u53f0\u8def\u53e3", "public_transport": "station"}}, {"type": "node", "id": 7976332585, "lat": 40.184758, "lon": 117.2943218, "tags": {"amenity": "bus_station", "bus": "yes", "name": "\u91d1\u6d77\u6e56", "public_transport": "station"}}, {"type": "node", "id": 7976332588, "lat": 40.1788481, "lon": 117.2712387, "tags": {"amenity": "bus_station", "bus": "yes", "name": "\u97e9\u5e84", "public_transport": "station"}}, {"type": "node", "id": 7976332591, "lat": 40.1785653, "lon": 117.2531874, "tags": {"amenity": "bus_station", "bus": "yes", "name": "\u80e1\u5e84", "public_transport": "station"}}, {"type": "node", "id": 7976332592, "lat": 40.175856, "lon": 117.2492124, "tags": {"amenity": "bus_station", "bus": "yes", "name": "\u80e1\u5e84\u897f", "public_transport": "station"}}, {"type": "node", "id": 7976332593, "lat": 40.1732635, "lon": 117.2319819, "tags": {"amenity": "bus_station", "bus": "yes", "name": "\u5e73\u8c37\u65b0\u7acb\u6751", "public_transport": "station"}}, {"type": "node", "id": 7976332599, "lat": 40.1708635, "lon": 117.2203893, "tags": {"amenity": "bus_station", "bus": "yes", "name": "\u5357\u72ec\u4e50\u6cb3\u9547\u653f\u5e9c", "public_transport": "station"}}, {"type": "node", "id": 7976332600, "lat": 40.1687545, "lon": 117.2142578, "tags": {"amenity": "bus_station", "bus": "yes", "name": "\u5357\u72ec\u4e50\u6cb3", "public_transport": "station"}}, {"type": "node", "id": 7976365322, "lat": 40.1670287, "lon": 117.1798317, "tags": {"amenity": "bus_station", "bus": "yes", "name": "\u5f20\u8f9b\u5e84", "public_transport": "station"}}, {"type": "node", "id": 7976365323, "lat": 40.1655673, "lon": 117.1599377, "tags": {"amenity": "bus_station", "bus": "yes", "name": "\u5317\u5bfa\u4e1c\u6d3c\u8def\u53e3", "public_transport": "station"}}, {"type": "node", "id": 7976365339, "lat": 40.1626567, "lon": 117.1490989, "tags": {"amenity": "bus_station", "bus": "yes", "name": "\u897f\u6ca5\u6d25", "public_transport": "station"}}, {"type": "node", "id": 7976365359, "lat": 40.1598853, "lon": 117.1410442, "tags": {"amenity": "bus_station", "bus": "yes", "name": "\u6865\u5934\u8425", "public_transport": "station"}}, {"type": "node", "id": 7976365360, "lat": 40.1542992, "lon": 117.1324424, "tags": {"amenity": "bus_station", "bus": "yes", "name": "\u4e0a\u7eb8\u5be8", "public_transport": "station"}}, {"type": "node", "id": 7976365363, "lat": 40.1495921, "lon": 117.1282903, "tags": {"amenity": "bus_station", "bus": "yes", "name": "\u4e0b\u7eb8\u5be8\u5317", "public_transport": "station"}}, {"type": "node", "id": 7976365364, "lat": 40.1444788, "lon": 117.1212522, "tags": {"amenity": "bus_station", "bus": "yes", "name": "\u5e73\u8c37\u6c7d\u8f66\u7ad9", "public_transport": "station"}}, {"type": "node", "id": 7976365365, "lat": 40.1444624, "lon": 117.1184735, "tags": {"amenity": "bus_station", "bus": "yes", "name": "\u5e73\u8c37\u6d88\u9632\u961f\u4e1c", "public_transport": "station"}}, {"type": "node", "id": 7976365366, "lat": 40.1443681, "lon": 117.1093378, "tags": {"amenity": "bus_station", "bus": "yes", "name": "\u5e73\u8c37\u5927\u5e02\u573a", "public_transport": "station"}}, {"type": "node", "id": 7976365367, "lat": 40.1461949, "lon": 117.1049766, "tags": {"amenity": "bus_station", "bus": "yes", "name": "\u7545\u89c2\u697c", "public_transport": "station"}}, {"type": "node", "id": 7976365368, "lat": 40.1506172, "lon": 117.1048559, "tags": {"amenity": "bus_station", "bus": "yes", "name": "\u52b3\u52a1\u5e02\u573a", "public_transport": "station"}}, {"type": "node", "id": 7976365376, "lat": 40.1527903, "lon": 117.1049846, "tags": {"amenity": "bus_station", "bus": "yes", "name": "\u5c0f\u6e14\u9633", "public_transport": "station"}}, {"type": "node", "id": 7996942148, "lat": 40.0780361, "lon": 117.2696807, "tags": {"amenity": "bus_station", "bus": "yes", "name": "\u83b2\u82b1\u5cad", "public_transport": "station"}}, {"type": "node", "id": 7996942163, "lat": 40.076895, "lon": 117.2691415, "tags": {"amenity": "bus_station", "bus": "yes", "name": "\u76d8\u5c71\u98ce\u666f\u533a", "public_transport": "station"}}, {"type": "node", "id": 7996942164, "lat": 40.0680988, "lon": 117.2769582, "tags": {"amenity": "bus_station", "bus": "yes", "name": "\u77f3\u4f5b\u6865", "public_transport": "station"}}, {"type": "node", "id": 7996942170, "lat": 40.0644208, "lon": 117.2789423, "tags": {"amenity": "bus_station", "bus": "yes", "name": "\u76d8\u5c71\u7535\u529b\u6240", "public_transport": "station"}}, {"type": "node", "id": 7996968164, "lat": 40.1034667, "lon": 117.2395939, "tags": {"amenity": "bus_station", "bus": "yes", "name": "\u5362\u5bb6\u5cea", "public_transport": "station"}}, {"type": "node", "id": 7996972754, "lat": 40.0711418, "lon": 117.2366211, "tags": {"amenity": "bus_station", "bus": "yes", "name": "\u767d\u5cea", "public_transport": "station"}}, {"type": "node", "id": 7996972755, "lat": 40.0639908, "lon": 117.2377888, "tags": {"amenity": "bus_station", "bus": "yes", "name": "\u6768\u5bb6\u5cea", "public_transport": "station"}}, {"type": "node", "id": 7996972756, "lat": 40.0594726, "lon": 117.2359202, "tags": {"amenity": "bus_station", "bus": "yes", "name": "\u5927\u77f3\u5cea", "public_transport": "station"}}, {"type": "node", "id": 7996972757, "lat": 40.0487123, "lon": 117.2341364, "tags": {"amenity": "bus_station", "bus": "yes", "name": "\u65b0\u623f\u5b50", "public_transport": "station"}}, {"type": "node", "id": 7996972758, "lat": 40.0372729, "lon": 117.2431543, "tags": {"amenity": "bus_station", "bus": "yes", "name": "\u7eff\u5730\u522b\u5885", "public_transport": "station"}}, {"type": "node", "id": 7996976029, "lat": 40.0371827, "lon": 117.2436996, "tags": {"amenity": "bus_station", "bus": "yes", "name": "\u7eff\u5730\u522b\u5885", "public_transport": "station"}}, {"type": "node", "id": 7996990259, "lat": 40.0486383, "lon": 117.2343703, "tags": {"amenity": "bus_station", "bus": "yes", "name": "\u65b0\u623f\u5b50", "public_transport": "station"}}, {"type": "node", "id": 7996996090, "lat": 40.0594311, "lon": 117.2361045, "tags": {"amenity": "bus_station", "bus": "yes", "name": "\u5927\u77f3\u5cea", "public_transport": "station"}}, {"type": "node", "id": 7996996113, "lat": 40.0640177, "lon": 117.2379974, "tags": {"amenity": "bus_station", "bus": "yes", "name": "\u6768\u5bb6\u5cea", "public_transport": "station"}}, {"type": "node", "id": 7996996145, "lat": 40.0712678, "lon": 117.2367747, "tags": {"amenity": "bus_station", "bus": "yes", "name": "\u767d\u5cea", "public_transport": "station"}}, {"type": "node", "id": 7996996148, "lat": 40.0758464, "lon": 117.2336443, "tags": {"amenity": "bus_station", "bus": "yes", "name": "\u5317\u6c34\u6cc9", "public_transport": "station"}}, {"type": "node", "id": 7996996149, "lat": 40.0843662, "lon": 117.2331267, "tags": {"amenity": "bus_station", "bus": "yes", "name": "\u7530\u5bb6\u5cea", "public_transport": "station"}}, {"type": "node", "id": 7996997291, "lat": 40.0932055, "lon": 117.2328371, "tags": {"amenity": "bus_station", "bus": "yes", "name": "\u76d8\u9f99\u8c37", "public_transport": "station"}}, {"type": "node", "id": 7997016212, "lat": 40.1134112, "lon": 117.2476664, "tags": {"amenity": "bus_station", "bus": "yes", "name": "\u8bb8\u5bb6\u53f0\u68c0\u67e5\u7ad9", "public_transport": "station"}}, {"type": "node", "id": 7997019497, "lat": 40.1034782, "lon": 117.239432, "tags": {"amenity": "bus_station", "bus": "yes", "name": "\u5362\u5bb6\u5cea", "public_transport": "station"}}, {"type": "node", "id": 7997025193, "lat": 40.0933427, "lon": 117.2327533, "tags": {"amenity": "bus_station", "bus": "yes", "name": "\u76d8\u9f99\u8c37", "public_transport": "station"}}, {"type": "node", "id": 7997025205, "lat": 40.0837762, "lon": 117.2330323, "tags": {"amenity": "bus_station", "bus": "yes", "name": "\u7530\u5bb6\u5cea", "public_transport": "station"}}, {"type": "node", "id": 7997025206, "lat": 40.0756696, "lon": 117.2334775, "tags": {"amenity": "bus_station", "bus": "yes", "name": "\u5317\u6c34\u6cc9", "public_transport": "station"}}, {"type": "node", "id": 7997051303, "lat": 40.0643321, "lon": 117.2793603, "tags": {"amenity": "bus_station", "bus": "yes", "name": "\u76d8\u5c71\u7535\u529b\u6240", "public_transport": "station"}}, {"type": "node", "id": 7997051304, "lat": 40.0680644, "lon": 117.2777393, "tags": {"amenity": "bus_station", "bus": "yes", "name": "\u77f3\u4f5b\u6865", "public_transport": "station"}}, {"type": "node", "id": 7997051305, "lat": 40.0769693, "lon": 117.2693656, "tags": {"amenity": "bus_station", "bus": "yes", "name": "\u76d8\u5c71\u98ce\u666f\u533a", "public_transport": "station"}}, {"type": "node", "id": 8061382141, "lat": 40.0718688, "lon": 117.2717038, "tags": {"amenity": "bus_station", "bus": "yes", "name": "\u9ad8\u901f\u53e3", "public_transport": "station"}}, {"type": "node", "id": 8061382142, "lat": 40.0718309, "lon": 117.2713995, "tags": {"amenity": "bus_station", "bus": "yes", "name": "\u9ad8\u901f\u53e3", "public_transport": "station"}}, {"type": "node", "id": 8061406075, "lat": 40.067709, "lon": 117.278567, "tags": {"amenity": "bus_station", "bus": "yes", "name": "\u77f3\u4f5b\u6865\uff08\u4e0a\u884c\uff09", "public_transport": "station"}}, {"type": "node", "id": 8061406076, "lat": 40.0687274, "lon": 117.2731024, "tags": {"amenity": "bus_station", "bus": "yes", "name": "\u9ad8\u901f\u53e3\uff08\u4e0a\u884c\uff09", "public_transport": "station"}}, {"type": "node", "id": 8061409203, "lat": 40.0766248, "lon": 117.2695279, "tags": {"amenity": "bus_station", "bus": "yes", "name": "\u76d8\u5c71\u98ce\u666f\u533a", "public_transport": "station"}}, {"type": "node", "id": 8061409215, "lat": 40.0689681, "lon": 117.2726875, "tags": {"amenity": "bus_station", "bus": "yes", "name": "\u9ad8\u901f\u53e3\uff08\u4e0b\u884c\uff09", "public_transport": "station"}}, {"type": "node", "id": 8061409216, "lat": 40.0677277, "lon": 117.2778122, "tags": {"amenity": "bus_station", "bus": "yes", "name": "\u77f3\u4f5b\u6865\uff08\u4e0b\u884c\uff09", "public_transport": "station"}}, {"type": "node", "id": 8079656075, "lat": 40.0020885, "lon": 117.215637, "tags": {"amenity": "bus_station", "bus": "yes", "name": "\u8f9b\u897f\u6751", "public_transport": "station"}}, {"type": "node", "id": 8079697963, "lat": 40.0110092, "lon": 117.2118309, "tags": {"amenity": "bus_station", "bus": "yes", "name": "\u5218\u5409\u7d20\u6751\u5317", "public_transport": "station"}}, {"type": "node", "id": 8079700799, "lat": 40.0074838, "lon": 117.2120294, "tags": {"amenity": "bus_station", "bus": "yes", "name": "\u5218\u5409\u7d20\u6751", "public_transport": "station"}}, {"type": "node", "id": 8079710155, "lat": 40.0457822, "lon": 117.1989316, "tags": {"amenity": "bus_station", "bus": "yes", "name": "\u5e84\u679c\u5cea\u6751", "public_transport": "station"}}, {"type": "node", "id": 8079726529, "lat": 40.0110527, "lon": 117.2116881, "tags": {"amenity": "bus_station", "bus": "yes", "name": "\u5218\u5409\u7d20\u6751\u5317", "public_transport": "station"}}, {"type": "node", "id": 8079727369, "lat": 40.0074907, "lon": 117.2119075, "tags": {"amenity": "bus_station", "bus": "yes", "name": "\u5218\u5409\u7d20\u6751", "public_transport": "station"}}, {"type": "node", "id": 8079727370, "lat": 40.0020928, "lon": 117.2155442, "tags": {"amenity": "bus_station", "bus": "yes", "name": "\u8f9b\u897f\u6751", "public_transport": "station"}}, {"type": "node", "id": 8087586775, "lat": 40.0780068, "lon": 117.2697003, "tags": {"amenity": "bus_station", "bus": "yes", "name": "\u83b2\u82b1\u5cad\u6751", "public_transport": "station"}}, {"type": "node", "id": 8410935353, "lat": 39.9614588, "lon": 116.9963746, "tags": {"name": "\u4e09\u5e73", "public_transport": "station", "railway": "station", "train": "yes"}}, {"type": "node", "id": 9028825661, "lat": 40.2258491, "lon": 117.1184577, "tags": {"bus": "yes", "highway": "bus_stop", "public_transport": "platform"}}, {"type": "node", "id": 9483575901, "lat": 40.0665576, "lon": 117.1440473}, {"type": "node", "id": 9483575902, "lat": 40.0664946, "lon": 117.1440514}, {"type": "node", "id": 9483575903, "lat": 40.0664989, "lon": 117.1441661}, {"type": "node", "id": 9483575904, "lat": 40.066562, "lon": 117.1441621}, {"type": "node", "id": 9483575909, "lat": 40.077443, "lon": 117.1425482}, {"type": "node", "id": 9483575910, "lat": 40.0773676, "lon": 117.142551}, {"type": "node", "id": 9483575911, "lat": 40.0773698, "lon": 117.1426524}, {"type": "node", "id": 9483575912, "lat": 40.0774453, "lon": 117.1426495}, {"type": "node", "id": 9483575913, "lat": 40.0773687, "lon": 117.1426019}, {"type": "node", "id": 9483575914, "lat": 40.0665598, "lon": 117.1441044}, {"type": "node", "id": 9502031996, "lat": 40.0774039, "lon": 117.1401262}, {"type": "node", "id": 9502031997, "lat": 40.0775086, "lon": 117.1400514}, {"type": "node", "id": 9502031998, "lat": 40.0773976, "lon": 117.140075}, {"type": "node", "id": 9502031999, "lat": 40.0774103, "lon": 117.140178}, {"type": "node", "id": 9502032000, "lat": 40.0775214, "lon": 117.1401544}, {"type": "way", "id": 241103349, "nodes": [2487983208, 2487983206], "tags": {"bench": "yes", "highway": "platform", "public_transport": "platform", "shelter": "yes"}}, {"type": "way", "id": 241107245, "nodes": [2488077657, 2488077663], "tags": {"highway": "platform", "public_transport": "platform", "shelter": "yes"}}, {"type": "way", "id": 241123283, "nodes": [2488244148, 2488244149], "tags": {"bench": "yes", "highway": "platform", "public_transport": "platform", "shelter": "yes"}}, {"type": "way", "id": 241123284, "nodes": [2488244147, 2488244146], "tags": {"bench": "yes", "highway": "platform", "public_transport": "platform", "shelter": "yes"}}, {"type": "way", "id": 1028662045, "nodes": [9483575901, 9483575902, 9483575903, 9483575904, 9483575914, 9483575901], "tags": {"aerialway": "station", "aerialway:station": "top", "building": "yes", "public_transport": "station"}}, {"type": "way", "id": 1028662047, "nodes": [9483575909, 9483575910, 9483575913, 9483575911, 9483575912, 9483575909], "tags": {"aerialway": "station", "aerialway:station": "bottom", "building": "yes", "public_transport": "station"}}, {"type": "way", "id": 1030845017, "nodes": [9502031997, 9502031998, 9502031996, 9502031999, 9502032000, 9502031997], "tags": {"aerialway": "station", "aerialway:station": "bottom", "building": "yes", "public_transport": "station"}}, {"type": "relation", "id": 3253433, "members": [{"type": "node", "ref": 2487983207, "role": "stop"}, {"type": "way", "ref": 241103349, "role": "platform"}], "tags": {"public_transport": "stop_area", "type": "public_transport"}}, {"type": "relation", "id": 3253434, "members": [{"type": "node", "ref": 530715510, "role": "stop"}, {"type": "node", "ref": 2487983209, "role": "platform"}], "tags": {"public_transport": "stop_area", "type": "public_transport"}}, {"type": "relation", "id": 3253435, "members": [{"type": "node", "ref": 2487983222, "role": "stop"}, {"type": "node", "ref": 2487983199, "role": "platform"}], "tags": {"name": "\u6253\u94c1\u5e84", "public_transport": "stop_area", "type": "public_transport"}}, {"type": "relation", "id": 3253504, "members": [{"type": "node", "ref": 2488040103, "role": "stop"}, {"type": "node", "ref": 2488040099, "role": "platform"}], "tags": {"public_transport": "stop_area", "type": "public_transport"}}, {"type": "relation", "id": 3253518, "members": [{"type": "node", "ref": 2488077684, "role": "stop"}, {"type": "node", "ref": 2488077681, "role": "platform"}], "tags": {"public_transport": "stop_area", "type": "public_transport"}}, {"type": "relation", "id": 3253519, "members": [{"type": "node", "ref": 2488077689, "role": "stop"}, {"type": "node", "ref": 2488077686, "role": "platform"}], "tags": {"name": "\u4e0b\u7eb8\u5be8", "public_transport": "stop_area", "type": "public_transport"}}, {"type": "relation", "id": 3253520, "members": [{"type": "node", "ref": 2488077691, "role": "stop"}, {"type": "way", "ref": 241107245, "role": "platform"}], "tags": {"name": "\u5e73\u8c37\u6c7d\u8f66\u7ad9", "public_transport": "stop_area", "type": "public_transport"}}, {"type": "relation", "id": 3253812, "members": [{"type": "way", "ref": 241123284, "role": "platform"}, {"type": "node", "ref": 2488040009, "role": "stop"}], "tags": {"public_transport": "stop_area", "type": "public_transport"}}, {"type": "relation", "id": 3253813, "members": [{"type": "node", "ref": 2488040084, "role": "stop"}, {"type": "way", "ref": 241123283, "role": "platform"}], "tags": {"public_transport": "stop_area", "type": "public_transport"}}]}